{"type":"FeatureCollection","features":[{"type":"Feature","properties":{"elev_m":22.0},"geometry":{"type":"LineString","coordinates":[[44.3934167,33.3419779],[44.3934176,33.3418427],[44.3934194,33.3415722],[44.3930949,33.3418412],[44.3927727,33.341772],[44.3924499,33.3417705],[44.392128,33.3416563],[44.3918059,33.3415646],[44.3916965,33.3418346],[44.3916956,33.3419699]]}},{"type":"Feature","properties":{"elev_m":22.0},"geometry":{"type":"LineString","coordinates":[[44.389875,33.340744],[44.3895523,33.3407425],[44.3893891,33.3410123],[44.3895496,33.3411483],[44.3898714,33.341285],[44.3898732,33.3410145],[44.389875,33.340744]]}},{"type":"Feature","properties":{"elev_m":22.0},"geometry":{"type":"LineString","coordinates":[[44.3943948,33.3404946],[44.3940721,33.3404931],[44.3939089,33.3407629],[44.3940685,33.3410342],[44.3943903,33.3411709],[44.3947139,33.3410372],[44.3948233,33.3407672],[44.3947166,33.3406314],[44.3943948,33.3404946]]}},{"type":"Feature","properties":{"elev_m":22.0},"geometry":{"type":"LineString","coordinates":[[44.3911731,33.339668],[44.3908508,33.3395988],[44.3905285,33.3395297],[44.3902064,33.339447],[44.3898834,33.3394816],[44.3896671,33.3396609],[44.3895586,33.3397957],[44.3895116,33.3399307],[44.3895571,33.3400211],[44.3898786,33.340203],[44.3902013,33.3402045],[44.3905222,33.3404765],[44.3908449,33.340478],[44.3911695,33.340209],[44.3914922,33.3402105],[44.3918131,33.3404826],[44.3916499,33.3407523],[44.3918104,33.3408883],[44.3921322,33.3410251],[44.3922147,33.340755],[44.3921358,33.3404841],[44.3918149,33.340212],[44.3918167,33.3399415],[44.391494,33.33994],[44.3911731,33.339668]]}},{"type":"Feature","properties":{"elev_m":12.0},"geometry":{"type":"LineString","coordinates":[[44.3877855,33.3395169],[44.3879468,33.3395176],[44.3881629,33.3393834],[44.387948,33.3393332],[44.3877867,33.3393324]]}},{"type":"Feature","properties":{"elev_m":22.0},"geometry":{"type":"LineString","coordinates":[[44.3947265,33.3391436],[44.3944038,33.3391421],[44.3947265,33.3391436]]}},{"type":"Feature","properties":{"elev_m":12.0},"geometry":{"type":"LineString","coordinates":[[44.3960228,33.3383381],[44.3963437,33.3386101],[44.3960201,33.3387438],[44.3958596,33.3386078],[44.3960228,33.3383381]]}},{"type":"Feature","properties":{"elev_m":12.0},"geometry":{"type":"LineString","coordinates":[[44.3973124,33.3385245],[44.3976346,33.3386161],[44.3973109,33.3387499],[44.3969891,33.3386131],[44.3973124,33.3385245]]}},{"type":"Feature","properties":{"elev_m":22.0},"geometry":{"type":"LineString","coordinates":[[44.3951318,33.3364402],[44.3950682,33.3363047],[44.3947445,33.3364384],[44.3944218,33.3364369],[44.394098,33.3365977],[44.3938822,33.3367049],[44.3937743,33.3367495],[44.3934505,33.3369058],[44.3933425,33.3369729],[44.3931256,33.3372424],[44.3928035,33.3371507],[44.3926971,33.3369699],[44.3924837,33.3366984],[44.3921616,33.3366067],[44.3918386,33.3366446],[44.3915157,33.3366788],[44.3914977,33.3366937],[44.3915138,33.3369643],[44.3917056,33.3372358],[44.3915102,33.3375054],[44.3918317,33.3376872],[44.3919925,33.3377782],[44.3921532,33.3378691],[44.3922811,33.33805],[44.3923116,33.3383207],[44.3924711,33.338592],[44.3927941,33.3385484],[44.3931176,33.3384404],[44.393312,33.3383254],[44.3934423,33.3381456],[44.3935504,33.338056],[44.393606,33.3377857],[44.3937683,33.3376512],[44.3940917,33.3375561],[44.3942533,33.3375182],[44.394415,33.3374649],[44.3947382,33.3373852],[44.3949005,33.3372507],[44.3947409,33.3369795],[44.3950655,33.3367104],[44.3951318,33.3364402]]}},{"type":"Feature","properties":{"elev_m":22.0},"geometry":{"type":"LineString","coordinates":[[44.3981475,33.3342902],[44.3979861,33.3342894],[44.3981475,33.3342902]]}},{"type":"Feature","properties":{"elev_m":22.0},"geometry":{"type":"LineString","coordinates":[[44.3970216,33.3337438],[44.3966989,33.3337423],[44.3963749,33.3339212],[44.3960516,33.3340098],[44.3958885,33.3342796],[44.3960489,33.3344156],[44.3963707,33.3345524],[44.3966917,33.3348244],[44.3966935,33.3345539],[44.3968566,33.3342841],[44.3970189,33.3341496],[44.3971811,33.3340151],[44.3970216,33.3337438]]}},{"type":"Feature","properties":{"elev_m":2.0},"geometry":{"type":"LineString","coordinates":[[44.3970776,33.3322562],[44.3970767,33.3323915],[44.3970303,33.3324364],[44.396707,33.332525],[44.3965447,33.3326595],[44.3963816,33.3329293],[44.3960579,33.333063],[44.3958957,33.3331975],[44.3957341,33.3332354],[44.3954098,33.3334658],[44.3951314,33.333735],[44.395085,33.3337799],[44.3948146,33.334004],[44.3947605,33.3340489],[44.3944363,33.3342728],[44.3941655,33.334542],[44.3941114,33.3345959],[44.3938518,33.3348111],[44.3937869,33.3348559],[44.3934636,33.3349445],[44.39314,33.3350783],[44.3929768,33.3353481],[44.3928598,33.335618],[44.3928133,33.3356719],[44.39249,33.3357516],[44.3923278,33.3358861],[44.3921661,33.3359394],[44.3919065,33.3361546],[44.3918417,33.3361881],[44.3915185,33.336261],[44.3911947,33.3364218],[44.3909993,33.3366914],[44.3909145,33.3369615],[44.3908681,33.3370064],[44.3905976,33.3372306],[44.3905435,33.3372844],[44.3902839,33.3374996],[44.3902187,33.3375895],[44.3900024,33.3377688],[44.3898946,33.3378022],[44.3895712,33.3379021],[44.3894089,33.3380366],[44.3892467,33.3381711],[44.3890844,33.3383056],[44.3889222,33.3384401],[44.3887599,33.3385746],[44.3885967,33.3388444],[44.3882738,33.3388729],[44.3879504,33.3389766],[44.3877891,33.3389758]]}},{"type":"Feature","properties":{"elev_m":2.0},"geometry":{"type":"LineString","coordinates":[[44.387799,33.337488],[44.3879603,33.3374888],[44.3882839,33.337355],[44.3886062,33.3374242],[44.3888012,33.3372222],[44.3889308,33.3371455],[44.3891626,33.3369533],[44.389149,33.3366828],[44.3892584,33.3364127],[44.3895184,33.3361434],[44.389504,33.3358728],[44.3895856,33.335738],[44.3898017,33.3356037],[44.3898035,33.3353332],[44.3899119,33.3351984],[44.390128,33.3350642],[44.3901567,33.3347938],[44.3902381,33.334686],[44.3904328,33.3345246],[44.3905626,33.334417],[44.3907573,33.3342556],[44.390887,33.334166],[44.39121,33.3341224],[44.3913723,33.3339879],[44.3914432,33.3337177],[44.3915361,33.33361],[44.3918587,33.3336295],[44.3920213,33.3334499],[44.3921845,33.3331802],[44.3925084,33.3330013],[44.3928317,33.3329127],[44.3931553,33.3327789],[44.3933176,33.3326444],[44.3934807,33.3323747],[44.3934816,33.3322394]]}},{"type":"Feature","properties":{"elev_m":12.0},"geometry":{"type":"LineString","coordinates":[[44.3975156,33.3322583],[44.3975147,33.3323935],[44.3974437,33.3326637],[44.3973503,33.3328436],[44.3971883,33.3329331],[44.3970265,33.3329999],[44.3967025,33.3332013],[44.3963779,33.3334703],[44.3960547,33.3335461],[44.3957315,33.3336219],[44.3955924,33.3337372],[44.3954068,33.3339166],[44.395314,33.3340064],[44.3952108,33.3342764],[44.3950799,33.3345463],[44.3947563,33.3346801],[44.3944326,33.3348138],[44.3941081,33.3350828],[44.3937844,33.3352316],[44.3934611,33.3353203],[44.3934286,33.3353502],[44.3932537,33.3356199],[44.3931354,33.3357739],[44.393027,33.3358893],[44.3928103,33.3361202],[44.3927025,33.3361583],[44.3924868,33.3362346],[44.3921637,33.3362911],[44.3919477,33.3364253],[44.3918398,33.3364755],[44.3915167,33.3365285],[44.3913184,33.3366929],[44.3912833,33.3369633],[44.3911905,33.3370461],[44.3909818,33.3372324],[44.3908657,33.3373548],[44.3907034,33.3375016],[44.390541,33.3376632],[44.3904327,33.3377709],[44.3903771,33.3380411],[44.3902139,33.3383109],[44.389891,33.3383432],[44.3895683,33.3383417],[44.389244,33.3385769],[44.3891212,33.3388468],[44.388918,33.3390713],[44.3888531,33.3391161],[44.3885937,33.3392952],[44.388378,33.3393844],[44.3885913,33.3396559],[44.3884282,33.3399257],[44.3882661,33.3400331],[44.3879441,33.3399234],[44.3877827,33.3399226]]}},{"type":"Feature","properties":{"elev_m":12.0},"geometry":{"type":"LineString","coordinates":[[44.3878062,33.3364059],[44.3879675,33.3364067],[44.3882916,33.3362053],[44.3883996,33.3361382],[44.388616,33.3359589],[44.3889393,33.3358702],[44.3892638,33.3356012],[44.3893463,33.3353311],[44.389375,33.3350607],[44.3895919,33.3347912],[44.3899158,33.3346123],[44.3899882,33.3345225],[44.3902407,33.334287],[44.3902813,33.3342533],[44.3905653,33.334018],[44.3906116,33.3339844],[44.3908897,33.3337538],[44.3909438,33.3337154],[44.3909994,33.3334451],[44.3912157,33.3332658],[44.3915386,33.3332372],[44.3916681,33.3331777],[44.3918631,33.3329758],[44.3919442,33.3329085],[44.3921876,33.3327068],[44.3923494,33.3326399],[44.3925114,33.3325505],[44.3928347,33.3324618],[44.3929967,33.3323724],[44.3929976,33.3322371]]}},{"type":"Feature","properties":{"elev_m":12.0},"geometry":{"type":"LineString","coordinates":[[44.3912226,33.3322288],[44.3912217,33.3323641],[44.3911123,33.3326341],[44.390896,33.3328134],[44.3905741,33.3326857],[44.3904669,33.3326311],[44.390253,33.3324497],[44.3900922,33.3323588],[44.3900931,33.3322235]]}},{"type":"Feature","properties":{"elev_m":22.0},"geometry":{"type":"LineString","coordinates":[[44.3878256,33.3334844],[44.387987,33.3334851],[44.388068,33.3334314],[44.3883119,33.333162],[44.3883137,33.3328915],[44.3883155,33.332621],[44.38864,33.332352],[44.3886409,33.3322167]]}}]}
