{"type":"FeatureCollection","features":[{"type":"Feature","properties":{"layer":"water"},"geometry":{"type":"Polygon","coordinates":[[[44.3950923,33.3326777],[44.3952381,33.3325676],[44.3954167,33.3324326],[44.395578,33.3323106],[44.392822,33.3344034],[44.3931046,33.3341807],[44.3931264,33.3341636],[44.3931462,33.3341486],[44.3934594,33.3339118],[44.3934705,33.3339034],[44.3937949,33.3336582],[44.3938151,33.333643],[44.3938711,33.3336006],[44.3941193,33.3334131],[44.3941708,33.3333741],[44.3944436,33.333168],[44.3945266,33.3331053],[44.394768,33.3329229],[44.3948824,33.3328364],[44.394966,33.3327732],[44.3950923,33.3326777]]]}},{"type":"Feature","properties":{"layer":"water"},"geometry":{"type":"Polygon","coordinates":[[[44.3885186,33.337676],[44.3882806,33.3378545],[44.3881601,33.3379449],[44.388092,33.3379959],[44.3879968,33.3380673],[44.392822,33.3344034],[44.3928218,33.3344036],[44.3927633,33.3344496],[44.3924973,33.3346592],[44.392422,33.3347186],[44.3921729,33.3349148],[44.3920806,33.3349875],[44.3918485,33.3351704],[44.3917393,33.3352564],[44.3916221,33.3353488],[44.3915241,33.3354223],[44.3913867,33.3355253],[44.3911997,33.3356655],[44.3910282,33.3357941],[44.3908754,33.3359087],[44.3906697,33.336063],[44.390551,33.3361519],[44.3905017,33.3361889],[44.3903112,33.3363318],[44.3902267,33.3363952],[44.3899526,33.3366007],[44.3899023,33.3366384],[44.3895941,33.3368695],[44.389578,33.3368816],[44.3892537,33.3371248],[44.3892356,33.3371384],[44.3889328,33.3373655],[44.3889293,33.3373681],[44.3888771,33.3374072],[44.388605,33.3376113],[44.3885186,33.337676]]]}},{"type":"Feature","properties":{"layer":"water"},"geometry":{"type":"Polygon","coordinates":[[[44.3973514,33.3323103],[44.3971234,33.33249],[44.3970296,33.3325451],[44.3969774,33.3325757],[44.3967797,33.3326917],[44.3967056,33.3327348],[44.3965233,33.3328408],[44.3965188,33.3328441],[44.3963814,33.3329458],[44.3963099,33.3329988],[44.396173,33.333113],[44.396057,33.3332098],[44.3960333,33.3332295],[44.3958109,33.3333818],[44.3957944,33.3333931],[44.3957327,33.3334374],[44.3955823,33.3335455],[44.3954224,33.3336505],[44.3954085,33.3336596],[44.3953433,33.3337024],[44.3951286,33.3338391],[44.3950844,33.3338678],[44.3950056,33.3339191],[44.3949218,33.3339736],[44.3947603,33.3340791],[44.3947366,33.3340945],[44.3945987,33.3341877],[44.3944976,33.334256],[44.394436,33.3343105],[44.394366,33.3343725],[44.3942831,33.3344568],[44.3942667,33.3344734],[44.394197,33.3345741],[44.394111,33.3346477],[44.394091,33.3346649],[44.3940642,33.3346855],[44.3940376,33.3347061],[44.3940108,33.334726],[44.39395,33.3347713],[44.3938775,33.3348185],[44.3937868,33.3348703],[44.3936815,33.3349305],[44.3935784,33.3349945],[44.3935553,33.3350088],[44.3934628,33.3350705],[44.3932627,33.3352039],[44.39318,33.3352632],[44.3931386,33.3352929],[44.3930721,33.3353406],[44.3928761,33.3354795],[44.3928143,33.3355267],[44.3928075,33.3355319],[44.3926183,33.3356766],[44.3924899,33.335776],[44.3924578,33.3358008],[44.3923982,33.335847],[44.3921656,33.3360153],[44.3921163,33.336051],[44.3920901,33.3360696],[44.3918452,33.3362437],[44.3918413,33.3362463],[44.3917022,33.3363383],[44.391676,33.3363557],[44.3915687,33.3364745],[44.3915166,33.3365469],[44.3914801,33.3365976],[44.3914661,33.3366078],[44.3914022,33.3366538],[44.391268,33.336721],[44.3911924,33.3367657],[44.3911203,33.3368084],[44.391025,33.3368762],[44.3908841,33.3369764],[44.3908682,33.3369872],[44.3906935,33.3371064],[44.390638,33.3371449],[44.390544,33.3372102],[44.3904546,33.3372723],[44.3902529,33.3374136],[44.3902197,33.3374369],[44.390186,33.3374605],[44.389931,33.3376443],[44.3898954,33.3376737],[44.3898849,33.3376824],[44.3896425,33.3378829],[44.3895709,33.3379395],[44.3895558,33.3379514],[44.3893902,33.3380823],[44.3892466,33.3381895],[44.3892053,33.3382203],[44.3891875,33.3382336],[44.3890035,33.3383446],[44.3889224,33.3383975],[44.3888438,33.3384488],[44.3887886,33.3384889],[44.3887405,33.3385238],[44.3886506,33.3385821],[44.3885982,33.3386283],[44.3885325,33.3386863],[44.3884914,33.3387156],[44.388432,33.3387577],[44.3884237,33.3387636],[44.388319,33.3388465],[44.3882737,33.3388861],[44.388205,33.3389462],[44.3880852,33.3390266],[44.3880546,33.3390472],[44.3879971,33.339084],[44.3879971,33.3390262],[44.387997,33.3387557],[44.3879969,33.3384852],[44.3879968,33.3382147],[44.3879967,33.3379441],[44.3879966,33.3376736],[44.3879965,33.3374031],[44.3879965,33.3371326],[44.3879964,33.3370817],[44.388019,33.3370644],[44.3882248,33.3368712],[44.3882353,33.3368632],[44.3882875,33.3368228],[44.3885834,33.3365943],[44.3886119,33.3365723],[44.3887584,33.3364591],[44.3889234,33.3363253],[44.3889363,33.3363148],[44.389015,33.336251],[44.3891452,33.3361647],[44.3892607,33.3360663],[44.3892723,33.3360564],[44.3892814,33.3360487],[44.3893357,33.3360017],[44.389411,33.3359429],[44.389517,33.3359065],[44.3895849,33.3358491],[44.3896575,33.3357877],[44.3896834,33.3357658],[44.3899093,33.3355975],[44.3899479,33.3355687],[44.3899653,33.3355339],[44.3899805,33.3355187],[44.3901063,33.3353927],[44.3901908,33.3353423],[44.390234,33.335302],[44.3902901,33.3352496],[44.3904754,33.3350767],[44.3905587,33.3350025],[44.3905835,33.3349805],[44.3907183,33.3348605],[44.3908626,33.3347113],[44.3908835,33.3346897],[44.3909317,33.3346398],[44.3910927,33.3345188],[44.3911236,33.3344437],[44.3911261,33.334442],[44.3911921,33.3343955],[44.3912082,33.334388],[44.3912672,33.3343608],[44.3914646,33.3341883],[44.3914822,33.3341731],[44.3915327,33.3341296],[44.3917196,33.3339686],[44.3917875,33.333904],[44.3918574,33.3338377],[44.3919317,33.333767],[44.3920718,33.3336348],[44.3921821,33.3335308],[44.3921894,33.3335239],[44.3923276,33.3333893],[44.3923553,33.3333656],[44.3924928,33.3332481],[44.3925068,33.333235],[44.3926552,33.3330965],[44.3927304,33.3330263],[44.3928315,33.3329436],[44.3929733,33.3328275],[44.3930069,33.3328],[44.3931559,33.3326863],[44.3932566,33.3326095],[44.3933214,33.3325586],[44.3934803,33.3324337],[44.3934848,33.3324302],[44.3936353,33.332311],[44.3938039,33.332311],[44.3941266,33.3323109],[44.3944493,33.3323109],[44.394772,33.3323108],[44.3950948,33.3323107],[44.3954175,33.3323107],[44.3957402,33.3323106],[44.3960629,33.3323106],[44.3963857,33.3323105],[44.3967084,33.3323104],[44.3970311,33.3323104],[44.3973514,33.3323103]]]}},{"type":"Feature","properties":{"layer":"parks"},"geometry":{"type":"Polygon","coordinates":[[[44.3880192,33.3397619],[44.3881751,33.3396284],[44.3882146,33.3396605],[44.3880587,33.339794],[44.3880192,33.3397619]]]}}]}
