{"type":"FeatureCollection","features":[{"type":"Feature","properties":{"id":"H001","area_m2":893,"src":"plan","courtyard":false},"geometry":{"type":"Polygon","coordinates":[[[44.3889508,33.3390337],[44.3889715,33.3390529],[44.3889644,33.3390846],[44.3892003,33.3393056],[44.3893576,33.3392002],[44.3893444,33.3391599],[44.3892962,33.339115],[44.3892993,33.3390988],[44.3893413,33.3390571],[44.3893115,33.339027],[44.3892984,33.3390267],[44.3891851,33.3391059],[44.3890878,33.3390204],[44.3890902,33.3390044],[44.3892079,33.3389139],[44.3891213,33.3388297],[44.3890748,33.3388582],[44.3891387,33.3389048],[44.3890951,33.3389662],[44.3890761,33.3389671],[44.388996,33.3389145],[44.388887,33.3389914],[44.3888867,33.3390029],[44.3889227,33.3390361],[44.3889508,33.3390337]]]}},{"type":"Feature","properties":{"id":"H002","area_m2":44,"src":"footprint","courtyard":false},"geometry":{"type":"Polygon","coordinates":[[[44.3890241,33.3389231],[44.3890849,33.3389557],[44.3891227,33.3389066],[44.3890619,33.338874],[44.3890241,33.3389231]]]}},{"type":"Feature","properties":{"id":"H003","area_m2":90,"src":"plan","courtyard":false},"geometry":{"type":"Polygon","coordinates":[[[44.3898033,33.3394672],[44.389738,33.3395126],[44.3898036,33.339589],[44.3898527,33.339565],[44.3898668,33.3395408],[44.3898367,33.3394919],[44.3898033,33.3394672]]]}},{"type":"Feature","properties":{"id":"H004","area_m2":285,"src":"footprint","courtyard":false},"geometry":{"type":"Polygon","coordinates":[[[44.3893817,33.3389466],[44.3892978,33.3388679],[44.3891018,33.3390137],[44.3891858,33.3390924],[44.3893817,33.3389466]]]}},{"type":"Feature","properties":{"id":"H005","area_m2":129,"src":"footprint","courtyard":false},"geometry":{"type":"MultiPolygon","coordinates":[[[[44.3894867,33.3390746],[44.3895558,33.3390179],[44.389528,33.3389892],[44.3894752,33.3389621],[44.3894669,33.3389908],[44.3894168,33.3390238],[44.3894202,33.3390349],[44.3894379,33.3390362],[44.3894867,33.3390746]]],[[[44.3893606,33.3390405],[44.3894541,33.3389826],[44.3894246,33.3389493],[44.3893311,33.3390072],[44.3893606,33.3390405]]]]}},{"type":"Feature","properties":{"id":"H006","area_m2":171,"src":"plan","courtyard":false},"geometry":{"type":"Polygon","coordinates":[[[44.3891712,33.3387841],[44.3891696,33.3387969],[44.389247,33.338878],[44.3893031,33.3388551],[44.3893979,33.3389414],[44.3894302,33.3389319],[44.3892432,33.3387388],[44.3891712,33.3387841]]]}},{"type":"Feature","properties":{"id":"H007","area_m2":660,"src":"plan","courtyard":false},"geometry":{"type":"Polygon","coordinates":[[[44.3896557,33.3392763],[44.3896417,33.3393392],[44.3896709,33.3393857],[44.3897454,33.3394576],[44.3898389,33.3393962],[44.3898408,33.3393809],[44.3899604,33.3392853],[44.3899312,33.339264],[44.3898127,33.3391256],[44.3897857,33.3391174],[44.389628,33.339221],[44.3896557,33.3392763]]]}},{"type":"Feature","properties":{"id":"H008","area_m2":438,"src":"plan","courtyard":false},"geometry":{"type":"Polygon","coordinates":[[[44.3911041,33.3403577],[44.391093,33.3403983],[44.3911999,33.3404687],[44.3911474,33.3405423],[44.3912559,33.3406146],[44.3913038,33.3405855],[44.3913402,33.3405423],[44.3912809,33.3405056],[44.391284,33.340489],[44.3913251,33.3404511],[44.3913785,33.3404527],[44.391393,33.3404753],[44.3914204,33.3404604],[44.3913368,33.3403851],[44.391308,33.3403873],[44.3911987,33.3403164],[44.3911598,33.3403456],[44.3911041,33.3403577]],[[44.391217,33.3404559],[44.39122,33.3404396],[44.3912526,33.3404221],[44.3912651,33.3404336],[44.391262,33.3404498],[44.3912294,33.3404674],[44.391217,33.3404559]]]}},{"type":"Feature","properties":{"id":"H009","area_m2":67,"src":"footprint","courtyard":false},"geometry":{"type":"Polygon","coordinates":[[[44.3906779,33.3397681],[44.3907569,33.339837],[44.3908059,33.3397978],[44.3907268,33.3397289],[44.3906779,33.3397681]]]}},{"type":"Feature","properties":{"id":"H010","area_m2":114,"src":"footprint","courtyard":false},"geometry":{"type":"Polygon","coordinates":[[[44.3901153,33.3391037],[44.3901046,33.3390872],[44.3900526,33.3391105],[44.3901108,33.3392009],[44.3902148,33.3391542],[44.3901673,33.3390803],[44.3901153,33.3391037]]]}},{"type":"Feature","properties":{"id":"H011","area_m2":508,"src":"plan","courtyard":true},"geometry":{"type":"Polygon","coordinates":[[[44.3906964,33.3396352],[44.3905201,33.3397597],[44.3905644,33.3398093],[44.3905944,33.3398025],[44.3906345,33.3397726],[44.3906583,33.33977],[44.3907269,33.3397154],[44.3908174,33.3397883],[44.3908279,33.3398075],[44.3908773,33.3397779],[44.3908967,33.3397771],[44.3909352,33.3398198],[44.3909641,33.3398071],[44.3909057,33.3397565],[44.3909187,33.3397385],[44.3909243,33.3396793],[44.3908879,33.3396445],[44.3909003,33.3396217],[44.3908907,33.3395989],[44.3908283,33.3395347],[44.3907702,33.3395801],[44.3907677,33.3396095],[44.3907282,33.3396394],[44.3906964,33.3396352]],[[44.3907721,33.3396899],[44.390816,33.3396638],[44.3908357,33.3396629],[44.3908688,33.3396937],[44.3908658,33.3397099],[44.390826,33.3397399],[44.3907721,33.3396899]]]}},{"type":"Feature","properties":{"id":"H012","area_m2":199,"src":"plan","courtyard":false},"geometry":{"type":"Polygon","coordinates":[[[44.3909683,33.3398987],[44.3910287,33.3399565],[44.3910334,33.3399851],[44.39105,33.3399891],[44.3911011,33.3399429],[44.3910789,33.3399094],[44.3911383,33.3398369],[44.3911547,33.3398315],[44.3911844,33.3398443],[44.3911928,33.3398304],[44.3911542,33.3397994],[44.391103,33.339783],[44.3910306,33.3398436],[44.3910057,33.339842],[44.3909735,33.3398662],[44.3909683,33.3398987]]]}},{"type":"Feature","properties":{"id":"H013","area_m2":80,"src":"plan","courtyard":false},"geometry":{"type":"Polygon","coordinates":[[[44.3903428,33.3391773],[44.390303,33.3392169],[44.3903173,33.3392286],[44.3903333,33.339226],[44.3903389,33.3392487],[44.3903791,33.3392779],[44.3904237,33.3392679],[44.390441,33.3392504],[44.3904081,33.3392098],[44.3903685,33.3392203],[44.3903561,33.3392088],[44.390369,33.3391921],[44.3904027,33.3391897],[44.3904056,33.3391719],[44.3903897,33.3391616],[44.3903428,33.3391773]]]}},{"type":"Feature","properties":{"id":"H014","area_m2":38,"src":"footprint","courtyard":false},"geometry":{"type":"Polygon","coordinates":[[[44.3910943,33.3399134],[44.3911305,33.3399344],[44.3911877,33.3398657],[44.3911515,33.3398447],[44.3910943,33.3399134]]]}},{"type":"Feature","properties":{"id":"H015","area_m2":773,"src":"plan","courtyard":false},"geometry":{"type":"Polygon","coordinates":[[[44.3900399,33.3390496],[44.3900334,33.339062],[44.3900634,33.3390873],[44.3901017,33.3390739],[44.3901268,33.3390824],[44.3901773,33.3390697],[44.3902372,33.3391771],[44.3904942,33.339049],[44.3905611,33.3389987],[44.3904959,33.3389106],[44.3904607,33.338914],[44.3904322,33.3388952],[44.3903861,33.3389214],[44.3903665,33.3389222],[44.390335,33.3388915],[44.3900399,33.3390496]]]}},{"type":"Feature","properties":{"id":"H016","area_m2":4800,"src":"footprint","courtyard":false},"geometry":{"type":"Polygon","coordinates":[[[44.3900981,33.3386391],[44.3904524,33.3383874],[44.3903832,33.3383194],[44.3902929,33.3382677],[44.3902841,33.3382739],[44.3902113,33.3382323],[44.3901021,33.3381249],[44.3900762,33.3381101],[44.3893238,33.3386447],[44.3892548,33.3387288],[44.3894687,33.3389389],[44.3895393,33.3389793],[44.3895702,33.3390096],[44.3899745,33.3387224],[44.3900009,33.3386902],[44.3901249,33.3386022],[44.3901271,33.3386038],[44.3900981,33.3386391]]]}},{"type":"Feature","properties":{"id":"H017","area_m2":167,"src":"plan","courtyard":false},"geometry":{"type":"Polygon","coordinates":[[[44.3900718,33.3389072],[44.3900653,33.3389197],[44.3900981,33.3389503],[44.3901328,33.3389459],[44.390322,33.3388512],[44.3903345,33.3388268],[44.3903073,33.3387985],[44.3902923,33.338797],[44.3900718,33.3389072]]]}},{"type":"Feature","properties":{"id":"H018","area_m2":229,"src":"footprint","courtyard":false},"geometry":{"type":"Polygon","coordinates":[[[44.3908482,33.3393418],[44.3907978,33.339293],[44.3906553,33.3393956],[44.3907654,33.3395023],[44.3908654,33.3394303],[44.3908057,33.3393724],[44.3908482,33.3393418]]]}},{"type":"Feature","properties":{"id":"H019","area_m2":145,"src":"footprint","courtyard":false},"geometry":{"type":"MultiPolygon","coordinates":[[[[44.3907343,33.3392872],[44.3907616,33.3392806],[44.3907399,33.3392175],[44.3906308,33.3392436],[44.3906611,33.3393316],[44.3907428,33.339312],[44.3907343,33.3392872]]],[[[44.3906274,33.3394022],[44.3906858,33.3393525],[44.3906792,33.3393434],[44.3906497,33.3393412],[44.3906281,33.339307],[44.3905854,33.339329],[44.3906274,33.3394022]]]]}},{"type":"Feature","properties":{"id":"H020","area_m2":35,"src":"footprint","courtyard":false},"geometry":{"type":"Polygon","coordinates":[[[44.391247,33.3397904],[44.3911939,33.3397483],[44.3911558,33.3397818],[44.3912088,33.3398239],[44.391247,33.3397904]]]}},{"type":"Feature","properties":{"id":"H021","area_m2":333,"src":"plan","courtyard":false},"geometry":{"type":"Polygon","coordinates":[[[44.3904571,33.3390849],[44.3904297,33.3391163],[44.3904569,33.3391398],[44.3904517,33.3391543],[44.3904948,33.3392321],[44.3905254,33.3392416],[44.390518,33.3392633],[44.3905427,33.3393021],[44.3906176,33.3392688],[44.3906232,33.3392317],[44.3907564,33.3392061],[44.390779,33.3391885],[44.3907796,33.3391731],[44.3907515,33.3391549],[44.3907556,33.3391402],[44.3907359,33.339123],[44.3906645,33.3391507],[44.3906181,33.3391391],[44.3905253,33.339165],[44.3904963,33.3391381],[44.3904978,33.3390823],[44.3904571,33.3390849]]]}},{"type":"Feature","properties":{"id":"H022","area_m2":597,"src":"footprint","courtyard":false},"geometry":{"type":"Polygon","coordinates":[[[44.3907892,33.3392003],[44.3908477,33.3392792],[44.3908466,33.3393269],[44.3908601,33.3393452],[44.3909103,33.339346],[44.3908396,33.3393826],[44.3908786,33.3394351],[44.3908893,33.3394353],[44.3910929,33.3393299],[44.3910595,33.3392849],[44.3910596,33.3392779],[44.391037,33.3392473],[44.3911569,33.3392493],[44.3911585,33.3391844],[44.3910611,33.3391827],[44.3910108,33.3392088],[44.3909782,33.3392082],[44.3909792,33.3391672],[44.3909528,33.3391316],[44.3909229,33.3391311],[44.3907892,33.3392003]]]}},{"type":"Feature","properties":{"id":"H023","area_m2":191,"src":"footprint","courtyard":false},"geometry":{"type":"Polygon","coordinates":[[[44.3914709,33.3395542],[44.391388,33.3396289],[44.3915215,33.3397324],[44.3916044,33.3396577],[44.3914709,33.3395542]]]}},{"type":"Feature","properties":{"id":"H024","area_m2":166,"src":"plan","courtyard":false},"geometry":{"type":"Polygon","coordinates":[[[44.391639,33.3396477],[44.3916225,33.339648],[44.3915693,33.339715],[44.3916714,33.3398163],[44.391692,33.339818],[44.3917542,33.3397593],[44.391639,33.3396477]]]}},{"type":"Feature","properties":{"id":"H025","area_m2":141,"src":"plan","courtyard":false},"geometry":{"type":"Polygon","coordinates":[[[44.3917402,33.3398328],[44.3917788,33.3398969],[44.3918408,33.3399522],[44.3918968,33.339923],[44.3919322,33.3398824],[44.391921,33.3398712],[44.3918734,33.3398839],[44.3918029,33.3397964],[44.3917706,33.3398021],[44.3917402,33.3398328]]]}},{"type":"Feature","properties":{"id":"H026","area_m2":53,"src":"footprint","courtyard":false},"geometry":{"type":"Polygon","coordinates":[[[44.3913206,33.3394305],[44.3913911,33.3394907],[44.391435,33.3394549],[44.3913646,33.3393946],[44.3913206,33.3394305]]]}},{"type":"Feature","properties":{"id":"H027","area_m2":101,"src":"footprint","courtyard":false},"geometry":{"type":"Polygon","coordinates":[[[44.3909618,33.3391219],[44.3909872,33.3391764],[44.3911432,33.3391256],[44.3911178,33.3390711],[44.3909618,33.3391219]]]}},{"type":"Feature","properties":{"id":"H028","area_m2":436,"src":"plan","courtyard":false},"geometry":{"type":"Polygon","coordinates":[[[44.3911462,33.3393106],[44.3911414,33.3393236],[44.3911523,33.3393353],[44.3911908,33.3393328],[44.3912127,33.3393627],[44.3912991,33.3394333],[44.3913468,33.3393875],[44.3913136,33.3393171],[44.3914273,33.3392086],[44.3913867,33.3391671],[44.3913096,33.3391945],[44.3912823,33.339172],[44.3912004,33.3391792],[44.3911816,33.3391705],[44.3911718,33.3392545],[44.3911346,33.3392694],[44.3911306,33.3392945],[44.3911462,33.3393106]]]}},{"type":"Feature","properties":{"id":"H029","area_m2":116,"src":"plan","courtyard":false},"geometry":{"type":"Polygon","coordinates":[[[44.3909635,33.3389883],[44.3909156,33.3389834],[44.390902,33.3390052],[44.3909653,33.3390735],[44.3910203,33.3390487],[44.3910233,33.3390339],[44.3910659,33.3390137],[44.3910656,33.3389779],[44.3910436,33.3389517],[44.3910133,33.338958],[44.3909635,33.3389883]]]}},{"type":"Feature","properties":{"id":"H030","area_m2":90,"src":"footprint","courtyard":false},"geometry":{"type":"Polygon","coordinates":[[[44.3916064,33.3395275],[44.3915061,33.3394512],[44.391454,33.339499],[44.3915543,33.3395752],[44.3916064,33.3395275]]]}},{"type":"Feature","properties":{"id":"H031","area_m2":71,"src":"footprint","courtyard":false},"geometry":{"type":"Polygon","coordinates":[[[44.3918914,33.339753],[44.3918624,33.3397145],[44.3917919,33.3397515],[44.3918837,33.3398736],[44.3919107,33.3398594],[44.3918478,33.3397759],[44.3918914,33.339753]]]}},{"type":"Feature","properties":{"id":"H032","area_m2":16,"src":"footprint","courtyard":false},"geometry":{"type":"Polygon","coordinates":[[[44.3914701,33.3393937],[44.3914541,33.3393638],[44.3914117,33.3393798],[44.3914278,33.3394096],[44.3914701,33.3393937]]]}},{"type":"Feature","properties":{"id":"H033","area_m2":32,"src":"footprint","courtyard":false},"geometry":{"type":"Polygon","coordinates":[[[44.391525,33.3394352],[44.3914923,33.3393884],[44.3914423,33.3394128],[44.391475,33.3394596],[44.391525,33.3394352]]]}},{"type":"Feature","properties":{"id":"H034","area_m2":278,"src":"footprint","courtyard":false},"geometry":{"type":"Polygon","coordinates":[[[44.3915744,33.3395656],[44.3917691,33.3397515],[44.3918511,33.3396915],[44.3917535,33.3395983],[44.3917455,33.3395907],[44.3916564,33.3395056],[44.3915744,33.3395656]]]}},{"type":"Feature","properties":{"id":"H035","area_m2":59,"src":"footprint","courtyard":false},"geometry":{"type":"Polygon","coordinates":[[[44.3919762,33.3397808],[44.391926,33.3397366],[44.3918582,33.3397903],[44.3919083,33.3398345],[44.3919762,33.3397808]]]}},{"type":"Feature","properties":{"id":"H036","area_m2":131,"src":"footprint","courtyard":false},"geometry":{"type":"MultiPolygon","coordinates":[[[[44.3915543,33.3394696],[44.3916102,33.3395121],[44.3916237,33.3395116],[44.3916497,33.3394874],[44.3916256,33.339458],[44.3916171,33.3394475],[44.3916107,33.3394398],[44.3916138,33.3394376],[44.3916217,33.3394439],[44.3916815,33.3393969],[44.3916881,33.3393668],[44.3916679,33.339364],[44.391619,33.3394144],[44.3915875,33.3394173],[44.3915543,33.3394696]]],[[[44.3916322,33.3394522],[44.3917045,33.3395092],[44.3917473,33.3394713],[44.391675,33.3394143],[44.3916322,33.3394522]]]]}},{"type":"Feature","properties":{"id":"H037","area_m2":850,"src":"footprint","courtyard":false},"geometry":{"type":"Polygon","coordinates":[[[44.3913463,33.3393006],[44.39136,33.3392948],[44.3913613,33.3392963],[44.3913282,33.3393228],[44.3913608,33.3393774],[44.391441,33.339344],[44.3914783,33.3393765],[44.3915339,33.3393321],[44.3915742,33.3393153],[44.3915755,33.3393168],[44.3915222,33.3393594],[44.3915242,33.3393586],[44.3915254,33.3393601],[44.3914896,33.3393887],[44.3915295,33.3394236],[44.3915542,33.3394133],[44.3918281,33.3391944],[44.391818,33.3391775],[44.3917584,33.3391254],[44.3917438,33.3391009],[44.3916919,33.3390557],[44.3915749,33.3391492],[44.3915339,33.3391663],[44.3914987,33.3391944],[44.3914577,33.3392115],[44.3913463,33.3393006]]]}},{"type":"Feature","properties":{"id":"H038","area_m2":641,"src":"footprint","courtyard":false},"geometry":{"type":"Polygon","coordinates":[[[44.3911802,33.3389365],[44.3911608,33.3391658],[44.3912006,33.339139],[44.3912073,33.3390606],[44.3912699,33.3390643],[44.3913204,33.3390302],[44.3912619,33.3390268],[44.3912424,33.3390066],[44.3912594,33.3389951],[44.3912624,33.3389605],[44.3911973,33.3388931],[44.3911991,33.3388722],[44.3912474,33.3388396],[44.3912476,33.3388373],[44.3913273,33.3387836],[44.3913295,33.3387575],[44.3913463,33.3387462],[44.3913175,33.3387164],[44.3912898,33.3387147],[44.3912091,33.3387691],[44.3911737,33.3387324],[44.3911461,33.338751],[44.3909928,33.3385921],[44.390956,33.3386168],[44.3910497,33.338714],[44.3910008,33.3387111],[44.390996,33.3387678],[44.3910925,33.3388678],[44.3911152,33.3388692],[44.3911802,33.3389365]]]}},{"type":"Feature","properties":{"id":"H039","area_m2":98,"src":"plan","courtyard":false},"geometry":{"type":"Polygon","coordinates":[[[44.3916941,33.3393509],[44.3917017,33.3393665],[44.3917478,33.3393523],[44.3918172,33.3394135],[44.3918701,33.339376],[44.3917768,33.3392867],[44.3916941,33.3393509]]]}},{"type":"Feature","properties":{"id":"H040","area_m2":125,"src":"footprint","courtyard":false},"geometry":{"type":"Polygon","coordinates":[[[44.3913516,33.3389386],[44.3913302,33.3389074],[44.3914202,33.3388643],[44.3913883,33.3388179],[44.391235,33.3388914],[44.3912883,33.3389689],[44.3913516,33.3389386]]]}},{"type":"Feature","properties":{"id":"H041","area_m2":68,"src":"plan","courtyard":false},"geometry":{"type":"Polygon","coordinates":[[[44.3911215,33.338704],[44.391169,33.3387011],[44.3912071,33.3387449],[44.39123,33.3387358],[44.3912192,33.3387097],[44.3911876,33.3386801],[44.3911885,33.3386621],[44.3911529,33.338628],[44.3910908,33.3386658],[44.3911215,33.338704]]]}},{"type":"Feature","properties":{"id":"H042","area_m2":196,"src":"plan","courtyard":false},"geometry":{"type":"Polygon","coordinates":[[[44.3919266,33.3393744],[44.3919923,33.339426],[44.391992,33.3394448],[44.3920472,33.339495],[44.3920954,33.3394609],[44.3920079,33.3393664],[44.3921148,33.3392805],[44.392082,33.3392422],[44.3920683,33.3392435],[44.3919282,33.3393562],[44.3919266,33.3393744]]]}},{"type":"Feature","properties":{"id":"H043","area_m2":76,"src":"footprint","courtyard":false},"geometry":{"type":"Polygon","coordinates":[[[44.3915977,33.3389331],[44.3916802,33.3389963],[44.3917337,33.3389476],[44.3916512,33.3388844],[44.3915977,33.3389331]]]}},{"type":"Feature","properties":{"id":"H044","area_m2":58,"src":"footprint","courtyard":false},"geometry":{"type":"Polygon","coordinates":[[[44.3923791,33.3395615],[44.3923045,33.3394839],[44.3922491,33.3395211],[44.3922936,33.3395674],[44.3923213,33.3395488],[44.3923514,33.3395801],[44.3923791,33.3395615]]]}},{"type":"Feature","properties":{"id":"H045","area_m2":300,"src":"plan","courtyard":false},"geometry":{"type":"Polygon","coordinates":[[[44.3905045,33.3378565],[44.390499,33.3378788],[44.3905641,33.3379302],[44.3905874,33.3379714],[44.3906762,33.3380613],[44.3907992,33.3379752],[44.3907298,33.3378967],[44.3906795,33.337913],[44.3906339,33.3378722],[44.3906086,33.3378758],[44.39059,33.337861],[44.3905526,33.3378622],[44.3905314,33.3378456],[44.3905045,33.3378565]]]}},{"type":"Feature","properties":{"id":"H046","area_m2":577,"src":"footprint","courtyard":false},"geometry":{"type":"MultiPolygon","coordinates":[[[[44.3916648,33.3389995],[44.3916982,33.339037],[44.3917051,33.3390327],[44.3917938,33.3391321],[44.3918783,33.3390795],[44.391895,33.3390982],[44.3918209,33.3391444],[44.3918517,33.3391789],[44.3919914,33.339092],[44.3919862,33.3390862],[44.3920621,33.3390389],[44.3919734,33.3389396],[44.3918889,33.3389922],[44.3919365,33.3390455],[44.3919192,33.3390562],[44.3917958,33.3389179],[44.3916648,33.3389995]]],[[[44.3916405,33.3390702],[44.3916789,33.3390469],[44.3916472,33.3389896],[44.3915803,33.3389406],[44.3915512,33.3389749],[44.3916405,33.3390702]]]]}},{"type":"Feature","properties":{"id":"H047","area_m2":328,"src":"footprint","courtyard":false},"geometry":{"type":"Polygon","coordinates":[[[44.3922779,33.3393034],[44.3922858,33.339311],[44.3923552,33.3392603],[44.3922741,33.3391829],[44.392024,33.3393657],[44.3920971,33.3394355],[44.3922779,33.3393034]]]}},{"type":"Feature","properties":{"id":"H048","area_m2":37,"src":"plan","courtyard":false},"geometry":{"type":"Polygon","coordinates":[[[44.3917323,33.3389282],[44.3917523,33.3389281],[44.3918109,33.3388862],[44.3917924,33.3388524],[44.3917131,33.3389037],[44.3917323,33.3389282]]]}},{"type":"Feature","properties":{"id":"H049","area_m2":90,"src":"footprint","courtyard":false},"geometry":{"type":"Polygon","coordinates":[[[44.3924635,33.3394669],[44.3923958,33.3394164],[44.3923192,33.3394881],[44.392387,33.3395385],[44.3924635,33.3394669]]]}},{"type":"Feature","properties":{"id":"H050","area_m2":128,"src":"footprint","courtyard":false},"geometry":{"type":"Polygon","coordinates":[[[44.3923856,33.3394278],[44.3923022,33.339315],[44.3922226,33.3393561],[44.392306,33.3394689],[44.3923856,33.3394278]]]}},{"type":"Feature","properties":{"id":"H051","area_m2":199,"src":"footprint","courtyard":false},"geometry":{"type":"Polygon","coordinates":[[[44.3918409,33.338788],[44.3917742,33.3387265],[44.391658,33.3388146],[44.39165,33.3388073],[44.3915999,33.3388452],[44.3916747,33.338914],[44.3918409,33.338788]]]}},{"type":"Feature","properties":{"id":"H052","area_m2":67,"src":"footprint","courtyard":false},"geometry":{"type":"Polygon","coordinates":[[[44.3919347,33.3388947],[44.3918274,33.3389373],[44.3918554,33.3389866],[44.3919627,33.3389441],[44.3919347,33.3388947]]]}},{"type":"Feature","properties":{"id":"H053","area_m2":219,"src":"footprint","courtyard":false},"geometry":{"type":"Polygon","coordinates":[[[44.3908509,33.3379939],[44.3908159,33.3380207],[44.390854,33.3380554],[44.3909545,33.3379784],[44.3909158,33.3379431],[44.3909662,33.3379045],[44.3908967,33.3378412],[44.3908478,33.3378787],[44.3908371,33.337869],[44.3907701,33.3379203],[44.3908509,33.3379939]]]}},{"type":"Feature","properties":{"id":"H054","area_m2":70,"src":"footprint","courtyard":false},"geometry":{"type":"Polygon","coordinates":[[[44.3907278,33.337873],[44.390761,33.3379051],[44.3908821,33.3378175],[44.3908489,33.3377854],[44.3907278,33.337873]]]}},{"type":"Feature","properties":{"id":"H055","area_m2":107,"src":"footprint","courtyard":false},"geometry":{"type":"Polygon","coordinates":[[[44.3921094,33.3390041],[44.3919297,33.3388259],[44.3918958,33.3388497],[44.3920755,33.339028],[44.3921094,33.3390041]]]}},{"type":"Feature","properties":{"id":"H056","area_m2":23,"src":"footprint","courtyard":false},"geometry":{"type":"Polygon","coordinates":[[[44.3922723,33.3390907],[44.3922257,33.3391252],[44.3922537,33.3391515],[44.3923003,33.339117],[44.3922723,33.3390907]]]}},{"type":"Feature","properties":{"id":"H057","area_m2":452,"src":"footprint","courtyard":false},"geometry":{"type":"Polygon","coordinates":[[[44.3926816,33.3392667],[44.3926546,33.3392332],[44.3926177,33.339208],[44.3925768,33.3392311],[44.392542,33.3391879],[44.3925021,33.3392104],[44.3925493,33.3392689],[44.3925165,33.3392875],[44.3924572,33.339348],[44.3924163,33.3393201],[44.3924002,33.3393001],[44.3923545,33.3392689],[44.3923255,33.3392853],[44.3923011,33.3393102],[44.3923707,33.3393965],[44.3924809,33.3394718],[44.3926816,33.3392667]]]}},{"type":"Feature","properties":{"id":"H058","area_m2":295,"src":"footprint","courtyard":false},"geometry":{"type":"Polygon","coordinates":[[[44.3922623,33.3389471],[44.3920722,33.3390465],[44.3921241,33.3391157],[44.3921388,33.339108],[44.3921707,33.3391506],[44.3922928,33.3390867],[44.3923146,33.3391157],[44.3923755,33.3390838],[44.3923405,33.3390371],[44.3923058,33.3390553],[44.3922503,33.3389812],[44.3922773,33.3389671],[44.3922623,33.3389471]]]}},{"type":"Feature","properties":{"id":"H059","area_m2":90,"src":"footprint","courtyard":false},"geometry":{"type":"MultiPolygon","coordinates":[[[[44.3924903,33.3392378],[44.3924255,33.3392986],[44.3924484,33.3393243],[44.3925215,33.3392671],[44.3925062,33.3392396],[44.3924903,33.3392378]]],[[[44.392427,33.3392055],[44.3923582,33.3392603],[44.3924017,33.3392984],[44.3924704,33.3392435],[44.392427,33.3392055]]]]}},{"type":"Feature","properties":{"id":"H060","area_m2":27,"src":"footprint","courtyard":false},"geometry":{"type":"Polygon","coordinates":[[[44.3910081,33.3379593],[44.3910278,33.3379798],[44.3911045,33.3379284],[44.3910849,33.3379079],[44.3910081,33.3379593]]]}},{"type":"Feature","properties":{"id":"H061","area_m2":123,"src":"footprint","courtyard":false},"geometry":{"type":"MultiPolygon","coordinates":[[[[44.3923393,33.3391296],[44.3924071,33.3391948],[44.3924692,33.3391593],[44.3924396,33.339111],[44.3924029,33.3390861],[44.3923426,33.339117],[44.3923393,33.3391296]]],[[[44.3922852,33.3391856],[44.3923312,33.3392276],[44.3923839,33.3391875],[44.3923379,33.3391454],[44.3922852,33.3391856]]]]}},{"type":"Feature","properties":{"id":"H062","area_m2":125,"src":"plan","courtyard":false},"geometry":{"type":"Polygon","coordinates":[[[44.3909686,33.3379718],[44.3909887,33.3379712],[44.3909967,33.3379498],[44.3910772,33.3378961],[44.3911189,33.3379146],[44.3911666,33.3378806],[44.3911682,33.3378687],[44.3911282,33.3378232],[44.3911145,33.3378223],[44.3910185,33.3378829],[44.3909458,33.3379385],[44.3909686,33.3379718]]]}},{"type":"Feature","properties":{"id":"H063","area_m2":25,"src":"footprint","courtyard":false},"geometry":{"type":"Polygon","coordinates":[[[44.3915838,33.3383478],[44.3915524,33.3383041],[44.3915109,33.3383248],[44.3915423,33.3383686],[44.3915838,33.3383478]]]}},{"type":"Feature","properties":{"id":"H064","area_m2":1062,"src":"plan","courtyard":true},"geometry":{"type":"Polygon","coordinates":[[[44.3918336,33.3388132],[44.3918705,33.3388581],[44.3919194,33.3388154],[44.3919387,33.3388146],[44.3921191,33.3389879],[44.3923884,33.3388095],[44.3923613,33.3387555],[44.3921948,33.3385627],[44.3921792,33.3385292],[44.3921389,33.3384967],[44.392032,33.3385551],[44.3917939,33.3387133],[44.3917937,33.3387243],[44.3918562,33.3387836],[44.3918336,33.3388132]],[[44.3919923,33.3387418],[44.391981,33.3386859],[44.3921401,33.3385985],[44.3921602,33.3386156],[44.392185,33.3386196],[44.3922655,33.3387086],[44.3922628,33.3387346],[44.3922931,33.3387773],[44.3922017,33.3388386],[44.3921787,33.3388399],[44.3921153,33.3388733],[44.3919923,33.3387418]]]}},{"type":"Feature","properties":{"id":"H065","area_m2":145,"src":"footprint","courtyard":false},"geometry":{"type":"MultiPolygon","coordinates":[[[[44.3925494,33.3391234],[44.3925404,33.339157],[44.3925758,33.3392056],[44.3926329,33.339194],[44.392649,33.339108],[44.392624,33.3390917],[44.3925757,33.339126],[44.3925494,33.3391234]]],[[[44.3924973,33.3390921],[44.392458,33.3391143],[44.3924966,33.3391619],[44.3924341,33.3391973],[44.3924578,33.3392265],[44.3925387,33.3391807],[44.3925138,33.33915],[44.3925347,33.3391382],[44.3924973,33.3390921]]]]}},{"type":"Feature","properties":{"id":"H066","area_m2":74,"src":"footprint","courtyard":false},"geometry":{"type":"Polygon","coordinates":[[[44.392449,33.3389853],[44.3923762,33.3390386],[44.3924347,33.3390943],[44.3925075,33.339041],[44.392449,33.3389853]]]}},{"type":"Feature","properties":{"id":"H067","area_m2":134,"src":"footprint","courtyard":false},"geometry":{"type":"Polygon","coordinates":[[[44.3922774,33.3389651],[44.3923421,33.3390334],[44.3924593,33.338956],[44.3923946,33.3388877],[44.3922774,33.3389651]]]}},{"type":"Feature","properties":{"id":"H068","area_m2":342,"src":"footprint","courtyard":false},"geometry":{"type":"Polygon","coordinates":[[[44.3920059,33.3387345],[44.3921194,33.3388602],[44.3921854,33.3388186],[44.3921931,33.3388272],[44.3922775,33.3387739],[44.3922355,33.3387275],[44.3922526,33.3387167],[44.3921734,33.338629],[44.3920059,33.3387345]]]}},{"type":"Feature","properties":{"id":"H069","area_m2":53,"src":"footprint","courtyard":false},"geometry":{"type":"Polygon","coordinates":[[[44.3921355,33.3386115],[44.3919913,33.3386963],[44.3920115,33.3387202],[44.3921557,33.3386354],[44.3921355,33.3386115]]]}},{"type":"Feature","properties":{"id":"H070","area_m2":1245,"src":"plan","courtyard":true},"geometry":{"type":"Polygon","coordinates":[[[44.3915697,33.3382879],[44.3915998,33.338347],[44.3915764,33.3383777],[44.3917272,33.3385694],[44.3918046,33.338648],[44.3921223,33.3384557],[44.391993,33.3382896],[44.3919208,33.3381741],[44.3918745,33.338125],[44.3917115,33.3382014],[44.3915697,33.3382879]],[[44.3916717,33.3383644],[44.3916749,33.338348],[44.3918025,33.3382659],[44.3918221,33.338265],[44.3919585,33.3384201],[44.3919539,33.3384445],[44.3918376,33.3385182],[44.3918081,33.3385195],[44.3917624,33.3384772],[44.3917655,33.338461],[44.3916992,33.3383994],[44.3917016,33.3383844],[44.3916717,33.3383644]]]}},{"type":"Feature","properties":{"id":"H071","area_m2":210,"src":"plan","courtyard":false},"geometry":{"type":"Polygon","coordinates":[[[44.3915392,33.3379093],[44.3914591,33.3379538],[44.3914552,33.3379716],[44.3915754,33.3380745],[44.3915709,33.3380884],[44.3915956,33.3381209],[44.3917432,33.3380327],[44.3917296,33.3380206],[44.3916248,33.338069],[44.3915946,33.3380297],[44.3916247,33.3379987],[44.3915778,33.3379364],[44.3915392,33.3379093]]]}},{"type":"Feature","properties":{"id":"H072","area_m2":23,"src":"footprint","courtyard":false},"geometry":{"type":"Polygon","coordinates":[[[44.3916343,33.3378922],[44.3916167,33.3378641],[44.3915536,33.3378918],[44.3915713,33.3379199],[44.3916343,33.3378922]]]}},{"type":"Feature","properties":{"id":"H073","area_m2":173,"src":"footprint","courtyard":false},"geometry":{"type":"Polygon","coordinates":[[[44.3916515,33.338008],[44.3916108,33.3380297],[44.3916315,33.3380568],[44.391778,33.3379784],[44.3917001,33.3378767],[44.3915943,33.3379332],[44.3916515,33.338008]]]}},{"type":"Feature","properties":{"id":"H074","area_m2":588,"src":"plan","courtyard":false},"geometry":{"type":"Polygon","coordinates":[[[44.3923436,33.3386246],[44.3923296,33.3386494],[44.3925805,33.3389192],[44.3928025,33.3387966],[44.3927945,33.3387844],[44.392766,33.3387907],[44.3926971,33.3388294],[44.3925765,33.3387076],[44.3925117,33.3387513],[44.3924745,33.3387243],[44.3924766,33.3387068],[44.3925379,33.3386731],[44.3924918,33.3385722],[44.3925691,33.3385226],[44.3925576,33.3385051],[44.3923436,33.3386246]]]}},{"type":"Feature","properties":{"id":"H075","area_m2":13,"src":"footprint","courtyard":false},"geometry":{"type":"Polygon","coordinates":[[[44.3925441,33.3387138],[44.392523,33.3386924],[44.3924878,33.3387166],[44.3925088,33.338738],[44.3925441,33.3387138]]]}},{"type":"Feature","properties":{"id":"H076","area_m2":383,"src":"footprint","courtyard":false},"geometry":{"type":"MultiPolygon","coordinates":[[[[44.3922396,33.3381774],[44.3922101,33.3381346],[44.3921122,33.3381816],[44.3920002,33.3380191],[44.3920324,33.3380036],[44.3919925,33.3379456],[44.3919079,33.3379863],[44.3920893,33.3382497],[44.3922396,33.3381774]]],[[[44.3918701,33.3380234],[44.3919508,33.3381263],[44.3919651,33.3381598],[44.3920448,33.3382611],[44.3920737,33.3382774],[44.3920816,33.3382628],[44.3918982,33.3379994],[44.3918743,33.3380028],[44.3918701,33.3380234]]]]}},{"type":"Feature","properties":{"id":"H077","area_m2":531,"src":"footprint","courtyard":false},"geometry":{"type":"Polygon","coordinates":[[[44.3925882,33.3386958],[44.3925888,33.3386955],[44.3926625,33.3387732],[44.3926642,33.3387778],[44.3927007,33.3388163],[44.3927574,33.3387787],[44.3927994,33.3387678],[44.3928235,33.3387519],[44.3928125,33.3387221],[44.392789,33.3386973],[44.3928069,33.3386854],[44.3927965,33.3386572],[44.3927304,33.3385876],[44.392727,33.3385783],[44.3926859,33.3385351],[44.3926493,33.3385445],[44.3926288,33.338523],[44.3925551,33.3385421],[44.3925079,33.3385733],[44.3925321,33.3386386],[44.3925893,33.3386989],[44.3925882,33.3386958]]]}},{"type":"Feature","properties":{"id":"H078","area_m2":82,"src":"footprint","courtyard":false},"geometry":{"type":"Polygon","coordinates":[[[44.3918246,33.3378567],[44.3917879,33.3378782],[44.3918421,33.3379428],[44.391895,33.3379118],[44.3918439,33.3378509],[44.3918648,33.3378387],[44.3918201,33.3377854],[44.391783,33.337807],[44.3918246,33.3378567]]]}},{"type":"Feature","properties":{"id":"H079","area_m2":140,"src":"footprint","courtyard":false},"geometry":{"type":"MultiPolygon","coordinates":[[[[44.3911161,33.3372678],[44.3912087,33.3373393],[44.3912621,33.3372909],[44.3911696,33.3372195],[44.3911161,33.3372678]]],[[[44.3911175,33.337246],[44.3911671,33.3372061],[44.3911989,33.3372228],[44.3912111,33.3372199],[44.3911765,33.3371585],[44.3911485,33.3371622],[44.3911,33.3371928],[44.391102,33.3372352],[44.3911175,33.337246]]]]}},{"type":"Feature","properties":{"id":"H080","area_m2":432,"src":"plan","courtyard":false},"geometry":{"type":"Polygon","coordinates":[[[44.392003,33.3379214],[44.3920002,33.3379325],[44.3920482,33.3380008],[44.3920272,33.3380311],[44.3921147,33.3381575],[44.3922093,33.3381211],[44.3922545,33.3381678],[44.3923008,33.3381484],[44.3923035,33.3381282],[44.392084,33.3378772],[44.3920697,33.3378764],[44.392003,33.3379214]]]}},{"type":"Feature","properties":{"id":"H081","area_m2":119,"src":"plan","courtyard":false},"geometry":{"type":"Polygon","coordinates":[[[44.391922,33.3379181],[44.3919651,33.3378995],[44.3920394,33.3378446],[44.3920357,33.3378231],[44.392,33.3377907],[44.3919526,33.337804],[44.3918759,33.337857],[44.391922,33.3379181]]]}},{"type":"Feature","properties":{"id":"H082","area_m2":349,"src":"footprint","courtyard":false},"geometry":{"type":"Polygon","coordinates":[[[44.3914646,33.337167],[44.3913691,33.3370247],[44.3913038,33.3370553],[44.3913221,33.3370826],[44.3911874,33.3371457],[44.3912417,33.3372266],[44.3912131,33.33724],[44.391236,33.3372741],[44.3914646,33.337167]]]}},{"type":"Feature","properties":{"id":"H083","area_m2":45,"src":"footprint","courtyard":false},"geometry":{"type":"Polygon","coordinates":[[[44.3922787,33.3371333],[44.392253,33.3370966],[44.392165,33.3371395],[44.3921907,33.3371763],[44.3922787,33.3371333]]]}},{"type":"Feature","properties":{"id":"H084","area_m2":39,"src":"footprint","courtyard":false},"geometry":{"type":"Polygon","coordinates":[[[44.3920485,33.3369075],[44.3920086,33.33687],[44.3919517,33.3369123],[44.3919917,33.3369498],[44.3920485,33.3369075]]]}},{"type":"Feature","properties":{"id":"H085","area_m2":47,"src":"footprint","courtyard":false},"geometry":{"type":"Polygon","coordinates":[[[44.3920584,33.3369108],[44.3920011,33.3369455],[44.3920463,33.3369976],[44.3921036,33.3369629],[44.3920584,33.3369108]]]}},{"type":"Feature","properties":{"id":"H086","area_m2":87,"src":"footprint","courtyard":false},"geometry":{"type":"Polygon","coordinates":[[[44.3921988,33.3370273],[44.3921435,33.3369589],[44.3920588,33.3370067],[44.3921141,33.3370751],[44.3921988,33.3370273]]]}},{"type":"Feature","properties":{"id":"H087","area_m2":101,"src":"footprint","courtyard":false},"geometry":{"type":"Polygon","coordinates":[[[44.39213,33.3370814],[44.3921566,33.3371293],[44.3923243,33.3370643],[44.3922977,33.3370164],[44.39213,33.3370814]]]}},{"type":"Feature","properties":{"id":"H088","area_m2":99,"src":"footprint","courtyard":false},"geometry":{"type":"Polygon","coordinates":[[[44.3921075,33.3368325],[44.3920633,33.33678],[44.3919233,33.3368623],[44.3919549,33.3368997],[44.3920177,33.3368628],[44.3920303,33.3368778],[44.3921075,33.3368325]]]}},{"type":"Feature","properties":{"id":"H089","area_m2":112,"src":"footprint","courtyard":false},"geometry":{"type":"Polygon","coordinates":[[[44.3921667,33.3369689],[44.3922193,33.3370262],[44.3922827,33.3369855],[44.3923234,33.3370299],[44.3923512,33.3370121],[44.3922846,33.3369395],[44.3922973,33.3369313],[44.3922707,33.3369023],[44.3921667,33.3369689]]]}},{"type":"Feature","properties":{"id":"H090","area_m2":125,"src":"footprint","courtyard":false},"geometry":{"type":"Polygon","coordinates":[[[44.3920736,33.3368565],[44.3921509,33.3369366],[44.3922078,33.3368983],[44.3921449,33.3368331],[44.3921897,33.3368029],[44.3921425,33.3367541],[44.3920807,33.3367957],[44.3921135,33.3368296],[44.3920736,33.3368565]]]}},{"type":"Feature","properties":{"id":"H091","area_m2":195,"src":"footprint","courtyard":false},"geometry":{"type":"Polygon","coordinates":[[[44.3921641,33.3367474],[44.392216,33.3368165],[44.3921728,33.3368392],[44.3922151,33.3368955],[44.3923468,33.3368264],[44.3922526,33.336701],[44.3921641,33.3367474]]]}},{"type":"Feature","properties":{"id":"H092","area_m2":197,"src":"plan","courtyard":false},"geometry":{"type":"Polygon","coordinates":[[[44.3922812,33.3368767],[44.3922775,33.3368887],[44.3923036,33.3369117],[44.392366,33.3368869],[44.3924241,33.3369407],[44.3924236,33.3369689],[44.3923342,33.3370409],[44.3923425,33.3370585],[44.3923898,33.3370429],[44.3925325,33.3369551],[44.3924038,33.3368479],[44.3923525,33.3368552],[44.3923369,33.336848],[44.3922812,33.3368767]]]}},{"type":"Feature","properties":{"id":"H093","area_m2":127,"src":"footprint","courtyard":false},"geometry":{"type":"Polygon","coordinates":[[[44.3924366,33.3367339],[44.3924065,33.336652],[44.3922692,33.3366872],[44.3922993,33.3367691],[44.3924366,33.3367339]]]}},{"type":"Feature","properties":{"id":"H094","area_m2":140,"src":"footprint","courtyard":false},"geometry":{"type":"Polygon","coordinates":[[[44.3923759,33.3366289],[44.3923567,33.3365575],[44.3921754,33.3365915],[44.3921946,33.3366629],[44.3923759,33.3366289]]]}},{"type":"Feature","properties":{"id":"H095","area_m2":618,"src":"footprint","courtyard":false},"geometry":{"type":"Polygon","coordinates":[[[44.3926527,33.3368942],[44.3927649,33.3368095],[44.3925815,33.33664],[44.3923727,33.3367977],[44.3925161,33.3369302],[44.3925589,33.3368978],[44.3925816,33.3369188],[44.3926354,33.3368782],[44.3926527,33.3368942]]]}},{"type":"Feature","properties":{"id":"H096","area_m2":309,"src":"plan","courtyard":false},"geometry":{"type":"Polygon","coordinates":[[[44.3921471,33.336582],[44.3923248,33.3365494],[44.3923329,33.3365213],[44.3923888,33.3364968],[44.3924315,33.3365188],[44.3924398,33.336499],[44.3924878,33.3364728],[44.3924817,33.3364389],[44.3924426,33.3363867],[44.3924305,33.3363837],[44.392388,33.3364104],[44.3923713,33.3364092],[44.3921265,33.3365449],[44.3921234,33.3365568],[44.3921471,33.336582]],[[44.3922981,33.336499],[44.3923151,33.3364862],[44.3923276,33.3364977],[44.3923105,33.3365105],[44.3922981,33.336499]]]}},{"type":"Feature","properties":{"id":"H097","area_m2":19,"src":"footprint","courtyard":false},"geometry":{"type":"Polygon","coordinates":[[[44.3923443,33.3365309],[44.3923629,33.3365609],[44.3924116,33.3365399],[44.392393,33.3365099],[44.3923443,33.3365309]]]}},{"type":"Feature","properties":{"id":"H098","area_m2":144,"src":"footprint","courtyard":false},"geometry":{"type":"MultiPolygon","coordinates":[[[[44.3924778,33.3365716],[44.392537,33.3366451],[44.3925774,33.3366258],[44.392583,33.3366002],[44.392536,33.3365429],[44.3924826,33.3365597],[44.3924778,33.3365716]]],[[[44.392465,33.3367012],[44.3925321,33.336664],[44.3924678,33.3365831],[44.3924007,33.3366202],[44.392465,33.3367012]]]]}},{"type":"Feature","properties":{"id":"H099","area_m2":21,"src":"footprint","courtyard":false},"geometry":{"type":"Polygon","coordinates":[[[44.3924917,33.3364914],[44.3924512,33.3365086],[44.392475,33.3365478],[44.3925155,33.3365306],[44.3924917,33.3364914]]]}},{"type":"Feature","properties":{"id":"H100","area_m2":470,"src":"footprint","courtyard":false},"geometry":{"type":"Polygon","coordinates":[[[44.3931125,33.3367403],[44.3928714,33.3368508],[44.3929528,33.3369748],[44.3931434,33.3368875],[44.3932095,33.3369881],[44.3932601,33.3369649],[44.3931125,33.3367403]]]}},{"type":"Feature","properties":{"id":"H101","area_m2":10,"src":"footprint","courtyard":false},"geometry":{"type":"Polygon","coordinates":[[[44.392991,33.3365945],[44.3929982,33.3366141],[44.3930437,33.3366025],[44.3930365,33.3365829],[44.392991,33.3365945]]]}},{"type":"Feature","properties":{"id":"H102","area_m2":188,"src":"footprint","courtyard":false},"geometry":{"type":"Polygon","coordinates":[[[44.3932371,33.3365268],[44.3930211,33.3366122],[44.3930601,33.336681],[44.3932761,33.3365956],[44.3932371,33.3365268]]]}},{"type":"Feature","properties":{"id":"H103","area_m2":617,"src":"footprint","courtyard":false},"geometry":{"type":"Polygon","coordinates":[[[44.3926828,33.3362246],[44.3928974,33.336513],[44.3930986,33.3364084],[44.3930817,33.3363858],[44.3930256,33.336415],[44.3928278,33.3361493],[44.3926828,33.3362246]]]}},{"type":"Feature","properties":{"id":"H104","area_m2":202,"src":"plan","courtyard":false},"geometry":{"type":"Polygon","coordinates":[[[44.3929268,33.3365136],[44.392923,33.3365255],[44.3929761,33.3365848],[44.3930214,33.3365715],[44.3930219,33.3365393],[44.3930829,33.3365003],[44.3931124,33.336499],[44.3931526,33.3365436],[44.3932122,33.3365158],[44.3931976,33.3364968],[44.3931675,33.3364961],[44.3931277,33.3364553],[44.3931442,33.3364154],[44.3931252,33.3363957],[44.3931082,33.3364193],[44.3929268,33.3365136]]]}},{"type":"Feature","properties":{"id":"H105","area_m2":214,"src":"footprint","courtyard":false},"geometry":{"type":"Polygon","coordinates":[[[44.3927995,33.3361371],[44.3927166,33.3360416],[44.3925742,33.3361278],[44.392657,33.3362233],[44.3927995,33.3361371]]]}},{"type":"Feature","properties":{"id":"H106","area_m2":18,"src":"footprint","courtyard":false},"geometry":{"type":"Polygon","coordinates":[[[44.3931413,33.336448],[44.393178,33.3364858],[44.3932055,33.3364672],[44.3931687,33.3364294],[44.3931413,33.336448]]]}},{"type":"Feature","properties":{"id":"H107","area_m2":805,"src":"plan","courtyard":false},"geometry":{"type":"Polygon","coordinates":[[[44.3928361,33.3361225],[44.3928325,33.3361344],[44.3930135,33.336367],[44.3931476,33.3362912],[44.393146,33.3362779],[44.393112,33.3362693],[44.3931151,33.3362531],[44.3931321,33.3362402],[44.3931728,33.3362456],[44.3932468,33.3361603],[44.3932075,33.3360905],[44.3931759,33.3360609],[44.3931691,33.3360358],[44.3931386,33.3360104],[44.3930366,33.3360682],[44.3930009,33.336109],[44.3929813,33.3361099],[44.3929516,33.3360738],[44.3929328,33.3360718],[44.3928361,33.3361225]]]}},{"type":"Feature","properties":{"id":"H108","area_m2":19,"src":"footprint","courtyard":false},"geometry":{"type":"Polygon","coordinates":[[[44.3945055,33.3374598],[44.3944822,33.3374344],[44.3944373,33.3374632],[44.3944606,33.3374886],[44.3945055,33.3374598]]]}},{"type":"Feature","properties":{"id":"H109","area_m2":104,"src":"footprint","courtyard":false},"geometry":{"type":"Polygon","coordinates":[[[44.3935692,33.3366335],[44.3935862,33.3366707],[44.3936564,33.3366482],[44.3936099,33.3365466],[44.3935303,33.336572],[44.3935452,33.3366044],[44.3935135,33.3366146],[44.3935282,33.3366467],[44.3935692,33.3366335]]]}},{"type":"Feature","properties":{"id":"H110","area_m2":35,"src":"footprint","courtyard":false},"geometry":{"type":"Polygon","coordinates":[[[44.3935818,33.3365358],[44.3935432,33.3364807],[44.3934972,33.3365031],[44.3935358,33.3365582],[44.3935818,33.3365358]]]}},{"type":"Feature","properties":{"id":"H111","area_m2":339,"src":"plan","courtyard":false},"geometry":{"type":"Polygon","coordinates":[[[44.393632,33.3367418],[44.3936064,33.3367552],[44.3936033,33.3367715],[44.3936747,33.3368406],[44.3937158,33.336813],[44.3936641,33.3367524],[44.3936672,33.3367362],[44.3937779,33.3366668],[44.3937975,33.3366659],[44.3938499,33.336724],[44.3938348,33.336757],[44.3938578,33.3367767],[44.3939195,33.3367351],[44.3939385,33.3367042],[44.3938778,33.3366543],[44.3938173,33.3365795],[44.3937993,33.3365772],[44.3937322,33.3366245],[44.3937003,33.3366242],[44.3936741,33.3366368],[44.3936661,33.3366591],[44.393605,33.3366803],[44.3936351,33.3367255],[44.393632,33.3367418]]]}},{"type":"Feature","properties":{"id":"H112","area_m2":307,"src":"footprint","courtyard":false},"geometry":{"type":"Polygon","coordinates":[[[44.3944566,33.3374268],[44.3944645,33.337419],[44.3945097,33.3374511],[44.3946037,33.3373587],[44.3945965,33.3373537],[44.3946574,33.3372938],[44.3946241,33.3372701],[44.3945949,33.3372987],[44.3945069,33.3372362],[44.3943732,33.3373676],[44.3944566,33.3374268]]]}},{"type":"Feature","properties":{"id":"H113","area_m2":125,"src":"footprint","courtyard":false},"geometry":{"type":"Polygon","coordinates":[[[44.3942209,33.3369886],[44.3941348,33.3370459],[44.3942166,33.3371318],[44.3943027,33.3370745],[44.3942209,33.3369886]]]}},{"type":"Feature","properties":{"id":"H114","area_m2":186,"src":"plan","courtyard":false},"geometry":{"type":"Polygon","coordinates":[[[44.3943375,33.3371304],[44.3942748,33.337176],[44.3943115,33.3372422],[44.3943452,33.33725],[44.3943363,33.3372798],[44.3943765,33.3373346],[44.3944083,33.337309],[44.3943784,33.3372807],[44.3943815,33.3372645],[44.3944042,33.3372473],[44.3944394,33.3372417],[44.3944624,33.3372575],[44.3945149,33.3372167],[44.3945093,33.3371903],[44.3944876,33.3371872],[44.3944506,33.3371999],[44.3944342,33.3372178],[44.394406,33.3372045],[44.3943736,33.3372285],[44.3943441,33.3372302],[44.3943166,33.3371948],[44.3943197,33.3371786],[44.3943481,33.3371571],[44.3943678,33.3371563],[44.3943921,33.337185],[44.3944222,33.3371932],[44.39444,33.3371866],[44.3944253,33.3371618],[44.3944215,33.3371083],[44.3943992,33.3371108],[44.3943823,33.3371314],[44.3943375,33.3371304]]]}},{"type":"Feature","properties":{"id":"H115","area_m2":144,"src":"footprint","courtyard":false},"geometry":{"type":"Polygon","coordinates":[[[44.3936008,33.3365376],[44.3936595,33.3366274],[44.3937793,33.3365727],[44.3937206,33.336483],[44.3936008,33.3365376]]]}},{"type":"Feature","properties":{"id":"H116","area_m2":95,"src":"footprint","courtyard":false},"geometry":{"type":"Polygon","coordinates":[[[44.3941973,33.3369754],[44.3941447,33.336899],[44.3940541,33.3369426],[44.3941068,33.337019],[44.3941973,33.3369754]]]}},{"type":"Feature","properties":{"id":"H117","area_m2":53,"src":"plan","courtyard":false},"geometry":{"type":"Polygon","coordinates":[[[44.3940344,33.3368577],[44.3940297,33.3368987],[44.3940609,33.3369209],[44.3941151,33.3368946],[44.3940963,33.3368342],[44.394076,33.3368324],[44.3940344,33.3368577]]]}},{"type":"Feature","properties":{"id":"H118","area_m2":408,"src":"footprint","courtyard":false},"geometry":{"type":"Polygon","coordinates":[[[44.3943559,33.3368756],[44.3943409,33.3368321],[44.3943854,33.3368214],[44.3943407,33.3366924],[44.3942071,33.3367247],[44.3942138,33.3367441],[44.3940975,33.3367722],[44.3941337,33.3368769],[44.3941843,33.3368646],[44.3942011,33.336913],[44.3943559,33.3368756]]]}},{"type":"Feature","properties":{"id":"H119","area_m2":14,"src":"footprint","courtyard":false},"geometry":{"type":"Polygon","coordinates":[[[44.3934817,33.3359956],[44.3934636,33.3359649],[44.393428,33.3359795],[44.3934461,33.3360102],[44.3934817,33.3359956]]]}},{"type":"Feature","properties":{"id":"H120","area_m2":213,"src":"footprint","courtyard":false},"geometry":{"type":"Polygon","coordinates":[[[44.3943437,33.3368372],[44.3943752,33.3369756],[44.394515,33.3369533],[44.3944913,33.3368495],[44.394508,33.3368469],[44.3945002,33.3368123],[44.3943437,33.3368372]]]}},{"type":"Feature","properties":{"id":"H121","area_m2":243,"src":"plan","courtyard":false},"geometry":{"type":"Polygon","coordinates":[[[44.3933888,33.3359469],[44.3933588,33.3359821],[44.3933756,33.3360054],[44.393404,33.3360145],[44.3934003,33.3360306],[44.3934777,33.3361193],[44.3936113,33.3360522],[44.3936038,33.3360091],[44.3935768,33.3359645],[44.3935381,33.3359296],[44.393485,33.3359634],[44.3934946,33.3360036],[44.39345,33.3360233],[44.3934317,33.3360162],[44.3934016,33.3359476],[44.3933888,33.3359469]]]}},{"type":"Feature","properties":{"id":"H122","area_m2":241,"src":"footprint","courtyard":false},"geometry":{"type":"Polygon","coordinates":[[[44.3933896,33.3357851],[44.39333,33.3357238],[44.393301,33.3357436],[44.3933128,33.3357557],[44.3932805,33.3357776],[44.3931781,33.3356725],[44.3931232,33.3357098],[44.393135,33.3357219],[44.3931447,33.3357153],[44.3932117,33.3357841],[44.3931891,33.3357994],[44.3932193,33.3358305],[44.3931741,33.3358612],[44.3932153,33.3359035],[44.3933896,33.3357851]]]}},{"type":"Feature","properties":{"id":"H123","area_m2":171,"src":"footprint","courtyard":false},"geometry":{"type":"Polygon","coordinates":[[[44.393509,33.3359287],[44.393386,33.3358002],[44.3933255,33.3358406],[44.3933595,33.3358762],[44.3933104,33.3359089],[44.393353,33.3359535],[44.3933988,33.3359229],[44.3934452,33.3359713],[44.393509,33.3359287]]]}},{"type":"Feature","properties":{"id":"H124","area_m2":140,"src":"footprint","courtyard":false},"geometry":{"type":"Polygon","coordinates":[[[44.3948417,33.3371041],[44.3947337,33.337032],[44.3946604,33.3371086],[44.3947684,33.3371807],[44.3948417,33.3371041]]]}},{"type":"Feature","properties":{"id":"H125","area_m2":96,"src":"footprint","courtyard":false},"geometry":{"type":"Polygon","coordinates":[[[44.3933142,33.3357254],[44.3932189,33.33561],[44.3931644,33.3356414],[44.3932597,33.3357568],[44.3933142,33.3357254]]]}},{"type":"Feature","properties":{"id":"H126","area_m2":66,"src":"footprint","courtyard":false},"geometry":{"type":"Polygon","coordinates":[[[44.3948099,33.3370333],[44.3947876,33.3370103],[44.3947601,33.3370289],[44.3948243,33.3370953],[44.3948989,33.337045],[44.394857,33.3370016],[44.3948099,33.3370333]]]}},{"type":"Feature","properties":{"id":"H127","area_m2":266,"src":"plan","courtyard":false},"geometry":{"type":"Polygon","coordinates":[[[44.393697,33.3360374],[44.3936978,33.3360755],[44.39373,33.3361059],[44.3937431,33.3361047],[44.3937454,33.336092],[44.3937852,33.336062],[44.3938203,33.3360564],[44.393867,33.3361188],[44.3938624,33.3361432],[44.3938283,33.3361689],[44.3937785,33.3361623],[44.3937643,33.336175],[44.3938026,33.3362209],[44.3939191,33.3361488],[44.3938707,33.3360651],[44.3938305,33.3360113],[44.3938073,33.3359965],[44.3938097,33.3359822],[44.3937881,33.3359692],[44.3937926,33.3359539],[44.3937487,33.3358944],[44.3937513,33.3358702],[44.3937293,33.3358623],[44.3936874,33.335888],[44.3937311,33.3359355],[44.3937475,33.335996],[44.393697,33.3360374]]]}},{"type":"Feature","properties":{"id":"H128","area_m2":376,"src":"footprint","courtyard":false},"geometry":{"type":"Polygon","coordinates":[[[44.3936477,33.3357311],[44.3934829,33.3358216],[44.393574,33.3359374],[44.3935815,33.3359333],[44.3936603,33.3360334],[44.3937315,33.3359943],[44.3936921,33.3359443],[44.3937052,33.3359371],[44.3936609,33.3358807],[44.3937133,33.3358519],[44.3936776,33.3358066],[44.3936982,33.3357952],[44.3936477,33.3357311]]]}},{"type":"Feature","properties":{"id":"H129","area_m2":123,"src":"footprint","courtyard":false},"geometry":{"type":"Polygon","coordinates":[[[44.3934778,33.3357042],[44.3933508,33.3355396],[44.3932997,33.3355671],[44.3934267,33.3357318],[44.3934778,33.3357042]]]}},{"type":"Feature","properties":{"id":"H130","area_m2":128,"src":"footprint","courtyard":false},"geometry":{"type":"MultiPolygon","coordinates":[[[[44.393536,33.3355944],[44.3934656,33.3356486],[44.3935378,33.3357141],[44.3936082,33.3356599],[44.393536,33.3355944]]],[[[44.3935208,33.3357728],[44.3935686,33.3357281],[44.3935573,33.335721],[44.3935322,33.3357268],[44.3934972,33.3357064],[44.3934593,33.3357335],[44.3934828,33.3357622],[44.3935208,33.3357728]]]]}},{"type":"Feature","properties":{"id":"H131","area_m2":153,"src":"footprint","courtyard":false},"geometry":{"type":"Polygon","coordinates":[[[44.3933455,33.3355547],[44.3934653,33.3356474],[44.3935394,33.3355806],[44.3934196,33.3354879],[44.3933455,33.3355547]]]}},{"type":"Feature","properties":{"id":"H132","area_m2":239,"src":"plan","courtyard":false},"geometry":{"type":"Polygon","coordinates":[[[44.3945688,33.3366565],[44.3946113,33.3367524],[44.3946467,33.3367922],[44.394683,33.3367796],[44.3947163,33.3367813],[44.3947323,33.3367701],[44.3946793,33.3365567],[44.3946418,33.3365599],[44.3946091,33.3365788],[44.394618,33.3366333],[44.3945688,33.3366565]]]}},{"type":"Feature","properties":{"id":"H133","area_m2":374,"src":"footprint","courtyard":false},"geometry":{"type":"MultiPolygon","coordinates":[[[[44.3939254,33.3357612],[44.3939414,33.3357383],[44.3938416,33.3356276],[44.3938186,33.3356263],[44.3938118,33.3356411],[44.393909,33.3357572],[44.3939254,33.3357612]]],[[[44.3937805,33.3356275],[44.393628,33.3357171],[44.3937416,33.335852],[44.3938941,33.3357624],[44.3937805,33.3356275]]]]}},{"type":"Feature","properties":{"id":"H134","area_m2":187,"src":"plan","courtyard":false},"geometry":{"type":"Polygon","coordinates":[[[44.3935251,33.3354498],[44.3934718,33.3355097],[44.3935516,33.3355718],[44.3935558,33.3355922],[44.3936028,33.335635],[44.3936281,33.3356298],[44.3936575,33.3356405],[44.3936759,33.3356284],[44.3936781,33.335609],[44.3935824,33.3355109],[44.3936063,33.3354695],[44.393583,33.3354449],[44.3935251,33.3354498]]]}},{"type":"Feature","properties":{"id":"H135","area_m2":156,"src":"footprint","courtyard":false},"geometry":{"type":"MultiPolygon","coordinates":[[[[44.3947881,33.336333],[44.3948231,33.3363865],[44.3949316,33.3363369],[44.3948967,33.3362834],[44.3947881,33.336333]]],[[[44.3947488,33.3364097],[44.394772,33.3364315],[44.3948095,33.336412],[44.3948096,33.3363939],[44.3947686,33.3363324],[44.3948219,33.3363005],[44.3948105,33.3362703],[44.3947539,33.3362823],[44.3947425,33.3362945],[44.3947571,33.336332],[44.3947369,33.3363659],[44.3947488,33.3364097]]]]}},{"type":"Feature","properties":{"id":"H136","area_m2":185,"src":"plan","courtyard":false},"geometry":{"type":"Polygon","coordinates":[[[44.3938194,33.3352491],[44.3937615,33.3352926],[44.3937587,33.3353107],[44.3938165,33.3353646],[44.3938527,33.3353698],[44.3938448,33.3354008],[44.3938922,33.3354536],[44.393905,33.3354556],[44.3939611,33.3354055],[44.393832,33.3352507],[44.3938194,33.3352491]]]}},{"type":"Feature","properties":{"id":"H137","area_m2":40,"src":"footprint","courtyard":false},"geometry":{"type":"Polygon","coordinates":[[[44.3940543,33.3353667],[44.3940285,33.3353281],[44.3939518,33.3353639],[44.3939776,33.3354024],[44.3940543,33.3353667]]]}},{"type":"Feature","properties":{"id":"H138","area_m2":92,"src":"footprint","courtyard":false},"geometry":{"type":"Polygon","coordinates":[[[44.3940007,33.3353331],[44.3938954,33.3352149],[44.3938471,33.335245],[44.3939524,33.3353632],[44.3940007,33.3353331]]]}},{"type":"Feature","properties":{"id":"H139","area_m2":167,"src":"footprint","courtyard":false},"geometry":{"type":"Polygon","coordinates":[[[44.3942645,33.3355387],[44.3940837,33.3353955],[44.3940301,33.3354428],[44.394211,33.335586],[44.3942645,33.3355387]]]}},{"type":"Feature","properties":{"id":"H140","area_m2":34,"src":"footprint","courtyard":false},"geometry":{"type":"Polygon","coordinates":[[[44.3938676,33.335203],[44.393909,33.3352348],[44.3939571,33.3351912],[44.3939157,33.3351593],[44.3938676,33.335203]]]}},{"type":"Feature","properties":{"id":"H141","area_m2":36,"src":"footprint","courtyard":false},"geometry":{"type":"Polygon","coordinates":[[[44.3940924,33.3353732],[44.3941367,33.335416],[44.3941834,33.3353822],[44.3941391,33.3353394],[44.3940924,33.3353732]]]}},{"type":"Feature","properties":{"id":"H142","area_m2":170,"src":"footprint","courtyard":false},"geometry":{"type":"Polygon","coordinates":[[[44.3939371,33.335241],[44.3940045,33.3353238],[44.3941402,33.3352467],[44.3940729,33.3351639],[44.3939371,33.335241]]]}},{"type":"Feature","properties":{"id":"H143","area_m2":134,"src":"footprint","courtyard":false},"geometry":{"type":"Polygon","coordinates":[[[44.3945257,33.3357901],[44.3945598,33.3358477],[44.3947407,33.3357728],[44.3947065,33.3357152],[44.3945257,33.3357901]]]}},{"type":"Feature","properties":{"id":"H144","area_m2":109,"src":"footprint","courtyard":false},"geometry":{"type":"Polygon","coordinates":[[[44.3940358,33.3350659],[44.3939016,33.3351185],[44.3939377,33.3351828],[44.3940718,33.3351302],[44.3940358,33.3350659]]]}},{"type":"Feature","properties":{"id":"H145","area_m2":192,"src":"footprint","courtyard":false},"geometry":{"type":"Polygon","coordinates":[[[44.3941858,33.3352045],[44.3940797,33.3351188],[44.3940497,33.3351448],[44.394153,33.3352282],[44.3940315,33.3353332],[44.3940759,33.335369],[44.3942582,33.3352114],[44.3942166,33.3351778],[44.3941858,33.3352045]]]}},{"type":"Feature","properties":{"id":"H146","area_m2":304,"src":"footprint","courtyard":false},"geometry":{"type":"Polygon","coordinates":[[[44.3943401,33.3353102],[44.3942046,33.3353967],[44.3943301,33.3355339],[44.3944656,33.3354475],[44.3943401,33.3353102]]]}},{"type":"Feature","properties":{"id":"H147","area_m2":62,"src":"footprint","courtyard":false},"geometry":{"type":"Polygon","coordinates":[[[44.394189,33.3353206],[44.3942241,33.3353727],[44.3942802,33.3353464],[44.3942646,33.3353232],[44.3943217,33.3352965],[44.3943022,33.3352675],[44.394189,33.3353206]]]}},{"type":"Feature","properties":{"id":"H148","area_m2":17,"src":"footprint","courtyard":false},"geometry":{"type":"Polygon","coordinates":[[[44.3947854,33.3357862],[44.3948015,33.335816],[44.3948472,33.3357987],[44.3948311,33.335769],[44.3947854,33.3357862]]]}},{"type":"Feature","properties":{"id":"H149","area_m2":76,"src":"footprint","courtyard":false},"geometry":{"type":"Polygon","coordinates":[[[44.3942156,33.3351714],[44.39406,33.3350478],[44.3940319,33.3350725],[44.3941875,33.3351961],[44.3942156,33.3351714]]]}},{"type":"Feature","properties":{"id":"H150","area_m2":197,"src":"footprint","courtyard":false},"geometry":{"type":"Polygon","coordinates":[[[44.3948322,33.3357547],[44.3948531,33.3357769],[44.3949028,33.3357442],[44.3947855,33.3356196],[44.3946811,33.3356882],[44.3947775,33.3357907],[44.3948322,33.3357547]]]}},{"type":"Feature","properties":{"id":"H151","area_m2":150,"src":"footprint","courtyard":false},"geometry":{"type":"MultiPolygon","coordinates":[[[[44.3948845,33.3355258],[44.3948591,33.3355369],[44.3949382,33.3356165],[44.3949759,33.3356211],[44.3949778,33.3356086],[44.3948845,33.3355258]]],[[[44.394761,33.3355939],[44.3948505,33.3356762],[44.3949225,33.3356215],[44.394833,33.3355393],[44.394761,33.3355939]]]]}},{"type":"Feature","properties":{"id":"H152","area_m2":201,"src":"footprint","courtyard":false},"geometry":{"type":"MultiPolygon","coordinates":[[[[44.3949859,33.3357874],[44.3950271,33.3357929],[44.3950509,33.3357638],[44.3951148,33.3357554],[44.3951256,33.3357382],[44.3950575,33.3356752],[44.3950101,33.3357577],[44.3949849,33.3357646],[44.3949859,33.3357874]]],[[[44.3949352,33.3356621],[44.3948878,33.3356449],[44.394859,33.3357003],[44.3949967,33.3357502],[44.3950411,33.3356647],[44.3949509,33.3356319],[44.3949352,33.3356621]]]]}},{"type":"Feature","properties":{"id":"H153","area_m2":216,"src":"footprint","courtyard":false},"geometry":{"type":"Polygon","coordinates":[[[44.3952284,33.3356524],[44.3949846,33.3354386],[44.3949333,33.3354795],[44.3951771,33.3356932],[44.3952284,33.3356524]]]}},{"type":"Feature","properties":{"id":"H154","area_m2":72,"src":"footprint","courtyard":false},"geometry":{"type":"Polygon","coordinates":[[[44.3949991,33.3354567],[44.3950782,33.3355182],[44.3951312,33.3354706],[44.3950521,33.3354091],[44.3949991,33.3354567]]]}},{"type":"Feature","properties":{"id":"H155","area_m2":109,"src":"footprint","courtyard":false},"geometry":{"type":"Polygon","coordinates":[[[44.39512,33.3355513],[44.3952409,33.335644],[44.395293,33.3355966],[44.3951722,33.3355039],[44.39512,33.3355513]]]}},{"type":"Feature","properties":{"id":"H156","area_m2":889,"src":"footprint","courtyard":false},"geometry":{"type":"Polygon","coordinates":[[[44.3955068,33.3354148],[44.3954004,33.3353224],[44.3954324,33.3352967],[44.3953096,33.3351901],[44.395233,33.3352517],[44.3952411,33.3352587],[44.3950719,33.3353947],[44.395293,33.3355866],[44.3955068,33.3354148]]]}},{"type":"Feature","properties":{"id":"H157","area_m2":841,"src":"plan","courtyard":true},"geometry":{"type":"Polygon","coordinates":[[[44.3949021,33.3350048],[44.3948672,33.3350371],[44.3949452,33.3351117],[44.3949086,33.3351509],[44.3949425,33.3351941],[44.394956,33.3351939],[44.3950731,33.335106],[44.3950928,33.3351051],[44.3951606,33.3351679],[44.3951734,33.3351694],[44.3952841,33.3350822],[44.3952376,33.33501],[44.3952725,33.3349867],[44.3952548,33.3349579],[44.3952761,33.3349269],[44.3952608,33.3349189],[44.3952136,33.3349305],[44.3951696,33.3348799],[44.3951912,33.3348429],[44.3952109,33.334842],[44.3952327,33.334858],[44.3952527,33.3348496],[44.3952776,33.3348563],[44.3952844,33.3348438],[44.3952388,33.3348032],[44.3951902,33.3348227],[44.3951703,33.3348174],[44.3950122,33.3349328],[44.3949778,33.3349228],[44.3949481,33.3349354],[44.3949016,33.3349691],[44.3949021,33.3350048]],[[44.395032,33.3349628],[44.3950351,33.3349465],[44.3950922,33.3349037],[44.3951116,33.3349028],[44.3951655,33.3349528],[44.3951624,33.334969],[44.3951167,33.3350033],[44.3950973,33.3350042],[44.395032,33.3349628]]]}},{"type":"Feature","properties":{"id":"H158","area_m2":45,"src":"footprint","courtyard":false},"geometry":{"type":"Polygon","coordinates":[[[44.3949894,33.3348374],[44.394938,33.3347798],[44.3948897,33.3348098],[44.3949411,33.3348674],[44.3949894,33.3348374]]]}},{"type":"Feature","properties":{"id":"H159","area_m2":80,"src":"footprint","courtyard":false},"geometry":{"type":"Polygon","coordinates":[[[44.3956516,33.3354157],[44.3955828,33.3353548],[44.3955155,33.335408],[44.3955843,33.3354688],[44.3956516,33.3354157]]]}},{"type":"Feature","properties":{"id":"H160","area_m2":52,"src":"plan","courtyard":false},"geometry":{"type":"Polygon","coordinates":[[[44.3958439,33.3356104],[44.3958074,33.3356341],[44.3958067,33.3356522],[44.3958402,33.3356829],[44.3958829,33.3356946],[44.395909,33.3356528],[44.3958439,33.3356104]]]}},{"type":"Feature","properties":{"id":"H161","area_m2":21,"src":"footprint","courtyard":false},"geometry":{"type":"Polygon","coordinates":[[[44.3949009,33.3347374],[44.3949363,33.3347793],[44.3949694,33.3347598],[44.394934,33.3347179],[44.3949009,33.3347374]]]}},{"type":"Feature","properties":{"id":"H162","area_m2":25,"src":"footprint","courtyard":false},"geometry":{"type":"Polygon","coordinates":[[[44.3950357,33.3348059],[44.395005,33.3347712],[44.3949608,33.3347985],[44.3949915,33.3348332],[44.3950357,33.3348059]]]}},{"type":"Feature","properties":{"id":"H163","area_m2":171,"src":"footprint","courtyard":false},"geometry":{"type":"Polygon","coordinates":[[[44.3951515,33.3348153],[44.3950481,33.3347146],[44.3949956,33.3347523],[44.3950534,33.3348086],[44.3949577,33.3348772],[44.3950032,33.3349216],[44.3951515,33.3348153]]]}},{"type":"Feature","properties":{"id":"H164","area_m2":292,"src":"footprint","courtyard":false},"geometry":{"type":"Polygon","coordinates":[[[44.3959672,33.3354596],[44.3958684,33.3355932],[44.3960217,33.3356723],[44.3961205,33.3355388],[44.3959672,33.3354596]]]}},{"type":"Feature","properties":{"id":"H165","area_m2":23,"src":"footprint","courtyard":false},"geometry":{"type":"Polygon","coordinates":[[[44.3953025,33.3349241],[44.3953212,33.3349011],[44.395254,33.3348631],[44.3952353,33.3348862],[44.3953025,33.3349241]]]}},{"type":"Feature","properties":{"id":"H166","area_m2":130,"src":"footprint","courtyard":false},"geometry":{"type":"Polygon","coordinates":[[[44.3954303,33.3349108],[44.3953933,33.3349399],[44.3953469,33.3348987],[44.3952709,33.3349586],[44.3953525,33.335031],[44.3954656,33.3349421],[44.3954303,33.3349108]]]}},{"type":"Feature","properties":{"id":"H167","area_m2":455,"src":"plan","courtyard":true},"geometry":{"type":"Polygon","coordinates":[[[44.3948415,33.3347671],[44.394895,33.3347892],[44.3949107,33.3347742],[44.3948854,33.3347336],[44.3949246,33.3347069],[44.3949437,33.3347071],[44.3949805,33.3347427],[44.3950496,33.3347012],[44.3951637,33.3347968],[44.3951725,33.3347794],[44.3951466,33.3347441],[44.3951636,33.3347313],[44.3951952,33.3347353],[44.3953577,33.3346054],[44.395326,33.3345889],[44.3952649,33.334634],[44.3952453,33.3346349],[44.3952214,33.3346138],[44.3951905,33.3346032],[44.3951572,33.3346106],[44.3951308,33.3345886],[44.395063,33.3345988],[44.3950221,33.3346287],[44.3949767,33.3346318],[44.3949316,33.334669],[44.394825,33.3347287],[44.3948207,33.3347467],[44.3948415,33.3347671]],[[44.3950734,33.3346668],[44.3951003,33.3346535],[44.3951499,33.3346994],[44.3951315,33.3347206],[44.3950787,33.3346907],[44.3950734,33.3346668]]]}},{"type":"Feature","properties":{"id":"H168","area_m2":60,"src":"footprint","courtyard":false},"geometry":{"type":"Polygon","coordinates":[[[44.3957024,33.3352805],[44.3957689,33.3353385],[44.3958214,33.3352966],[44.3957549,33.3352385],[44.3957024,33.3352805]]]}},{"type":"Feature","properties":{"id":"H169","area_m2":41,"src":"footprint","courtyard":false},"geometry":{"type":"Polygon","coordinates":[[[44.3961562,33.3354908],[44.3960765,33.3354641],[44.3960561,33.3355066],[44.3961358,33.3355333],[44.3961562,33.3354908]]]}},{"type":"Feature","properties":{"id":"H170","area_m2":1301,"src":"footprint","courtyard":false},"geometry":{"type":"MultiPolygon","coordinates":[[[[44.3954897,33.3350525],[44.3955535,33.3351192],[44.3955521,33.3351204],[44.3954921,33.335087],[44.395462,33.3351249],[44.3954025,33.3350918],[44.3953239,33.3351904],[44.3953428,33.3352102],[44.3953655,33.3352228],[44.3954192,33.3351869],[44.3954726,33.3351199],[44.3954782,33.3351162],[44.3956548,33.3353008],[44.3957714,33.3352229],[44.3958096,33.335175],[44.3958411,33.335154],[44.3958526,33.3351396],[44.3958944,33.3351629],[44.39591,33.3351432],[44.3960457,33.3352187],[44.3960964,33.335155],[44.3959252,33.3350598],[44.3958594,33.3351036],[44.395858,33.3351025],[44.3959232,33.3350206],[44.3958684,33.3349901],[44.3958269,33.3350178],[44.3957577,33.3349793],[44.3957906,33.3349379],[44.3957201,33.3348987],[44.3954897,33.3350525]]],[[[44.3956063,33.3353556],[44.3956725,33.3354042],[44.3957012,33.3353683],[44.3956813,33.3353448],[44.3956852,33.3353108],[44.3956456,33.3353147],[44.3956063,33.3353556]]]]}},{"type":"Feature","properties":{"id":"H171","area_m2":91,"src":"footprint","courtyard":false},"geometry":{"type":"Polygon","coordinates":[[[44.3957555,33.3352379],[44.395819,33.3352846],[44.3959015,33.3352063],[44.395838,33.3351596],[44.3957555,33.3352379]]]}},{"type":"Feature","properties":{"id":"H172","area_m2":83,"src":"footprint","courtyard":false},"geometry":{"type":"Polygon","coordinates":[[[44.3960386,33.3354184],[44.3961464,33.3354997],[44.3962131,33.335438],[44.3961651,33.3354018],[44.3961246,33.3354393],[44.3960648,33.3353941],[44.3960386,33.3354184]]]}},{"type":"Feature","properties":{"id":"H173","area_m2":247,"src":"footprint","courtyard":false},"geometry":{"type":"Polygon","coordinates":[[[44.3952955,33.3345305],[44.3953352,33.3345635],[44.3953727,33.3345321],[44.3953001,33.3344716],[44.3952518,33.334512],[44.3951287,33.3344095],[44.3950568,33.3344697],[44.3952128,33.3345997],[44.3952955,33.3345305]]]}},{"type":"Feature","properties":{"id":"H174","area_m2":98,"src":"footprint","courtyard":false},"geometry":{"type":"Polygon","coordinates":[[[44.3952959,33.3344583],[44.395169,33.334357],[44.3951243,33.3343961],[44.3952512,33.3344974],[44.3952959,33.3344583]]]}},{"type":"Feature","properties":{"id":"H175","area_m2":80,"src":"plan","courtyard":false},"geometry":{"type":"Polygon","coordinates":[[[44.3961388,33.3353581],[44.3961949,33.3353839],[44.3962356,33.3353522],[44.3962468,33.3353255],[44.3961798,33.335271],[44.3961245,33.335337],[44.3961388,33.3353581]]]}},{"type":"Feature","properties":{"id":"H176","area_m2":35,"src":"footprint","courtyard":false},"geometry":{"type":"Polygon","coordinates":[[[44.3953696,33.3345381],[44.3953376,33.3345744],[44.3953976,33.3346113],[44.3954296,33.334575],[44.3953696,33.3345381]]]}},{"type":"Feature","properties":{"id":"H177","area_m2":228,"src":"plan","courtyard":false},"geometry":{"type":"Polygon","coordinates":[[[44.3957805,33.3348121],[44.395747,33.3348515],[44.3957984,33.334899],[44.3958763,33.3349332],[44.3958815,33.3349565],[44.3959238,33.3349906],[44.3960111,33.3349036],[44.3960056,33.3348923],[44.3959585,33.3348852],[44.3959411,33.334852],[44.3958792,33.3348133],[44.3958319,33.334844],[44.3957805,33.3348121]]]}},{"type":"Feature","properties":{"id":"H178","area_m2":40,"src":"plan","courtyard":false},"geometry":{"type":"Polygon","coordinates":[[[44.3963496,33.3352604],[44.3961592,33.335146],[44.3961551,33.3351561],[44.3961873,33.3351839],[44.3962018,33.3351847],[44.3963308,33.3352781],[44.3963502,33.3352731],[44.3963496,33.3352604]]]}},{"type":"Feature","properties":{"id":"H179","area_m2":25,"src":"footprint","courtyard":false},"geometry":{"type":"Polygon","coordinates":[[[44.3957972,33.3348061],[44.3958306,33.3348305],[44.3958732,33.33479],[44.3958398,33.3347655],[44.3957972,33.3348061]]]}},{"type":"Feature","properties":{"id":"H180","area_m2":457,"src":"plan","courtyard":false},"geometry":{"type":"Polygon","coordinates":[[[44.3960313,33.3348722],[44.396032,33.334886],[44.3963037,33.335057],[44.3963331,33.3350382],[44.3963171,33.3350057],[44.3963769,33.3349305],[44.3961412,33.3347779],[44.3961202,33.3347849],[44.3961183,33.3348136],[44.3960313,33.3348722]]]}},{"type":"Feature","properties":{"id":"H181","area_m2":1678,"src":"footprint","courtyard":false},"geometry":{"type":"Polygon","coordinates":[[[44.3966728,33.3349345],[44.396252,33.3346644],[44.3961548,33.3347701],[44.3964053,33.3349309],[44.3963322,33.3350103],[44.3963618,33.3350292],[44.3963143,33.3350808],[44.3960343,33.3349011],[44.3959535,33.334989],[44.3963743,33.3352591],[44.3966728,33.3349345]]]}},{"type":"Feature","properties":{"id":"H182","area_m2":349,"src":"footprint","courtyard":false},"geometry":{"type":"Polygon","coordinates":[[[44.396088,33.3345615],[44.3959583,33.3346781],[44.3960878,33.3347786],[44.3962603,33.3346236],[44.3961812,33.3345621],[44.3961384,33.3346006],[44.396088,33.3345615]]]}},{"type":"Feature","properties":{"id":"H183","area_m2":249,"src":"footprint","courtyard":false},"geometry":{"type":"Polygon","coordinates":[[[44.3958406,33.3339828],[44.3960407,33.334158],[44.3961129,33.3341004],[44.3959128,33.3339252],[44.3958406,33.3339828]]]}},{"type":"Feature","properties":{"id":"H184","area_m2":18,"src":"footprint","courtyard":false},"geometry":{"type":"Polygon","coordinates":[[[44.3961129,33.3341001],[44.3961462,33.3341246],[44.3961773,33.334095],[44.396144,33.3340706],[44.3961129,33.3341001]]]}},{"type":"Feature","properties":{"id":"H185","area_m2":201,"src":"plan","courtyard":false},"geometry":{"type":"Polygon","coordinates":[[[44.3959165,33.3338786],[44.3959072,33.3339093],[44.3961058,33.3340743],[44.3961464,33.3340572],[44.3961988,33.3340982],[44.3962207,33.334089],[44.3962193,33.334077],[44.3959455,33.3338665],[44.3959165,33.3338786]]]}},{"type":"Feature","properties":{"id":"H186","area_m2":61,"src":"footprint","courtyard":false},"geometry":{"type":"Polygon","coordinates":[[[44.3962445,33.3340893],[44.3961642,33.3341507],[44.3962083,33.3341909],[44.3962886,33.3341295],[44.3962445,33.3340893]]]}},{"type":"Feature","properties":{"id":"H187","area_m2":2020,"src":"footprint","courtyard":false},"geometry":{"type":"Polygon","coordinates":[[[44.3959435,33.3338466],[44.3963052,33.3341247],[44.3962197,33.3342023],[44.3961296,33.3341331],[44.3960695,33.3341877],[44.3961348,33.334238],[44.3961193,33.3342521],[44.396234,33.3343403],[44.3966492,33.3339633],[44.3966419,33.3339577],[44.3966205,33.3339772],[44.3965465,33.3339202],[44.3965398,33.3339263],[44.3961904,33.3336577],[44.3961249,33.3337172],[44.3961751,33.3337557],[44.3961056,33.3338188],[44.3960344,33.3337641],[44.3959435,33.3338466]]]}},{"type":"Feature","properties":{"id":"H188","area_m2":69,"src":"footprint","courtyard":false},"geometry":{"type":"Polygon","coordinates":[[[44.396086,33.3337001],[44.3960311,33.3337484],[44.3961037,33.3338061],[44.3961587,33.3337578],[44.396086,33.3337001]]]}},{"type":"Feature","properties":{"id":"H189","area_m2":98,"src":"footprint","courtyard":false},"geometry":{"type":"Polygon","coordinates":[[[44.3965296,33.3341934],[44.3965903,33.3342391],[44.3966703,33.3341648],[44.3966392,33.3341414],[44.3966659,33.3341167],[44.3966363,33.3340944],[44.3965296,33.3341934]]]}},{"type":"Feature","properties":{"id":"H190","area_m2":42,"src":"footprint","courtyard":false},"geometry":{"type":"Polygon","coordinates":[[[44.3966331,33.3342245],[44.3967084,33.3342646],[44.3967376,33.3342263],[44.3966623,33.3341862],[44.3966331,33.3342245]]]}},{"type":"Feature","properties":{"id":"H191","area_m2":66,"src":"footprint","courtyard":false},"geometry":{"type":"Polygon","coordinates":[[[44.3972204,33.333866],[44.3971473,33.3339431],[44.3971984,33.3339769],[44.3972715,33.3338998],[44.3972204,33.333866]]]}},{"type":"Feature","properties":{"id":"H192","area_m2":946,"src":"plan","courtyard":false},"geometry":{"type":"Polygon","coordinates":[[[44.3966806,33.333338],[44.3966789,33.3333498],[44.3967164,33.3333809],[44.3967134,33.3333969],[44.3966598,33.3334514],[44.3966595,33.3334711],[44.3969192,33.3336549],[44.3969577,33.333652],[44.3969642,33.3336828],[44.3970108,33.3336746],[44.3970265,33.3336489],[44.3970516,33.3336353],[44.3970524,33.3336155],[44.3971211,33.3335566],[44.3971223,33.3335378],[44.3970183,33.3334591],[44.3969988,33.3334607],[44.3969691,33.333425],[44.3969418,33.333427],[44.396921,33.3334078],[44.396922,33.3333896],[44.3968603,33.3333456],[44.3968448,33.3333467],[44.3967572,33.3332756],[44.3967338,33.333284],[44.3967319,33.3332993],[44.3966806,33.333338]]]}},{"type":"Feature","properties":{"id":"H193","area_m2":76,"src":"plan","courtyard":false},"geometry":{"type":"Polygon","coordinates":[[[44.397243,33.3338546],[44.3973078,33.33391],[44.3973717,33.3338681],[44.3973312,33.3338082],[44.39728,33.3338212],[44.397243,33.3338546]]]}}]}