{"type": "FeatureCollection", "features": [{"type": "Feature", "properties": {"name": "جامع امام طه", "name_en": null, "kind": "place_of_worship"}, "geometry": {"type": "Point", "coordinates": [44.3918751, 33.3416784]}}, {"type": "Feature", "properties": {"name": "جامع سعد بن ابي وقاص", "name_en": null, "kind": "place_of_worship"}, "geometry": {"type": "Point", "coordinates": [44.385178, 33.3300082]}}, {"type": "Feature", "properties": {"name": "جامع الفضل الكبير", "name_en": "AL - Fadhil Al kabeer", "kind": "place_of_worship"}, "geometry": {"type": "Point", "coordinates": [44.3914757, 33.3468414]}}, {"type": "Feature", "properties": {"name": "كنيسة مسكنتة", "name_en": null, "kind": "place_of_worship"}, "geometry": {"type": "Point", "coordinates": [44.3868223, 33.3464012]}}, {"type": "Feature", "properties": {"name": "جامع المصلوب", "name_en": null, "kind": "place_of_worship"}, "geometry": {"type": "Point", "coordinates": [44.4006214, 33.3374918]}}, {"type": "Feature", "properties": {"name": "مرقد الحاخام إسحاق جاؤون", "name_en": null, "kind": "place_of_worship"}, "geometry": {"type": "Point", "coordinates": [44.3962634, 33.3425684]}}, {"type": "Feature", "properties": {"name": "بيوت اساتذة مدرسة الاليانس اليهودية", "name_en": null, "kind": "district"}, "geometry": {"type": "Point", "coordinates": [44.3945287, 33.3426454]}}, {"type": "Feature", "properties": {"name": "مسجد ملا الحديثى", "name_en": null, "kind": "place_of_worship"}, "geometry": {"type": "Point", "coordinates": [44.3912263, 33.3404363]}}, {"type": "Feature", "properties": {"name": "ضريح قنبر علي", "name_en": null, "kind": "place_of_worship"}, "geometry": {"type": "Point", "coordinates": [44.3948849, 33.3441525]}}, {"type": "Feature", "properties": {"name": "LASER CNC", "name_en": null, "kind": "place_of_worship"}, "geometry": {"type": "Point", "coordinates": [44.3985086, 33.3466994]}}, {"type": "Feature", "properties": {"name": "جامع عثمان أفندي", "name_en": null, "kind": "place_of_worship"}, "geometry": {"type": "Point", "coordinates": [44.3887742, 33.3401003]}}, {"type": "Feature", "properties": {"name": "كنيس إلياهو", "name_en": "Eliyahu Synagogue", "kind": "place_of_worship"}, "geometry": {"type": "Point", "coordinates": [44.4005196, 33.3415007]}}, {"type": "Feature", "properties": {"name": "جامع حنان", "name_en": null, "kind": "place_of_worship"}, "geometry": {"type": "Point", "coordinates": [44.3862336, 33.3368436]}}, {"type": "Feature", "properties": {"name": "طريق الى العلاوي", "name_en": null, "kind": "monument"}, "geometry": {"type": "Point", "coordinates": [44.3848598, 33.3346572]}}, {"type": "Feature", "properties": {"name": "مبنى القشلة", "name_en": null, "kind": "archaeological_site"}, "geometry": {"type": "Point", "coordinates": [44.3874339, 33.340535]}}, {"type": "Feature", "properties": {"name": "السوق العربي", "name_en": "Arab Market", "kind": "marketplace"}, "geometry": {"type": "Point", "coordinates": [44.3950498, 33.3384919]}}, {"type": "Feature", "properties": {"name": "كنيسة السيدة العذراء للاباء الكرملين", "name_en": "Blessed Virgin Mary Church", "kind": "place_of_worship"}, "geometry": {"type": "Point", "coordinates": [44.3963702, 33.3388583]}}, {"type": "Feature", "properties": {"name": "مطعم المتنبي", "name_en": null, "kind": "restaurant"}, "geometry": {"type": "Point", "coordinates": [44.3917208, 33.3422285]}}, {"type": "Feature", "properties": {"name": "شركة اوتاد الطاقة", "name_en": "Awtad Energy Company", "kind": "business"}, "geometry": {"type": "Point", "coordinates": [44.3974004, 33.3383136]}}, {"type": "Feature", "properties": {"name": "عمارة حافظ القاضي", "name_en": null, "kind": "yes"}, "geometry": {"type": "Point", "coordinates": [44.3974395, 33.3342957]}}, {"type": "Feature", "properties": {"name": "بيت لنج", "name_en": null, "kind": "yes"}, "geometry": {"type": "Point", "coordinates": [44.396407, 33.3348456]}}, {"type": "Feature", "properties": {"name": "مقهى الشابندر", "name_en": "Shabandar Cafe", "kind": "cafe"}, "geometry": {"type": "Point", "coordinates": [44.388059, 33.3403352]}}, {"type": "Feature", "properties": {"name": "مطبعة الميناء", "name_en": null, "kind": "yes"}, "geometry": {"type": "Point", "coordinates": [44.3892375, 33.341411]}}, {"type": "Feature", "properties": {"name": "جامع الوزير", "name_en": null, "kind": "place_of_worship"}, "geometry": {"type": "Point", "coordinates": [44.3885704, 33.3392737]}}, {"type": "Feature", "properties": {"name": "المدرسة الآصفية", "name_en": null, "kind": "school"}, "geometry": {"type": "Point", "coordinates": [44.3892233, 33.3389452]}}, {"type": "Feature", "properties": {"name": "جامع العاقولي", "name_en": null, "kind": "place_of_worship"}, "geometry": {"type": "Point", "coordinates": [44.3911816, 33.3424976]}}, {"type": "Feature", "properties": {"name": "متوسطة الرشيد", "name_en": null, "kind": "school"}, "geometry": {"type": "Point", "coordinates": [44.3913491, 33.3425778]}}, {"type": "Feature", "properties": {"name": "متوسطة الابطال للبنين", "name_en": null, "kind": "school"}, "geometry": {"type": "Point", "coordinates": [44.3914579, 33.342849]}}, {"type": "Feature", "properties": {"name": "مجمع الرصافي", "name_en": null, "kind": "commercial"}, "geometry": {"type": "Point", "coordinates": [44.3915014, 33.3420462]}}, {"type": "Feature", "properties": {"name": "مجمع عمو بابا الرياضي", "name_en": null, "kind": "yes"}, "geometry": {"type": "Point", "coordinates": [44.3967569, 33.3334651]}}, {"type": "Feature", "properties": {"name": "مكان اقامة ساسون حسقيل", "name_en": null, "kind": "memorial"}, "geometry": {"type": "Point", "coordinates": [44.39651, 33.333698]}}, {"type": "Feature", "properties": {"name": "غرفة تجارة بغداد", "name_en": null, "kind": "exhibition_centre"}, "geometry": {"type": "Point", "coordinates": [44.3958699, 33.3342443]}}, {"type": "Feature", "properties": {"name": "مركز دفاع مدني الشورجة", "name_en": "Al Shorja Fire Station", "kind": "fire_station"}, "geometry": {"type": "Point", "coordinates": [44.3969175, 33.3387577]}}, {"type": "Feature", "properties": {"name": "سوق شاؤول طوبة اليهودي", "name_en": null, "kind": "yes"}, "geometry": {"type": "Point", "coordinates": [44.3914258, 33.3387654]}}, {"type": "Feature", "properties": {"name": "خان شماش اليهودي", "name_en": null, "kind": "yes"}, "geometry": {"type": "Point", "coordinates": [44.3914653, 33.3390121]}}, {"type": "Feature", "properties": {"name": "سوق مناحيم دانيال", "name_en": null, "kind": "yes"}, "geometry": {"type": "Point", "coordinates": [44.3910668, 33.3382554]}}, {"type": "Feature", "properties": {"name": "قصر چوپانیان", "name_en": null, "kind": "yes"}, "geometry": {"type": "Point", "coordinates": [44.3932297, 33.3357673]}}, {"type": "Feature", "properties": {"name": "رئاسة الطائفة اليهودية", "name_en": null, "kind": "yes"}, "geometry": {"type": "Point", "coordinates": [44.3934908, 33.3355988]}}, {"type": "Feature", "properties": {"name": "سوق الارمن", "name_en": null, "kind": "yes"}, "geometry": {"type": "Point", "coordinates": [44.3940207, 33.3351992]}}, {"type": "Feature", "properties": {"name": "كنيس يهودي", "name_en": null, "kind": "place_of_worship"}, "geometry": {"type": "Point", "coordinates": [44.3942128, 33.3350635]}}, {"type": "Feature", "properties": {"name": "اورزدي بالك", "name_en": null, "kind": "yes"}, "geometry": {"type": "Point", "coordinates": [44.3947986, 33.3352419]}}, {"type": "Feature", "properties": {"name": "خان مرجان الاثري", "name_en": "Khan Marjan (Caravanserai)", "kind": "building"}, "geometry": {"type": "Point", "coordinates": [44.3927001, 33.3386761]}}, {"type": "Feature", "properties": {"name": "جامع مرجان", "name_en": null, "kind": "yes"}, "geometry": {"type": "Point", "coordinates": [44.3934439, 33.3389939]}}, {"type": "Feature", "properties": {"name": "مصرف الرشيد", "name_en": null, "kind": "bank"}, "geometry": {"type": "Point", "coordinates": [44.3929165, 33.3372171]}}, {"type": "Feature", "properties": {"name": "كبة السراي", "name_en": "Kubba Saray", "kind": "fast_food"}, "geometry": {"type": "Point", "coordinates": [44.3881127, 33.3401301]}}, {"type": "Feature", "properties": {"name": "مجمع القديس يوسف", "name_en": null, "kind": "retail"}, "geometry": {"type": "Point", "coordinates": [44.3961212, 33.3390057]}}, {"type": "Feature", "properties": {"name": "عمارة إدفيش عبود", "name_en": "The Abboud building", "kind": "yes"}, "geometry": {"type": "Point", "coordinates": [44.3929663, 33.3393495]}}, {"type": "Feature", "properties": {"name": "جامع سلطان باشا", "name_en": null, "kind": "place_of_worship"}, "geometry": {"type": "Point", "coordinates": [44.3982103, 33.3325419]}}, {"type": "Feature", "properties": {"name": "جامع الخفافين", "name_en": null, "kind": "place_of_worship"}, "geometry": {"type": "Point", "coordinates": [44.3907115, 33.3377824]}}, {"type": "Feature", "properties": {"name": "المدرسة المستنصرية", "name_en": "Mustansiriya Madrasah", "kind": "archaeological_site"}, "geometry": {"type": "Point", "coordinates": [44.389718, 33.3387018]}}, {"type": "Feature", "properties": {"name": "القصر العباسي", "name_en": "Abbasid Palace", "kind": "castle"}, "geometry": {"type": "Point", "coordinates": [44.3835813, 33.3430375]}}]}