{"type":"Feature","properties":{"name":"حدود السايت"},"geometry":{"type":"Polygon","coordinates":[[[44.3897877,33.3402012],[44.3893392,33.3396803],[44.3886246,33.3389797],[44.3946699,33.3344272],[44.3950985,33.3341741],[44.3952261,33.3342727],[44.3952763,33.3342495],[44.396255,33.3334708],[44.3966326,33.3331302],[44.3966998,33.3331127],[44.3967032,33.3330913],[44.3965812,33.3329882],[44.3967617,33.3328588],[44.3967809,33.3328861],[44.3967216,33.3329255],[44.3967204,33.3329543],[44.3970314,33.3331853],[44.3971729,33.3333162],[44.3972802,33.333386],[44.3973386,33.3333935],[44.3992281,33.3351545],[44.3991273,33.3352235],[44.3989042,33.3350168],[44.3987738,33.3349258],[44.3985771,33.3349619],[44.3984481,33.3349475],[44.3983673,33.3349108],[44.397699,33.334292],[44.3975145,33.334158],[44.3974765,33.3341599],[44.3972445,33.3344055],[44.3970611,33.3346191],[44.3970576,33.3346428],[44.397024,33.3346583],[44.3970147,33.334689],[44.3968698,33.334833],[44.3968659,33.3348569],[44.3963724,33.3354315],[44.3963601,33.3354677],[44.3960583,33.3358284],[44.3956899,33.3363264],[44.395638,33.3364227],[44.3955048,33.3365727],[44.3953466,33.3368024],[44.3952977,33.3368346],[44.3951116,33.3370909],[44.3948486,33.3373233],[44.3948433,33.3373486],[44.3947511,33.3374244],[44.3947462,33.3374497],[44.3945504,33.3376431],[44.3945577,33.3376642],[44.3947041,33.3376974],[44.3948674,33.3378392],[44.3948731,33.337883],[44.3950816,33.3381046],[44.3951573,33.3381366],[44.3951953,33.3381916],[44.3950892,33.3382645],[44.3947594,33.3379205],[44.3946438,33.3377847],[44.3946561,33.3377551],[44.3946117,33.3377269],[44.3945311,33.3377199],[44.3944322,33.3377628],[44.3941808,33.3380148],[44.3940082,33.3381519],[44.3936119,33.3385465],[44.3936558,33.3385984],[44.3936267,33.3386264],[44.3936404,33.3386796],[44.3935917,33.3387203],[44.3936141,33.3387413],[44.3936131,33.3387977],[44.3935267,33.3387653],[44.3935577,33.338733],[44.3935403,33.3387123],[44.3934578,33.3387683],[44.3933902,33.3387791],[44.3933218,33.3388151],[44.3926457,33.3394775],[44.392423,33.3396666],[44.3922602,33.3398511],[44.3922918,33.3399043],[44.3922773,33.3399291],[44.3922603,33.3399419],[44.3922105,33.3399115],[44.3921284,33.339966],[44.3920761,33.3400388],[44.3917589,33.3403409],[44.3915976,33.3405316],[44.3912243,33.3408997],[44.3910381,33.3411209],[44.3910401,33.3411696],[44.391108,33.3412626],[44.3910212,33.341335],[44.3897877,33.3402012]]]}}