{"type": "FeatureCollection", "features": [{"type": "Feature", "properties": {"name": "جامع امام طه", "name_en": null, "kind": "place_of_worship", "osm": "node/4726139089"}, "geometry": {"type": "Point", "coordinates": [44.3918751, 33.3416784]}}, {"type": "Feature", "properties": {"name": "جامع سعد بن ابي وقاص", "name_en": null, "kind": "place_of_worship", "osm": "node/4746745521"}, "geometry": {"type": "Point", "coordinates": [44.385178, 33.3300082]}}, {"type": "Feature", "properties": {"name": "جامع الفضل الكبير", "name_en": "AL - Fadhil Al kabeer", "kind": "place_of_worship", "osm": "node/6533978116"}, "geometry": {"type": "Point", "coordinates": [44.3914757, 33.3468414]}}, {"type": "Feature", "properties": {"name": "كنيسة مسكنتة", "name_en": null, "kind": "place_of_worship", "osm": "node/7738253191"}, "geometry": {"type": "Point", "coordinates": [44.3868223, 33.3464012]}}, {"type": "Feature", "properties": {"name": "جامع المصلوب", "name_en": null, "kind": "place_of_worship", "osm": "node/8156412018"}, "geometry": {"type": "Point", "coordinates": [44.4006214, 33.3374918]}}, {"type": "Feature", "properties": {"name": "مرقد الحاخام إسحاق جاؤون", "name_en": null, "kind": "place_of_worship", "osm": "node/8676636567"}, "geometry": {"type": "Point", "coordinates": [44.3962634, 33.3425684]}}, {"type": "Feature", "properties": {"name": "بيوت اساتذة مدرسة الاليانس اليهودية", "name_en": null, "kind": "district", "osm": "node/8676636568"}, "geometry": {"type": "Point", "coordinates": [44.3945287, 33.3426454]}}, {"type": "Feature", "properties": {"name": "مسجد ملا الحديثى", "name_en": null, "kind": "place_of_worship", "osm": "node/8873002317"}, "geometry": {"type": "Point", "coordinates": [44.3912263, 33.3404363]}}, {"type": "Feature", "properties": {"name": "ضريح قنبر علي", "name_en": null, "kind": "place_of_worship", "osm": "node/9892221818"}, "geometry": {"type": "Point", "coordinates": [44.3948849, 33.3441525]}}, {"type": "Feature", "properties": {"name": "LASER CNC", "name_en": null, "kind": "place_of_worship", "osm": "node/9915403617"}, "geometry": {"type": "Point", "coordinates": [44.3985086, 33.3466994]}}, {"type": "Feature", "properties": {"name": "جامع عثمان أفندي", "name_en": null, "kind": "place_of_worship", "osm": "node/11097447481"}, "geometry": {"type": "Point", "coordinates": [44.3887742, 33.3401003]}}, {"type": "Feature", "properties": {"name": "كنيس إلياهو", "name_en": "Eliyahu Synagogue", "kind": "place_of_worship", "osm": "node/11633675637"}, "geometry": {"type": "Point", "coordinates": [44.4005196, 33.3415007]}}, {"type": "Feature", "properties": {"name": "جامع حنان", "name_en": null, "kind": "place_of_worship", "osm": "node/13571958401"}, "geometry": {"type": "Point", "coordinates": [44.3862336, 33.3368436]}}, {"type": "Feature", "properties": {"name": "طريق الى العلاوي", "name_en": null, "kind": "monument", "osm": "node/13608385801"}, "geometry": {"type": "Point", "coordinates": [44.3848598, 33.3346572]}}, {"type": "Feature", "properties": {"name": "مبنى القشلة", "name_en": null, "kind": "archaeological_site", "osm": "way/82995057"}, "geometry": {"type": "Polygon", "coordinates": [[[44.3873461, 33.3398929], [44.3874475, 33.3397822], [44.3875433, 33.3398467], [44.3877294, 33.3399723], [44.3879518, 33.3401217], [44.3876943, 33.3403933], [44.386667, 33.3414765], [44.3865982, 33.3414066], [44.3866264, 33.3413909], [44.3865582, 33.3413239], [44.3867642, 33.3411071], [44.3871732, 33.3406767], [44.3875755, 33.3402533], [44.3876953, 33.3401273], [44.3873461, 33.3398929]]]}}, {"type": "Feature", "properties": {"name": "جامع الملك غازي", "name_en": "King Gasi Mosque", "kind": "archaeological_site", "osm": "way/83197031"}, "geometry": {"type": "Polygon", "coordinates": [[[44.386504, 33.3419195], [44.3869437, 33.3417614], [44.3867993, 33.3415611], [44.3864017, 33.3417101], [44.386504, 33.3419195]]]}}, {"type": "Feature", "properties": {"name": "السوق العربي", "name_en": "Arab Market", "kind": "marketplace", "osm": "way/83204465"}, "geometry": {"type": "Polygon", "coordinates": [[[44.3954884, 33.3392773], [44.3956025, 33.3392016], [44.3957604, 33.339097], [44.3958653, 33.3390276], [44.3955611, 33.3387071], [44.3952356, 33.3383643], [44.3949175, 33.3380292], [44.3946225, 33.3377184], [44.3945127, 33.3377912], [44.39435, 33.3378989], [44.3942456, 33.3379681], [44.3945439, 33.3382824], [44.394864, 33.3386195], [44.3951843, 33.3389569], [44.3954884, 33.3392773]]]}}, {"type": "Feature", "properties": {"name": "شبكة الاعلام العراقي", "name_en": null, "kind": "office", "osm": "way/443234223"}, "geometry": {"type": "Polygon", "coordinates": [[[44.3930294, 33.3282819], [44.3926726, 33.3280644], [44.3924482, 33.3283213], [44.392805, 33.3285389], [44.3930294, 33.3282819]]]}}, {"type": "Feature", "properties": {"name": "كنيسة السيدة العذراء للاباء الكرملين", "name_en": "Blessed Virgin Mary Church", "kind": "place_of_worship", "osm": "way/828975633"}, "geometry": {"type": "Polygon", "coordinates": [[[44.3963958, 33.3392256], [44.3968008, 33.3389074], [44.3966686, 33.3388093], [44.396391, 33.3386034], [44.3963112, 33.3385672], [44.3961564, 33.3385029], [44.3958926, 33.3387518], [44.3963958, 33.3392256]]]}}, {"type": "Feature", "properties": {"name": "كنيسة القديسة مريم العذراء", "name_en": "Blessed Virgin Mary Church", "kind": "place_of_worship", "osm": "way/860339409"}, "geometry": {"type": "Polygon", "coordinates": [[[44.3866067, 33.3460547], [44.3866373, 33.3460595], [44.3868155, 33.3459587], [44.3864324, 33.3454883], [44.3862408, 33.3455799], [44.3861006, 33.3457401], [44.3866067, 33.3460547]]]}}, {"type": "Feature", "properties": {"name": "قاعة الملك فيصل الثاني", "name_en": "King Faisal II Hall", "kind": "theatre", "osm": "way/885010408"}, "geometry": {"type": "Polygon", "coordinates": [[[44.3829884, 33.3466697], [44.3830145, 33.3466548], [44.3830501, 33.3466342], [44.3830802, 33.3466262], [44.383124, 33.3466262], [44.3831762, 33.3465807], [44.382805, 33.3462853], [44.3827379, 33.3463551], [44.382705, 33.3463357], [44.3825859, 33.3465152], [44.3826448, 33.3465518], [44.3829884, 33.3466697]]]}}, {"type": "Feature", "properties": {"name": "جامع الاحمدية", "name_en": null, "kind": "place_of_worship", "osm": "way/888025718"}, "geometry": {"type": "Polygon", "coordinates": [[[44.3858631, 33.343414], [44.3860233, 33.3435711], [44.3859385, 33.3436315], [44.3859233, 33.3436166], [44.3858414, 33.3436749], [44.3858587, 33.3436919], [44.3857679, 33.3437565], [44.3856056, 33.3435972], [44.3858631, 33.343414]]]}}, {"type": "Feature", "properties": {"name": "مقهى الدليمي التراثي", "name_en": null, "kind": "restaurant", "osm": "way/888025721"}, "geometry": {"type": "Polygon", "coordinates": [[[44.3851725, 33.3447601], [44.3850574, 33.3446245], [44.3849298, 33.3447172], [44.3849825, 33.3447462], [44.3850116, 33.3447288], [44.3851136, 33.3448104], [44.3851294, 33.344797], [44.3851725, 33.3447601]]]}}, {"type": "Feature", "properties": {"name": "مديرية ادارة الضباط", "name_en": null, "kind": "yes", "osm": "way/888025724"}, "geometry": {"type": "Polygon", "coordinates": [[[44.3840939, 33.3438525], [44.384021, 33.3439011], [44.384192, 33.34408], [44.3842206, 33.3440822], [44.3844303, 33.3439423], [44.384373, 33.3438824], [44.384447, 33.3438331], [44.3843181, 33.3436983], [44.3842837, 33.3437213], [44.384246, 33.3436818], [44.3840534, 33.3438102], [44.3840939, 33.3438525]]]}}, {"type": "Feature", "properties": {"name": "قسم حسابات وتدقيق فرقة 11", "name_en": null, "kind": "yes", "osm": "way/888025726"}, "geometry": {"type": "Polygon", "coordinates": [[[44.3838599, 33.3442298], [44.3839176, 33.3442908], [44.3841327, 33.3441489], [44.3841354, 33.3441251], [44.383969, 33.3439492], [44.3838971, 33.3439967], [44.3838385, 33.3439347], [44.3836764, 33.3440416], [44.3837037, 33.3440705], [44.3836562, 33.3441018], [44.3838089, 33.3442634], [44.3838599, 33.3442298]]]}}, {"type": "Feature", "properties": {"name": "دائرة الميرة", "name_en": null, "kind": "yes", "osm": "way/888025728"}, "geometry": {"type": "Polygon", "coordinates": [[[44.3825554, 33.3435437], [44.3826587, 33.3436526], [44.3827549, 33.3435888], [44.3830418, 33.3438912], [44.38306, 33.3438791], [44.3831627, 33.3439874], [44.3829986, 33.344096], [44.3826882, 33.3437687], [44.3826129, 33.3438186], [44.3824306, 33.3436263], [44.3825554, 33.3435437]]]}}, {"type": "Feature", "properties": {"name": "رئاسة اركان الجيش", "name_en": null, "kind": "yes", "osm": "way/888025731"}, "geometry": {"type": "Polygon", "coordinates": [[[44.3822972, 33.3432293], [44.382392, 33.3433224], [44.3821735, 33.3434776], [44.382258, 33.3435606], [44.382272, 33.3435945], [44.3822596, 33.3436115], [44.3821831, 33.3436571], [44.3821472, 33.3436453], [44.382071, 33.3435632], [44.3818874, 33.343682], [44.3818639, 33.3436566], [44.3817946, 33.3437014], [44.3818071, 33.3437353], [44.3817327, 33.3437881], [44.3817886, 33.3438431], [44.3815376, 33.3440212], [44.3814919, 33.3439762], [44.3814008, 33.3440409], [44.3813687, 33.3440093], [44.381322, 33.3440425], [44.3813483, 33.3440683], [44.3811672, 33.344197], [44.3812345, 33.3442632], [44.3812329, 33.3442853], [44.3812532, 33.3442957], [44.3812501, 33.3443127], [44.3812392, 33.3443296], [44.3811688, 33.3443669], [44.3811407, 33.3443669], [44.3810375, 33.3442624], [44.3808269, 33.3444076], [44.3807465, 33.3443262], [44.3808428, 33.3442599], [44.3808199, 33.3442368], [44.3808711, 33.3442013], [44.3808937, 33.344224], [44.3809547, 33.3441816], [44.3809214, 33.3441482], [44.3812289, 33.3439341], [44.3812445, 33.3439497], [44.3812835, 33.3439223], [44.3812611, 33.3439001], [44.3814041, 33.3437991], [44.3812577, 33.3436546], [44.3813968, 33.3435562], [44.3815538, 33.3437111], [44.3820637, 33.3433502], [44.3820902, 33.3433763], [44.3822972, 33.3432293]]]}}, {"type": "Feature", "properties": {"name": "مديرية الخدمات الشخصية", "name_en": null, "kind": "yes", "osm": "way/888025734"}, "geometry": {"type": "Polygon", "coordinates": [[[44.3810633, 33.344598], [44.3811684, 33.3447057], [44.3810733, 33.3447705], [44.3813652, 33.3450694], [44.3813472, 33.3450817], [44.3814518, 33.3451887], [44.381614, 33.3450781], [44.3812979, 33.3447547], [44.3813724, 33.3447039], [44.3811867, 33.3445139], [44.3810633, 33.344598]]]}}, {"type": "Feature", "properties": {"name": "مديرية ادارة المراتب", "name_en": null, "kind": "yes", "osm": "way/888025736"}, "geometry": {"type": "Polygon", "coordinates": [[[44.3821708, 33.3450213], [44.3820412, 33.3451082], [44.382118, 33.3451882], [44.381758, 33.3454298], [44.3817725, 33.3454449], [44.3816435, 33.3455314], [44.3815125, 33.345395], [44.3819023, 33.3451336], [44.3818422, 33.3450711], [44.3820711, 33.3449175], [44.3821708, 33.3450213]]]}}, {"type": "Feature", "properties": {"name": "وزارة الدفاع القديمة", "name_en": null, "kind": "yes", "osm": "way/888025737"}, "geometry": {"type": "Polygon", "coordinates": [[[44.3833877, 33.3441256], [44.3835134, 33.3442544], [44.3834243, 33.3443151], [44.3834051, 33.3442954], [44.3830594, 33.344531], [44.3829851, 33.3444549], [44.3828773, 33.3445283], [44.3828347, 33.3445217], [44.3827762, 33.3444505], [44.3827815, 33.3444261], [44.3828823, 33.3443575], [44.3829244, 33.3444006], [44.3830054, 33.3443455], [44.3830291, 33.3443698], [44.3833877, 33.3441256]]]}}, {"type": "Feature", "properties": {"name": "مديرية الاعلام والتوجيه المعنوي", "name_en": null, "kind": "yes", "osm": "way/888025740"}, "geometry": {"type": "Polygon", "coordinates": [[[44.3813853, 33.3454609], [44.3815795, 33.3456504], [44.3814799, 33.3457216], [44.3814351, 33.3456779], [44.3813441, 33.345743], [44.3813879, 33.3457857], [44.3813062, 33.3458441], [44.381113, 33.3456555], [44.3813853, 33.3454609]]]}}, {"type": "Feature", "properties": {"name": "مديرية الدروع", "name_en": null, "kind": "yes", "osm": "way/888025742"}, "geometry": {"type": "Polygon", "coordinates": [[[44.3825766, 33.3454103], [44.3825882, 33.3454217], [44.3826758, 33.3455071], [44.3826874, 33.3455185], [44.3823464, 33.345762], [44.3822356, 33.3456537], [44.3825766, 33.3454103]]]}}, {"type": "Feature", "properties": {"name": "جامع الأزبك", "name_en": "Uzbek Mosque", "kind": "place_of_worship", "osm": "way/888025743"}, "geometry": {"type": "Polygon", "coordinates": [[[44.3833406, 33.3462633], [44.3834416, 33.3463403], [44.3833196, 33.346452], [44.3832914, 33.3464778], [44.3831903, 33.3464007], [44.3833406, 33.3462633]]]}}, {"type": "Feature", "properties": {"name": "مديرية الصنف الكيمياوي", "name_en": null, "kind": "yes", "osm": "way/888025746"}, "geometry": {"type": "Polygon", "coordinates": [[[44.3827527, 33.3456071], [44.3828478, 33.3456977], [44.382822, 33.3457167], [44.383007, 33.3458928], [44.3828827, 33.3459839], [44.3826736, 33.3457849], [44.3826539, 33.3457993], [44.3826021, 33.34575], [44.3826184, 33.345738], [44.3825991, 33.3457196], [44.3827527, 33.3456071]]]}}, {"type": "Feature", "properties": {"name": "مكتبة بيت الحكمة", "name_en": null, "kind": "library", "osm": "way/888025750"}, "geometry": {"type": "Polygon", "coordinates": [[[44.3840735, 33.3423649], [44.3839097, 33.3421484], [44.3838246, 33.3421933], [44.3839226, 33.3423229], [44.3838281, 33.3423728], [44.3837438, 33.3422614], [44.3836269, 33.3423231], [44.383711, 33.3424343], [44.3836138, 33.3424856], [44.3835223, 33.3423647], [44.3834087, 33.3424247], [44.3835661, 33.3426328], [44.3840735, 33.3423649]]]}}, {"type": "Feature", "properties": {"name": "بيت الحكمة", "name_en": null, "kind": "library", "osm": "way/888025751"}, "geometry": {"type": "Polygon", "coordinates": [[[44.3847723, 33.3418267], [44.3849049, 33.3420815], [44.3843259, 33.3422919], [44.3841869, 33.3420248], [44.384265, 33.3419965], [44.3842405, 33.3419493], [44.3846112, 33.3418147], [44.3846769, 33.3418614], [44.3847723, 33.3418267]]]}}, {"type": "Feature", "properties": {"name": "شركة سفير البغدادي للسلع المنزلية", "name_en": null, "kind": "yes", "osm": "way/888025752"}, "geometry": {"type": "Polygon", "coordinates": [[[44.3887798, 33.3452486], [44.3888079, 33.3452506], [44.389078, 33.3450465], [44.388949, 33.3449247], [44.3889207, 33.3449053], [44.3886482, 33.3451093], [44.3887798, 33.3452486]]]}}, {"type": "Feature", "properties": {"name": "متوسطة الرصافة", "name_en": null, "kind": "school", "osm": "way/888025758"}, "geometry": {"type": "Polygon", "coordinates": [[[44.3909381, 33.344258], [44.3909304, 33.3446142], [44.3908133, 33.3446303], [44.3908267, 33.3447153], [44.3910361, 33.3446736], [44.391034, 33.3445233], [44.3910306, 33.3444722], [44.3910303, 33.3442644], [44.3909381, 33.344258]]]}}, {"type": "Feature", "properties": {"name": "مطعم المتنبي", "name_en": null, "kind": "restaurant", "osm": "way/888025775"}, "geometry": {"type": "Polygon", "coordinates": [[[44.3917315, 33.3421562], [44.3918237, 33.3422522], [44.3917007, 33.3423207], [44.3916643, 33.3423349], [44.3916416, 33.3423131], [44.3916404, 33.3422047], [44.3917315, 33.3421562]]]}}, {"type": "Feature", "properties": {"name": "شركة اوتاد الطاقة", "name_en": "Awtad Energy Company", "kind": "business", "osm": "way/902166325"}, "geometry": {"type": "Polygon", "coordinates": [[[44.3973944, 33.3382024], [44.3975328, 33.3383257], [44.3974811, 33.3383662], [44.397506, 33.3383884], [44.3974313, 33.3384469], [44.397268, 33.3383015], [44.3973944, 33.3382024]]]}}, {"type": "Feature", "properties": {"name": "عمارة الضمان التجارية", "name_en": null, "kind": "yes", "osm": "way/902166330"}, "geometry": {"type": "Polygon", "coordinates": [[[44.3937556, 33.3417673], [44.3938968, 33.3418918], [44.3950377, 33.3409896], [44.3948963, 33.3408649], [44.3937556, 33.3417673]]]}}, {"type": "Feature", "properties": {"name": "عمارة حافظ القاضي", "name_en": null, "kind": "yes", "osm": "way/912160405"}, "geometry": {"type": "Polygon", "coordinates": [[[44.3974539, 33.3341557], [44.3974275, 33.3341483], [44.3973995, 33.3341586], [44.3972538, 33.3343434], [44.3973591, 33.3344065], [44.3974381, 33.3343243], [44.3975083, 33.3343683], [44.3976189, 33.3342671], [44.3974539, 33.3341557]]]}}, {"type": "Feature", "properties": {"name": "بيت لنج", "name_en": null, "kind": "yes", "osm": "way/912160417"}, "geometry": {"type": "Polygon", "coordinates": [[[44.3964493, 33.3351924], [44.3966404, 33.3349491], [44.3962831, 33.3346173], [44.3961487, 33.3347467], [44.3964214, 33.3349445], [44.3963514, 33.3350118], [44.396386, 33.3350369], [44.3963095, 33.3351106], [44.3964493, 33.3351924]]]}}, {"type": "Feature", "properties": {"name": "فندق المنصور ميليا", "name_en": null, "kind": "hotel", "osm": "way/914521599"}, "geometry": {"type": "Polygon", "coordinates": [[[44.3961486, 33.3277297], [44.3966979, 33.3281468], [44.3966935, 33.32817], [44.3967299, 33.3281748], [44.3967145, 33.3282562], [44.3966684, 33.3282994], [44.3965706, 33.3283256], [44.3965706, 33.3283025], [44.3965485, 33.3283025], [44.3959821, 33.3278709], [44.3959858, 33.3277846], [44.3960264, 33.327746], [44.3961486, 33.3277297]]]}}, {"type": "Feature", "properties": {"name": "وزارة الصحة والبيئة", "name_en": null, "kind": "office", "osm": "way/926018430"}, "geometry": {"type": "Polygon", "coordinates": [[[44.3814399, 33.3476406], [44.3815721, 33.3474877], [44.3814483, 33.3474129], [44.3812222, 33.3472766], [44.3813064, 33.3471792], [44.3813441, 33.3472019], [44.3814607, 33.347067], [44.3809545, 33.3467616], [44.3809099, 33.3468131], [44.3808923, 33.3468025], [44.3809366, 33.3467512], [44.3808632, 33.3467069], [44.3807524, 33.3468352], [44.3808239, 33.3468783], [44.3808681, 33.3468271], [44.3808881, 33.3468392], [44.380841, 33.3468937], [44.3810511, 33.3470204], [44.3810218, 33.3470543], [44.3809589, 33.3470164], [44.3807691, 33.347236], [44.3812988, 33.3475555], [44.3814399, 33.3476406]]]}}, {"type": "Feature", "properties": {"name": "الجمعية العراقية للطوابع والمسكوكات", "name_en": null, "kind": "yes", "osm": "way/928718068"}, "geometry": {"type": "Polygon", "coordinates": [[[44.3853472, 33.3432718], [44.3853116, 33.3432312], [44.3853779, 33.3431939], [44.3853288, 33.3431236], [44.3851744, 33.3432168], [44.385184, 33.3432637], [44.3852566, 33.3433192], [44.3852976, 33.3432771], [44.3853147, 33.3432959], [44.3853472, 33.3432718]]]}}, {"type": "Feature", "properties": {"name": "حمام الباشا التاريخي", "name_en": null, "kind": "building", "osm": "way/928718069"}, "geometry": {"type": "Polygon", "coordinates": [[[44.3853853, 33.3431491], [44.3854316, 33.3432233], [44.3854558, 33.343234], [44.3855276, 33.3431631], [44.3855431, 33.3431478], [44.3854804, 33.3431009], [44.3854467, 33.3430756], [44.3854029, 33.343128], [44.3853853, 33.3431491]]]}}, {"type": "Feature", "properties": {"name": "بناية خزينة الدولة", "name_en": null, "kind": "yes", "osm": "way/928718094"}, "geometry": {"type": "Polygon", "coordinates": [[[44.3859479, 33.3427304], [44.3859894, 33.3427867], [44.3861063, 33.3429453], [44.3862467, 33.342873], [44.3861379, 33.3427255], [44.3860069, 33.3425431], [44.3859699, 33.3424977], [44.3858296, 33.34257], [44.3859479, 33.3427304]]]}}, {"type": "Feature", "properties": {"name": "سوق هرج", "name_en": null, "kind": "yes", "osm": "way/928718099"}, "geometry": {"type": "Polygon", "coordinates": [[[44.3859472, 33.343101], [44.3860347, 33.3431455], [44.3859625, 33.3432706], [44.3859374, 33.3432592], [44.3858498, 33.3432194], [44.3858705, 33.3431922], [44.385899, 33.3432041], [44.3859301, 33.3432171], [44.3859481, 33.3431839], [44.3859212, 33.3431679], [44.3859012, 33.3431561], [44.3859472, 33.343101]]]}}, {"type": "Feature", "properties": {"name": "التكية البكداشية", "name_en": null, "kind": "place_of_worship", "osm": "way/928718122"}, "geometry": {"type": "Polygon", "coordinates": [[[44.3860429, 33.3430051], [44.386122, 33.3430452], [44.3860632, 33.3431122], [44.3860347, 33.3431455], [44.3859472, 33.343101], [44.3859788, 33.3430453], [44.3859057, 33.3430174], [44.3857785, 33.3432246], [44.3857258, 33.3431367], [44.3857098, 33.3430446], [44.3857092, 33.3429497], [44.3858189, 33.342841], [44.3858494, 33.3428685], [44.3858399, 33.3428778], [44.3860429, 33.3430051]]]}}, {"type": "Feature", "properties": {"name": "متصرفية لواء بغداد", "name_en": "Mutasarfiya Baghdad", "kind": "ruins", "osm": "way/928718255"}, "geometry": {"type": "Polygon", "coordinates": [[[44.3875492, 33.3407467], [44.3876015, 33.3407824], [44.3877449, 33.3408834], [44.3877137, 33.3409109], [44.3877022, 33.340918], [44.3878805, 33.3411102], [44.3880495, 33.3409928], [44.3880398, 33.3409752], [44.3878782, 33.3406677], [44.3878899, 33.3406557], [44.3877864, 33.340585], [44.3877795, 33.340592], [44.3877322, 33.3405597], [44.3875492, 33.3407467]]]}}, {"type": "Feature", "properties": {"name": "مقهى الشابندر", "name_en": "Shabandar Cafe", "kind": "cafe", "osm": "way/928718264"}, "geometry": {"type": "Polygon", "coordinates": [[[44.3882003, 33.3403571], [44.3880539, 33.340233], [44.3880238, 33.3402285], [44.3879984, 33.3402364], [44.3879211, 33.3403132], [44.3880719, 33.340461], [44.3882003, 33.3403571]]]}}, {"type": "Feature", "properties": {"name": "مطبعة الميناء", "name_en": null, "kind": "copyshop", "osm": "way/928718382"}, "geometry": {"type": "Polygon", "coordinates": [[[44.3891731, 33.3414409], [44.3892514, 33.3414809], [44.3893058, 33.3415086], [44.3893299, 33.3414393], [44.3891677, 33.3412818], [44.3891256, 33.3413191], [44.3891752, 33.3413827], [44.3891731, 33.3414409]]]}}, {"type": "Feature", "properties": {"name": "جامع الوزير", "name_en": null, "kind": "place_of_worship", "osm": "way/928718449"}, "geometry": {"type": "Polygon", "coordinates": [[[44.3884135, 33.3392707], [44.3885246, 33.3393991], [44.3887274, 33.3392767], [44.3886498, 33.3391875], [44.3886207, 33.3391535], [44.3886148, 33.3391466], [44.3884135, 33.3392707]]]}}, {"type": "Feature", "properties": {"name": "المدرسة الآصفية", "name_en": null, "kind": "school", "osm": "way/928718453"}, "geometry": {"type": "Polygon", "coordinates": [[[44.3889829, 33.338907], [44.3891105, 33.3388142], [44.389211, 33.338741], [44.3894638, 33.3389835], [44.3894223, 33.3390138], [44.3893775, 33.3390463], [44.3893326, 33.3390033], [44.389213, 33.3390903], [44.3893195, 33.3391924], [44.3892972, 33.3392086], [44.3889829, 33.338907]]]}}, {"type": "Feature", "properties": {"name": "الاعدادية المركزية للبنين", "name_en": null, "kind": "yes", "osm": "way/928718487"}, "geometry": {"type": "Polygon", "coordinates": [[[44.3850793, 33.3428006], [44.3849331, 33.3426972], [44.3848982, 33.3427378], [44.3848708, 33.3427124], [44.3845986, 33.3429809], [44.3845767, 33.3429677], [44.3845484, 33.3430003], [44.3847309, 33.3431302], [44.3846583, 33.3432022], [44.3845831, 33.3431568], [44.3845661, 33.3431699], [44.3845107, 33.343129], [44.384531, 33.3431112], [44.3844734, 33.3430668], [44.3844992, 33.3430364], [44.3844229, 33.3429963], [44.3844567, 33.3429566], [44.3843906, 33.3429102], [44.3844673, 33.3428387], [44.3843219, 33.3427269], [44.3843468, 33.3426895], [44.3842846, 33.3426273], [44.384258, 33.3425563], [44.3843287, 33.3424769], [44.3845164, 33.342602], [44.3844406, 33.3426895], [44.3846174, 33.342804], [44.3848249, 33.3426201], [44.3846211, 33.3424408], [44.3847113, 33.3423807], [44.3846097, 33.3423061], [44.3850837, 33.3421024], [44.3851787, 33.3422058], [44.3849964, 33.3423475], [44.3849657, 33.3423234], [44.3847961, 33.3424606], [44.384845, 33.3424881], [44.3849259, 33.3424262], [44.3850426, 33.3425113], [44.385066, 33.3424951], [44.3850962, 33.342522], [44.3851112, 33.3425129], [44.3851423, 33.3425352], [44.3851562, 33.3425216], [44.385296, 33.3426239], [44.3852147, 33.3426911], [44.3850469, 33.3425344], [44.3849257, 33.3426285], [44.384948, 33.3426407], [44.3849857, 33.3426022], [44.3851607, 33.3427325], [44.3850793, 33.3428006]]]}}, {"type": "Feature", "properties": {"name": "مسجد نجيب السهروردي", "name_en": null, "kind": "place_of_worship", "osm": "way/928718488"}, "geometry": {"type": "Polygon", "coordinates": [[[44.3851058, 33.3424884], [44.3852292, 33.3423881], [44.3851111, 33.3422839], [44.3849877, 33.3423842], [44.3851058, 33.3424884]]]}}, {"type": "Feature", "properties": {"name": "قصر الوالي العثماني", "name_en": null, "kind": "yes", "osm": "way/928718491"}, "geometry": {"type": "Polygon", "coordinates": [[[44.3860219, 33.3413439], [44.3857492, 33.341545], [44.385778, 33.3415722], [44.3857412, 33.3415993], [44.3858706, 33.3417219], [44.3860658, 33.341578], [44.3861295, 33.3416383], [44.3862438, 33.341554], [44.3860219, 33.3413439]]]}}, {"type": "Feature", "properties": {"name": "مبنى مديرية الشرطة سابقاً", "name_en": null, "kind": "yes", "osm": "way/928718492"}, "geometry": {"type": "Polygon", "coordinates": [[[44.3853479, 33.3416548], [44.385514, 33.3415448], [44.3858658, 33.3418794], [44.385358, 33.3422515], [44.3851258, 33.342055], [44.3854657, 33.3417901], [44.3853479, 33.3416548]]]}}, {"type": "Feature", "properties": {"name": "جامع العاقولي", "name_en": null, "kind": "place_of_worship", "osm": "way/928854003"}, "geometry": {"type": "Polygon", "coordinates": [[[44.3913266, 33.3423522], [44.3913964, 33.342483], [44.391324, 33.3425121], [44.3910095, 33.3426434], [44.3909556, 33.3425188], [44.3910781, 33.3424638], [44.3912007, 33.3424087], [44.3913266, 33.3423522]]]}}, {"type": "Feature", "properties": {"name": "متوسطة الرشيد", "name_en": null, "kind": "school", "osm": "way/928854007"}, "geometry": {"type": "Polygon", "coordinates": [[[44.3911408, 33.3426634], [44.3911188, 33.3426298], [44.3913402, 33.3425436], [44.391324, 33.3425121], [44.3913964, 33.342483], [44.391464, 33.3426121], [44.3911719, 33.3427255], [44.3911408, 33.3426634]]]}}, {"type": "Feature", "properties": {"name": "متوسطة الابطال للبنين", "name_en": null, "kind": "school", "osm": "way/928854009"}, "geometry": {"type": "Polygon", "coordinates": [[[44.3912013, 33.3427991], [44.3912914, 33.3427642], [44.3913612, 33.3429067], [44.3912839, 33.3429371], [44.391329, 33.343016], [44.3914766, 33.3429658], [44.391608, 33.3428988], [44.391464, 33.3426121], [44.3911719, 33.3427255], [44.3912013, 33.3427991]]]}}, {"type": "Feature", "properties": {"name": "مجمع الرصافي", "name_en": null, "kind": "commercial", "osm": "way/928854062"}, "geometry": {"type": "Polygon", "coordinates": [[[44.3913418, 33.3420156], [44.3913671, 33.3420839], [44.3913919, 33.3421509], [44.3916776, 33.3420768], [44.391573, 33.3419621], [44.3913418, 33.3420156]]]}}, {"type": "Feature", "properties": {"name": "جامع الجيبه جي", "name_en": null, "kind": "place_of_worship", "osm": "way/928854093"}, "geometry": {"type": "Polygon", "coordinates": [[[44.3871671, 33.3441091], [44.3871388, 33.3440688], [44.3871219, 33.3440447], [44.3871365, 33.3440395], [44.3871682, 33.344028], [44.3872016, 33.344016], [44.3872214, 33.3440074], [44.3872635, 33.3440668], [44.3872272, 33.3440943], [44.3872182, 33.3440863], [44.3872071, 33.3440977], [44.3872009, 33.3440906], [44.3871671, 33.3441091]]]}}, {"type": "Feature", "properties": {"name": "مكتبة الرشيد", "name_en": null, "kind": "library", "osm": "way/928854105"}, "geometry": {"type": "Polygon", "coordinates": [[[44.3878157, 33.3435488], [44.3877616, 33.3434835], [44.3879781, 33.3433807], [44.388031, 33.3434363], [44.3878157, 33.3435488]]]}}, {"type": "Feature", "properties": {"name": "متجر سلع منزلية", "name_en": null, "kind": "commercial", "osm": "way/928854107"}, "geometry": {"type": "Polygon", "coordinates": [[[44.3876388, 33.3436563], [44.3875857, 33.3436899], [44.3875652, 33.3436721], [44.3875075, 33.3437063], [44.3875159, 33.3437215], [44.3874517, 33.3437621], [44.3873763, 33.3436912], [44.3875878, 33.3435752], [44.3876388, 33.3436563]]]}}, {"type": "Feature", "properties": {"name": "جامع النخيلة", "name_en": null, "kind": "place_of_worship", "osm": "way/928854122"}, "geometry": {"type": "Polygon", "coordinates": [[[44.3881377, 33.3443849], [44.388055, 33.3444438], [44.3881119, 33.3444958], [44.3881976, 33.344428], [44.3881377, 33.3443849]]]}}, {"type": "Feature", "properties": {"name": "مركز شرطة باب المعظم", "name_en": null, "kind": "yes", "osm": "way/928854190"}, "geometry": {"type": "Polygon", "coordinates": [[[44.3860663, 33.3450046], [44.386047, 33.3450196], [44.3861371, 33.3451236], [44.386077, 33.3451585], [44.3860481, 33.3451236], [44.3860373, 33.345128], [44.3860609, 33.3451666], [44.3859558, 33.345232], [44.3858163, 33.3450635], [44.3859333, 33.345007], [44.385958, 33.3450339], [44.3859708, 33.3450232], [44.3859065, 33.3449192], [44.3859912, 33.344869], [44.3860371, 33.3449211], [44.3860054, 33.3449359], [44.3860663, 33.3450046]]]}}, {"type": "Feature", "properties": {"name": "جامع المرادية", "name_en": null, "kind": "place_of_worship", "osm": "way/928854221"}, "geometry": {"type": "Polygon", "coordinates": [[[44.3845531, 33.3453281], [44.3846195, 33.3455263], [44.3846936, 33.3456034], [44.3848112, 33.3455628], [44.3847734, 33.3454913], [44.3847449, 33.3454267], [44.3849776, 33.3453635], [44.3849009, 33.3451796], [44.3848463, 33.3451927], [44.3848015, 33.3452035], [44.3845531, 33.3453281]]]}}, {"type": "Feature", "properties": {"name": "مقهى باب المعظم", "name_en": null, "kind": "restaurant", "osm": "way/928871579"}, "geometry": {"type": "Polygon", "coordinates": [[[44.3835938, 33.3472172], [44.3836689, 33.3471643], [44.3837643, 33.3472773], [44.3835957, 33.3473765], [44.3835277, 33.3472859], [44.383612, 33.3472396], [44.3835938, 33.3472172]]]}}, {"type": "Feature", "properties": {"name": "وزارة الاوقاف", "name_en": null, "kind": "yes", "osm": "way/928871580"}, "geometry": {"type": "Polygon", "coordinates": [[[44.3838343, 33.3472792], [44.3836261, 33.3474002], [44.3837424, 33.3475718], [44.3839791, 33.3474199], [44.3838343, 33.3472792]]]}}, {"type": "Feature", "properties": {"name": "ارض الطابعات", "name_en": null, "kind": "yes", "osm": "way/928871611"}, "geometry": {"type": "Polygon", "coordinates": [[[44.384937, 33.3482645], [44.3851698, 33.3481121], [44.3850464, 33.3479974], [44.38482, 33.3481444], [44.384937, 33.3482645]]]}}, {"type": "Feature", "properties": {"name": "جامع منورة خاتون", "name_en": null, "kind": "place_of_worship", "osm": "way/928871824"}, "geometry": {"type": "Polygon", "coordinates": [[[44.3914404, 33.3441675], [44.3914557, 33.3442806], [44.3913087, 33.3442874], [44.3912993, 33.3441821], [44.3914404, 33.3441675]]]}}, {"type": "Feature", "properties": {"name": "الحمام المالح", "name_en": null, "kind": "building", "osm": "way/928871884"}, "geometry": {"type": "Polygon", "coordinates": [[[44.3918287, 33.3449554], [44.391894, 33.3451146], [44.391937, 33.3451006], [44.3919544, 33.345095], [44.3919409, 33.3450709], [44.3920148, 33.3450543], [44.3920248, 33.3450875], [44.3921457, 33.3450452], [44.3921402, 33.3450227], [44.3921258, 33.3449796], [44.3920987, 33.3449179], [44.3919319, 33.3449492], [44.3919235, 33.3449264], [44.3918945, 33.3449334], [44.3918977, 33.3449409], [44.3918287, 33.3449554]]]}}, {"type": "Feature", "properties": {"name": "مدرسة الكفاح", "name_en": null, "kind": "school", "osm": "way/928878186"}, "geometry": {"type": "Polygon", "coordinates": [[[44.3922361, 33.3452651], [44.3922272, 33.3451842], [44.3918549, 33.3452245], [44.3918238, 33.3451268], [44.3918774, 33.3451143], [44.391901, 33.3451644], [44.3919568, 33.3451465], [44.391937, 33.3451006], [44.3920248, 33.3450875], [44.3921457, 33.3450452], [44.3922454, 33.3450291], [44.3922474, 33.3450383], [44.3922563, 33.345098], [44.3923153, 33.3450809], [44.3923316, 33.3451495], [44.3923463, 33.345229], [44.3923484, 33.3452577], [44.3922881, 33.3452613], [44.3922361, 33.3452651]]]}}, {"type": "Feature", "properties": {"name": "مدرسة الهيثمية الابتدائية للبنين", "name_en": null, "kind": "school", "osm": "way/928893001"}, "geometry": {"type": "Polygon", "coordinates": [[[44.3916997, 33.3449702], [44.3914426, 33.3450361], [44.3914576, 33.3450909], [44.3914941, 33.3452243], [44.3915435, 33.3452237], [44.3915594, 33.3452839], [44.3915918, 33.3452759], [44.3917179, 33.3452452], [44.3917195, 33.3452591], [44.3917627, 33.3452401], [44.3917392, 33.3451793], [44.3917741, 33.3451672], [44.3916997, 33.3449702]]]}}, {"type": "Feature", "properties": {"name": "جامع الفضل", "name_en": null, "kind": "place_of_worship", "osm": "way/928893196"}, "geometry": {"type": "Polygon", "coordinates": [[[44.3911224, 33.3464742], [44.3912198, 33.3466144], [44.3909293, 33.3467606], [44.3908565, 33.3466098], [44.3911224, 33.3464742]]]}}, {"type": "Feature", "properties": {"name": "مأكولات ابو زهراء", "name_en": null, "kind": "restaurant", "osm": "way/928903653"}, "geometry": {"type": "Polygon", "coordinates": [[[44.3907612, 33.3471616], [44.3908114, 33.3471427], [44.390919, 33.3472031], [44.3908718, 33.3472436], [44.3908399, 33.3472165], [44.3908042, 33.3472293], [44.3907612, 33.3471616]]]}}, {"type": "Feature", "properties": {"name": "حمادة بورك", "name_en": null, "kind": "restaurant", "osm": "way/928903656"}, "geometry": {"type": "Polygon", "coordinates": [[[44.3910427, 33.3471376], [44.3911916, 33.3470344], [44.3911875, 33.3470285], [44.391065, 33.3468516], [44.3909663, 33.3468874], [44.3909913, 33.3469492], [44.3910427, 33.3471376]]]}}, {"type": "Feature", "properties": {"name": "محلات بلال", "name_en": null, "kind": "yes", "osm": "way/928903657"}, "geometry": {"type": "Polygon", "coordinates": [[[44.3911875, 33.3470285], [44.3915242, 33.3468103], [44.3914916, 33.3467987], [44.3914212, 33.3467736], [44.391124, 33.3469287], [44.3911875, 33.3470285]]]}}, {"type": "Feature", "properties": {"name": "اسواق هادي", "name_en": null, "kind": "convenience", "osm": "way/928917043"}, "geometry": {"type": "Polygon", "coordinates": [[[44.3883569, 33.3468906], [44.388338, 33.3468836], [44.3883714, 33.3468202], [44.3885042, 33.3468671], [44.388479, 33.3469064], [44.3884635, 33.3469307], [44.3883569, 33.3468906]]]}}, {"type": "Feature", "properties": {"name": "جامع المصرف", "name_en": null, "kind": "place_of_worship", "osm": "way/928917095"}, "geometry": {"type": "Polygon", "coordinates": [[[44.3880518, 33.3471254], [44.3879927, 33.3471003], [44.3878754, 33.3471945], [44.3879052, 33.3472216], [44.3880026, 33.3471462], [44.3880312, 33.3471536], [44.3880518, 33.3471254]]]}}, {"type": "Feature", "properties": {"name": "مجمع عمو بابا الرياضي", "name_en": null, "kind": "sports", "osm": "way/936379190"}, "geometry": {"type": "Polygon", "coordinates": [[[44.396896, 33.3337094], [44.3964472, 33.3333861], [44.3966178, 33.3332208], [44.3970666, 33.3335441], [44.396896, 33.3337094]]]}}, {"type": "Feature", "properties": {"name": "مكان اقامة ساسون حسقيل", "name_en": null, "kind": "memorial", "osm": "way/936379191"}, "geometry": {"type": "Polygon", "coordinates": [[[44.3966381, 33.3339775], [44.3968303, 33.3337777], [44.3963785, 33.3334494], [44.3962027, 33.3336183], [44.3966381, 33.3339775]]]}}, {"type": "Feature", "properties": {"name": "غرفة تجارة بغداد", "name_en": null, "kind": "exhibition_centre", "osm": "way/936379195"}, "geometry": {"type": "Polygon", "coordinates": [[[44.3961743, 33.3342829], [44.3958938, 33.3345115], [44.3955627, 33.3342057], [44.3958526, 33.3339652], [44.3961743, 33.3342829]]]}}, {"type": "Feature", "properties": {"name": "مركز دفاع مدني الشورجة", "name_en": "Al Shorja Fire Station", "kind": "fire_station", "osm": "way/936379198"}, "geometry": {"type": "Polygon", "coordinates": [[[44.3968008, 33.3389074], [44.396863, 33.3388598], [44.3969179, 33.3389057], [44.3971677, 33.3387062], [44.3969902, 33.3385474], [44.3966686, 33.3388093], [44.3968008, 33.3389074]]]}}, {"type": "Feature", "properties": {"name": "سينما بغداد", "name_en": null, "kind": "cinema", "osm": "way/941521542"}, "geometry": {"type": "Polygon", "coordinates": [[[44.3855778, 33.3313154], [44.385604, 33.3313609], [44.3856198, 33.3314329], [44.386087, 33.3312451], [44.3860241, 33.331136], [44.3855778, 33.3313154]]]}}, {"type": "Feature", "properties": {"name": "ديوان الرقابة المالية الاتحادي", "name_en": null, "kind": "yes", "osm": "way/941521547"}, "geometry": {"type": "Polygon", "coordinates": [[[44.385373, 33.3346859], [44.3852458, 33.3347581], [44.3853305, 33.3348623], [44.3849675, 33.3350682], [44.3851804, 33.3353302], [44.3854183, 33.3351953], [44.3853383, 33.3350968], [44.3855162, 33.334996], [44.3854583, 33.3349247], [44.3855327, 33.3348824], [44.385373, 33.3346859]]]}}, {"type": "Feature", "properties": {"name": "95", "name_en": null, "kind": "apartments", "osm": "way/943055539"}, "geometry": {"type": "Polygon", "coordinates": [[[44.3827063, 33.3355728], [44.3826587, 33.3355178], [44.3826809, 33.3355044], [44.3825864, 33.3353951], [44.3825658, 33.3354076], [44.3825195, 33.335354], [44.382574, 33.3353212], [44.3825918, 33.3353418], [44.3827, 33.3352764], [44.382683, 33.3352568], [44.382736, 33.3352248], [44.3827836, 33.3352798], [44.3827593, 33.3352945], [44.3828538, 33.3354037], [44.3828766, 33.33539], [44.3829229, 33.3354436], [44.3828684, 33.3354765], [44.3828489, 33.3354539], [44.3827406, 33.3355192], [44.3827593, 33.3355408], [44.3827063, 33.3355728]]]}}, {"type": "Feature", "properties": {"name": "93", "name_en": null, "kind": "apartments", "osm": "way/943055540"}, "geometry": {"type": "Polygon", "coordinates": [[[44.3822372, 33.3351871], [44.3821896, 33.335132], [44.3822118, 33.3351186], [44.3821173, 33.3350094], [44.3820967, 33.3350219], [44.3820504, 33.3349683], [44.3821048, 33.3349354], [44.3821226, 33.334956], [44.3822309, 33.3348907], [44.3822139, 33.3348711], [44.3822669, 33.3348391], [44.3823145, 33.3348941], [44.3822902, 33.3349087], [44.3823847, 33.335018], [44.3824075, 33.3350043], [44.3824538, 33.3350578], [44.3823993, 33.3350907], [44.3823798, 33.3350682], [44.3822715, 33.3351335], [44.3822902, 33.3351551], [44.3822372, 33.3351871]]]}}, {"type": "Feature", "properties": {"name": "85", "name_en": null, "kind": "apartments", "osm": "way/943055541"}, "geometry": {"type": "Polygon", "coordinates": [[[44.3818048, 33.3355768], [44.3817573, 33.3355218], [44.3817794, 33.3355084], [44.381685, 33.3353992], [44.3816643, 33.3354116], [44.381618, 33.3353581], [44.3816725, 33.3353252], [44.3816903, 33.3353458], [44.3817985, 33.3352805], [44.3817815, 33.3352608], [44.3818346, 33.3352288], [44.3818821, 33.3352839], [44.3818578, 33.3352985], [44.3819523, 33.3354078], [44.3819751, 33.335394], [44.3820215, 33.3354476], [44.3819669, 33.3354805], [44.3819474, 33.3354579], [44.3818392, 33.3355233], [44.3818578, 33.3355449], [44.3818048, 33.3355768]]]}}, {"type": "Feature", "properties": {"name": "91", "name_en": null, "kind": "apartments", "osm": "way/943055542"}, "geometry": {"type": "Polygon", "coordinates": [[[44.3823227, 33.3359156], [44.3822751, 33.3358606], [44.3822973, 33.3358472], [44.3822028, 33.3357379], [44.3821821, 33.3357504], [44.3821359, 33.3356969], [44.3821903, 33.335664], [44.3822081, 33.3356846], [44.3823163, 33.3356192], [44.3822994, 33.3355996], [44.3823524, 33.3355676], [44.3824, 33.3356226], [44.3823756, 33.3356373], [44.3824702, 33.3357466], [44.382493, 33.3357328], [44.3825393, 33.3357864], [44.3824848, 33.3358193], [44.3824652, 33.3357967], [44.382357, 33.3358621], [44.3823756, 33.3358836], [44.3823227, 33.3359156]]]}}, {"type": "Feature", "properties": {"name": "79", "name_en": null, "kind": "apartments", "osm": "way/943055543"}, "geometry": {"type": "Polygon", "coordinates": [[[44.38148, 33.3360074], [44.3814324, 33.3359524], [44.3814546, 33.335939], [44.3813601, 33.3358298], [44.3813394, 33.3358422], [44.3812932, 33.3357887], [44.3813476, 33.3357558], [44.3813654, 33.3357764], [44.3814736, 33.3357111], [44.3814567, 33.3356914], [44.3815097, 33.3356594], [44.3815573, 33.3357144], [44.3815329, 33.3357291], [44.3816275, 33.3358384], [44.3816503, 33.3358246], [44.3816966, 33.3358782], [44.3816421, 33.3359111], [44.3816225, 33.3358885], [44.3815143, 33.3359539], [44.3815329, 33.3359755], [44.38148, 33.3360074]]]}}, {"type": "Feature", "properties": {"name": "75", "name_en": null, "kind": "apartments", "osm": "way/943055544"}, "geometry": {"type": "Polygon", "coordinates": [[[44.3808815, 33.3361339], [44.380834, 33.3360789], [44.3808561, 33.3360655], [44.3807617, 33.3359563], [44.380741, 33.3359687], [44.3806947, 33.3359152], [44.3807492, 33.3358823], [44.380767, 33.3359029], [44.3808752, 33.3358376], [44.3808582, 33.335818], [44.3809113, 33.335786], [44.3809588, 33.335841], [44.3809345, 33.3358556], [44.381029, 33.3359649], [44.3810518, 33.3359511], [44.3810982, 33.3360047], [44.3810436, 33.3360376], [44.3810241, 33.3360151], [44.3809159, 33.3360804], [44.3809345, 33.336102], [44.3808815, 33.3361339]]]}}, {"type": "Feature", "properties": {"name": "71", "name_en": null, "kind": "apartments", "osm": "way/943055545"}, "geometry": {"type": "Polygon", "coordinates": [[[44.38031, 33.3363441], [44.3802624, 33.3362891], [44.3802846, 33.3362757], [44.3801901, 33.3361665], [44.3801694, 33.3361789], [44.3801232, 33.3361254], [44.3801776, 33.3360925], [44.3801954, 33.3361131], [44.3803036, 33.3360478], [44.3802867, 33.3360281], [44.3803397, 33.3359961], [44.3803872, 33.3360512], [44.3803629, 33.3360658], [44.3804574, 33.3361751], [44.3804803, 33.3361613], [44.3805266, 33.3362149], [44.3804721, 33.3362478], [44.3804525, 33.3362252], [44.3803443, 33.3362906], [44.3803629, 33.3363122], [44.38031, 33.3363441]]]}}, {"type": "Feature", "properties": {"name": "73", "name_en": null, "kind": "apartments", "osm": "way/943055546"}, "geometry": {"type": "Polygon", "coordinates": [[[44.3808254, 33.3366727], [44.3807778, 33.3366177], [44.3808, 33.3366043], [44.3807055, 33.336495], [44.3806848, 33.3365075], [44.3806385, 33.336454], [44.380693, 33.3364211], [44.3807108, 33.3364417], [44.380819, 33.3363763], [44.380802, 33.3363567], [44.3808551, 33.3363247], [44.3809026, 33.3363797], [44.3808783, 33.3363944], [44.3809728, 33.3365037], [44.3809956, 33.3364899], [44.381042, 33.3365435], [44.3809874, 33.3365764], [44.3809679, 33.3365538], [44.3808597, 33.3366192], [44.3808783, 33.3366407], [44.3808254, 33.3366727]]]}}, {"type": "Feature", "properties": {"name": "67", "name_en": null, "kind": "apartments", "osm": "way/943055547"}, "geometry": {"type": "Polygon", "coordinates": [[[44.3803889, 33.3370673], [44.3803414, 33.3370123], [44.3803635, 33.3369989], [44.3802691, 33.3368896], [44.3802484, 33.3369021], [44.3802021, 33.3368486], [44.3802566, 33.3368157], [44.3802744, 33.3368363], [44.3803826, 33.336771], [44.3803656, 33.3367513], [44.3804187, 33.3367193], [44.3804662, 33.3367743], [44.3804419, 33.336789], [44.3805364, 33.3368983], [44.3805592, 33.3368845], [44.3806056, 33.3369381], [44.380551, 33.336971], [44.3805315, 33.3369484], [44.3804233, 33.3370138], [44.3804419, 33.3370353], [44.3803889, 33.3370673]]]}}, {"type": "Feature", "properties": {"name": "100", "name_en": null, "kind": "apartments", "osm": "way/947082837"}, "geometry": {"type": "Polygon", "coordinates": [[[44.3879262, 33.3335437], [44.3879599, 33.333589], [44.3878992, 33.3336205], [44.3878853, 33.3336018], [44.3878511, 33.3336195], [44.3877573, 33.3334933], [44.3877954, 33.3334735], [44.3877631, 33.33343], [44.3878245, 33.3333982], [44.3878545, 33.3334385], [44.3879465, 33.3333908], [44.3879109, 33.3333429], [44.3879688, 33.3333129], [44.3879988, 33.3333531], [44.3880334, 33.3333351], [44.3881282, 33.3334626], [44.3881043, 33.333475], [44.3881418, 33.3335254], [44.3880665, 33.3335645], [44.3880163, 33.3334969], [44.3879262, 33.3335437]]]}}, {"type": "Feature", "properties": {"name": "98", "name_en": null, "kind": "apartments", "osm": "way/947082838"}, "geometry": {"type": "Polygon", "coordinates": [[[44.3874297, 33.3337777], [44.3874634, 33.333823], [44.3874027, 33.3338546], [44.3873888, 33.3338359], [44.3873546, 33.3338536], [44.3872608, 33.3337273], [44.3872989, 33.3337076], [44.3872666, 33.3336641], [44.387328, 33.3336322], [44.3873579, 33.3336725], [44.38745, 33.3336248], [44.3874144, 33.3335769], [44.3874723, 33.3335469], [44.3875022, 33.3335872], [44.3875369, 33.3335692], [44.3876316, 33.3336966], [44.3876078, 33.333709], [44.3876453, 33.3337594], [44.38757, 33.3337985], [44.3875198, 33.333731], [44.3874297, 33.3337777]]]}}, {"type": "Feature", "properties": {"name": "96", "name_en": null, "kind": "apartments", "osm": "way/947082839"}, "geometry": {"type": "Polygon", "coordinates": [[[44.3871496, 33.3339607], [44.3871833, 33.334006], [44.3871226, 33.3340375], [44.3871087, 33.3340188], [44.3870745, 33.3340365], [44.3869807, 33.3339103], [44.3870188, 33.3338905], [44.3869865, 33.333847], [44.3870479, 33.3338152], [44.3870778, 33.3338555], [44.3871699, 33.3338078], [44.3871343, 33.3337599], [44.3871922, 33.3337298], [44.3872222, 33.3337701], [44.3872568, 33.3337521], [44.3873516, 33.3338796], [44.3873277, 33.3338919], [44.3873652, 33.3339424], [44.3872899, 33.3339815], [44.3872397, 33.3339139], [44.3871496, 33.3339607]]]}}, {"type": "Feature", "properties": {"name": "102", "name_en": null, "kind": "apartments", "osm": "way/947082840"}, "geometry": {"type": "Polygon", "coordinates": [[[44.3882275, 33.333382], [44.3882612, 33.3334273], [44.3882005, 33.3334589], [44.3881866, 33.3334402], [44.3881525, 33.3334579], [44.3880586, 33.3333316], [44.3880967, 33.3333119], [44.3880644, 33.3332684], [44.3881258, 33.3332365], [44.3881558, 33.3332768], [44.3882478, 33.3332291], [44.3882122, 33.3331812], [44.3882701, 33.3331512], [44.3883001, 33.3331915], [44.3883347, 33.3331735], [44.3884295, 33.3333009], [44.3884056, 33.3333133], [44.3884431, 33.3333638], [44.3883678, 33.3334028], [44.3883176, 33.3333353], [44.3882275, 33.333382]]]}}, {"type": "Feature", "properties": {"name": "104", "name_en": null, "kind": "apartments", "osm": "way/947082841"}, "geometry": {"type": "Polygon", "coordinates": [[[44.3885348, 33.3332203], [44.3885685, 33.3332657], [44.3885077, 33.3332972], [44.3884938, 33.3332785], [44.3884597, 33.3332962], [44.3883659, 33.3331699], [44.3884039, 33.3331502], [44.3883716, 33.3331067], [44.388433, 33.3330748], [44.388463, 33.3331152], [44.388555, 33.3330674], [44.3885195, 33.3330196], [44.3885774, 33.3329895], [44.3886073, 33.3330298], [44.388642, 33.3330118], [44.3887073, 33.3330997], [44.3887367, 33.3331392], [44.3887128, 33.3331516], [44.3887504, 33.3332021], [44.3886751, 33.3332412], [44.3886248, 33.3331736], [44.3885348, 33.3332203]]]}}, {"type": "Feature", "properties": {"name": "105", "name_en": null, "kind": "apartments", "osm": "way/947082842"}, "geometry": {"type": "Polygon", "coordinates": [[[44.3866904, 33.3333916], [44.3867241, 33.3334369], [44.3866634, 33.3334684], [44.3866495, 33.3334497], [44.3866153, 33.3334674], [44.3865215, 33.3333412], [44.3865596, 33.3333214], [44.3865273, 33.3332779], [44.3865887, 33.3332461], [44.3866186, 33.3332864], [44.3867107, 33.3332387], [44.3866751, 33.3331908], [44.386733, 33.3331607], [44.386763, 33.333201], [44.3867976, 33.333183], [44.3868924, 33.3333105], [44.3868685, 33.3333229], [44.386906, 33.3333733], [44.3868307, 33.3334124], [44.3867805, 33.3333448], [44.3866904, 33.3333916]]]}}, {"type": "Feature", "properties": {"name": "107", "name_en": null, "kind": "apartments", "osm": "way/947082843"}, "geometry": {"type": "Polygon", "coordinates": [[[44.3870351, 33.3332735], [44.3870688, 33.3333188], [44.3870081, 33.3333503], [44.3869942, 33.3333316], [44.38696, 33.3333493], [44.3868662, 33.3332231], [44.3869043, 33.3332033], [44.386872, 33.3331598], [44.3869334, 33.333128], [44.3869633, 33.3331683], [44.3870554, 33.3331206], [44.3870198, 33.3330727], [44.3870777, 33.3330426], [44.3871076, 33.3330829], [44.3871423, 33.3330649], [44.387237, 33.3331924], [44.3872132, 33.3332048], [44.3872507, 33.3332552], [44.3871754, 33.3332943], [44.3871252, 33.3332267], [44.3870351, 33.3332735]]]}}, {"type": "Feature", "properties": {"name": "113", "name_en": null, "kind": "apartments", "osm": "way/947082844"}, "geometry": {"type": "Polygon", "coordinates": [[[44.3875463, 33.3329952], [44.38758, 33.3330405], [44.3875193, 33.333072], [44.3875054, 33.3330533], [44.3874712, 33.3330711], [44.3873774, 33.3329448], [44.3874155, 33.332925], [44.3873832, 33.3328815], [44.3874446, 33.3328497], [44.3874746, 33.33289], [44.3875666, 33.3328423], [44.387531, 33.3327944], [44.3875889, 33.3327644], [44.3876189, 33.3328046], [44.3876535, 33.3327866], [44.3877483, 33.3329141], [44.3877244, 33.3329265], [44.3877619, 33.3329769], [44.3876866, 33.333016], [44.3876364, 33.3329484], [44.3875463, 33.3329952]]]}}, {"type": "Feature", "properties": {"name": "115", "name_en": null, "kind": "apartments", "osm": "way/947082845"}, "geometry": {"type": "Polygon", "coordinates": [[[44.3878542, 33.3328431], [44.3878879, 33.3328884], [44.3878272, 33.33292], [44.3878133, 33.3329013], [44.3877791, 33.332919], [44.3876853, 33.3327927], [44.3877234, 33.332773], [44.3876911, 33.3327295], [44.3877525, 33.3326976], [44.3877825, 33.3327379], [44.3878745, 33.3326902], [44.3878389, 33.3326423], [44.3878968, 33.3326123], [44.3879268, 33.3326525], [44.3879614, 33.3326346], [44.3880562, 33.332762], [44.3880323, 33.3327744], [44.3880698, 33.3328248], [44.3879945, 33.3328639], [44.3879443, 33.3327964], [44.3878542, 33.3328431]]]}}, {"type": "Feature", "properties": {"name": "117", "name_en": null, "kind": "apartments", "osm": "way/947082846"}, "geometry": {"type": "Polygon", "coordinates": [[[44.3881389, 33.332649], [44.3881726, 33.3326943], [44.3881118, 33.3327258], [44.3880979, 33.3327071], [44.3880638, 33.3327248], [44.38797, 33.3325986], [44.3880081, 33.3325788], [44.3879757, 33.3325353], [44.3880371, 33.3325035], [44.3880671, 33.3325438], [44.3881379, 33.3325071], [44.3881591, 33.3324961], [44.3881236, 33.3324482], [44.3881815, 33.3324181], [44.3882114, 33.3324584], [44.3882461, 33.3324404], [44.3883018, 33.3325154], [44.3883408, 33.3325679], [44.388317, 33.3325802], [44.3883545, 33.3326307], [44.3882792, 33.3326698], [44.3882289, 33.3326022], [44.3881389, 33.332649]]]}}, {"type": "Feature", "properties": {"name": "119", "name_en": null, "kind": "apartments", "osm": "way/947082847"}, "geometry": {"type": "Polygon", "coordinates": [[[44.3885287, 33.3325038], [44.3885624, 33.3325491], [44.3885017, 33.3325806], [44.3884878, 33.3325619], [44.3884536, 33.3325796], [44.3883598, 33.3324534], [44.3883979, 33.3324336], [44.3883656, 33.3323901], [44.388427, 33.3323583], [44.3884569, 33.3323986], [44.388549, 33.3323509], [44.3885134, 33.332303], [44.3885713, 33.3322729], [44.3886013, 33.3323132], [44.3886359, 33.3322952], [44.3887307, 33.3324227], [44.3887068, 33.332435], [44.3887443, 33.3324855], [44.388669, 33.3325246], [44.3886188, 33.332457], [44.3885287, 33.3325038]]]}}, {"type": "Feature", "properties": {"name": "121", "name_en": null, "kind": "apartments", "osm": "way/947082848"}, "geometry": {"type": "Polygon", "coordinates": [[[44.3888535, 33.3324047], [44.3888872, 33.33245], [44.3888264, 33.3324815], [44.3888125, 33.3324628], [44.3887784, 33.3324805], [44.3886845, 33.3323543], [44.3887226, 33.3323345], [44.3886903, 33.332291], [44.3887517, 33.3322592], [44.3887817, 33.3322995], [44.3888737, 33.3322517], [44.3888381, 33.3322039], [44.3888472, 33.3321992], [44.3888961, 33.3321738], [44.388926, 33.3322141], [44.3889606, 33.3321961], [44.3890554, 33.3323236], [44.3890315, 33.3323359], [44.389069, 33.3323864], [44.3889937, 33.3324255], [44.3889435, 33.3323579], [44.3888535, 33.3324047]]]}}, {"type": "Feature", "properties": {"name": "110", "name_en": null, "kind": "apartments", "osm": "way/947082849"}, "geometry": {"type": "Polygon", "coordinates": [[[44.3890807, 33.3330405], [44.3891144, 33.3330858], [44.3890537, 33.3331173], [44.3890398, 33.3330986], [44.3890056, 33.3331163], [44.3889118, 33.3329901], [44.3889499, 33.3329703], [44.3889176, 33.3329268], [44.388979, 33.332895], [44.3890089, 33.3329353], [44.389101, 33.3328876], [44.3890654, 33.3328397], [44.3891233, 33.3328096], [44.3891533, 33.3328499], [44.3891879, 33.3328319], [44.3892827, 33.3329594], [44.3892588, 33.3329718], [44.3892963, 33.3330222], [44.389221, 33.3330613], [44.3891708, 33.3329937], [44.3890807, 33.3330405]]]}}, {"type": "Feature", "properties": {"name": "112", "name_en": null, "kind": "apartments", "osm": "way/947082850"}, "geometry": {"type": "Polygon", "coordinates": [[[44.3894313, 33.3329125], [44.389465, 33.3329578], [44.3894042, 33.3329893], [44.3893903, 33.3329706], [44.3893562, 33.3329883], [44.3892624, 33.3328621], [44.3893004, 33.3328423], [44.3892681, 33.3327988], [44.3893295, 33.332767], [44.3893595, 33.3328073], [44.3894515, 33.3327596], [44.389416, 33.3327117], [44.3894739, 33.3326816], [44.3895038, 33.3327219], [44.3895385, 33.3327039], [44.3896332, 33.3328314], [44.3896093, 33.3328437], [44.3896469, 33.3328942], [44.3895716, 33.3329333], [44.3895213, 33.3328657], [44.3894313, 33.3329125]]]}}, {"type": "Feature", "properties": {"name": "129", "name_en": null, "kind": "apartments", "osm": "way/947082851"}, "geometry": {"type": "Polygon", "coordinates": [[[44.3884766, 33.3320387], [44.3885103, 33.332084], [44.3884496, 33.3321155], [44.3884357, 33.3320968], [44.3884015, 33.3321145], [44.3883077, 33.3319883], [44.3883458, 33.3319685], [44.3883135, 33.331925], [44.3883749, 33.3318932], [44.3884048, 33.3319335], [44.3884969, 33.3318858], [44.3884613, 33.3318379], [44.3885192, 33.3318078], [44.3885491, 33.3318481], [44.3885838, 33.3318301], [44.3886785, 33.3319576], [44.3886547, 33.33197], [44.3886922, 33.3320204], [44.3886169, 33.3320595], [44.3885667, 33.3319919], [44.3884766, 33.3320387]]]}}, {"type": "Feature", "properties": {"name": "131", "name_en": null, "kind": "apartments", "osm": "way/947082852"}, "geometry": {"type": "Polygon", "coordinates": [[[44.3887218, 33.3318132], [44.3887555, 33.3318585], [44.3886947, 33.33189], [44.3886808, 33.3318713], [44.3886467, 33.331889], [44.3885528, 33.3317627], [44.3885909, 33.331743], [44.3885586, 33.3316995], [44.38862, 33.3316676], [44.38865, 33.331708], [44.388742, 33.3316602], [44.3887064, 33.3316124], [44.3887644, 33.3315823], [44.3887943, 33.3316226], [44.388829, 33.3316046], [44.3889237, 33.331732], [44.3888998, 33.3317444], [44.3889373, 33.3317949], [44.388862, 33.331834], [44.3888118, 33.3317664], [44.3887218, 33.3318132]]]}}, {"type": "Feature", "properties": {"name": "133", "name_en": null, "kind": "apartments", "osm": "way/947082853"}, "geometry": {"type": "Polygon", "coordinates": [[[44.3890523, 33.3316935], [44.389086, 33.3317388], [44.3890252, 33.3317703], [44.3890113, 33.3317516], [44.3889772, 33.3317693], [44.3888834, 33.3316431], [44.3889214, 33.3316233], [44.3888891, 33.3315798], [44.3889505, 33.331548], [44.3889805, 33.3315883], [44.3890725, 33.3315406], [44.389037, 33.3314927], [44.3890949, 33.3314626], [44.3891248, 33.3315029], [44.3891595, 33.3314849], [44.3892542, 33.3316124], [44.3892303, 33.3316248], [44.3892679, 33.3316752], [44.3891926, 33.3317143], [44.3891423, 33.3316467], [44.3890523, 33.3316935]]]}}, {"type": "Feature", "properties": {"name": "147", "name_en": null, "kind": "apartments", "osm": "way/947082854"}, "geometry": {"type": "Polygon", "coordinates": [[[44.3895428, 33.3314185], [44.3895765, 33.3314638], [44.3895158, 33.3314954], [44.3895019, 33.3314767], [44.3894677, 33.3314944], [44.3893739, 33.3313681], [44.389412, 33.3313483], [44.3893797, 33.3313048], [44.3894411, 33.331273], [44.389471, 33.3313133], [44.3895631, 33.3312656], [44.3895275, 33.3312177], [44.3895854, 33.3311877], [44.3896153, 33.3312279], [44.38965, 33.3312099], [44.3897447, 33.3313374], [44.3897209, 33.3313498], [44.3897584, 33.3314002], [44.3896831, 33.3314393], [44.3896329, 33.3313717], [44.3895428, 33.3314185]]]}}, {"type": "Feature", "properties": {"name": "149", "name_en": null, "kind": "apartments", "osm": "way/947082855"}, "geometry": {"type": "Polygon", "coordinates": [[[44.3898089, 33.331214], [44.3898426, 33.3312594], [44.3897819, 33.3312909], [44.3897679, 33.3312722], [44.3897338, 33.3312899], [44.38964, 33.3311636], [44.3896781, 33.3311439], [44.3896457, 33.3311004], [44.3897072, 33.3310685], [44.3897371, 33.3311089], [44.3898291, 33.3310611], [44.3897936, 33.3310133], [44.3898515, 33.3309832], [44.3898814, 33.3310235], [44.3899161, 33.3310055], [44.3900108, 33.3311329], [44.389987, 33.3311453], [44.3900245, 33.3311958], [44.3899492, 33.3312349], [44.389899, 33.3311673], [44.3898089, 33.331214]]]}}, {"type": "Feature", "properties": {"name": "151", "name_en": null, "kind": "apartments", "osm": "way/947082856"}, "geometry": {"type": "Polygon", "coordinates": [[[44.3901344, 33.3310949], [44.3901681, 33.3311403], [44.3901073, 33.3311718], [44.3900934, 33.3311531], [44.3900593, 33.3311708], [44.3899655, 33.3310445], [44.3900035, 33.3310248], [44.3899712, 33.3309813], [44.3900326, 33.3309494], [44.3900626, 33.3309898], [44.3901546, 33.330942], [44.3901191, 33.3308942], [44.390177, 33.3308641], [44.3902069, 33.3309044], [44.3902416, 33.3308864], [44.3903363, 33.3310138], [44.3903124, 33.3310262], [44.39035, 33.3310767], [44.3902747, 33.3311158], [44.3902244, 33.3310482], [44.3901344, 33.3310949]]]}}, {"type": "Feature", "properties": {"name": "153", "name_en": null, "kind": "apartments", "osm": "way/947082857"}, "geometry": {"type": "Polygon", "coordinates": [[[44.3904195, 33.3309083], [44.3904532, 33.3309537], [44.3903924, 33.3309852], [44.3903785, 33.3309665], [44.3903444, 33.3309842], [44.3902506, 33.3308579], [44.3902886, 33.3308382], [44.3902563, 33.3307947], [44.3903177, 33.3307628], [44.3903477, 33.3308032], [44.3904397, 33.3307554], [44.3904042, 33.3307076], [44.3904621, 33.3306775], [44.390492, 33.3307178], [44.3905267, 33.3306998], [44.3906214, 33.3308272], [44.3905975, 33.3308396], [44.3906351, 33.3308901], [44.3905598, 33.3309292], [44.3905095, 33.3308616], [44.3904195, 33.3309083]]]}}, {"type": "Feature", "properties": {"name": "مفتشية اثار بغداد", "name_en": null, "kind": "library", "osm": "way/947082858"}, "geometry": {"type": "Polygon", "coordinates": [[[44.38977, 33.3317478], [44.3898664, 33.3316538], [44.3900277, 33.3317675], [44.3900321, 33.3317761], [44.3900322, 33.3317851], [44.3900273, 33.3317942], [44.3900178, 33.3318009], [44.3900016, 33.3318031], [44.3899792, 33.3317878], [44.3899247, 33.3318418], [44.3899035, 33.3318264], [44.389893, 33.3318366], [44.3898865, 33.3318448], [44.389877, 33.3318519], [44.389859, 33.3318582], [44.3898411, 33.3318583], [44.3898254, 33.3318471], [44.3897946, 33.3318769], [44.3896684, 33.3317858], [44.3897067, 33.3317486], [44.3897202, 33.3317583], [44.3897402, 33.331739], [44.3897545, 33.3317493], [44.389762, 33.3317421], [44.38977, 33.3317478]]]}}, {"type": "Feature", "properties": {"name": "سوق شاؤول طوبة اليهودي", "name_en": null, "kind": "yes", "osm": "way/947082868"}, "geometry": {"type": "Polygon", "coordinates": [[[44.3915162, 33.338441], [44.3917496, 33.3387052], [44.3916056, 33.3388508], [44.3915526, 33.3388255], [44.3912672, 33.3389922], [44.3912394, 33.3388762], [44.3910853, 33.3386567], [44.3915162, 33.338441]]]}}, {"type": "Feature", "properties": {"name": "خان شماش اليهودي", "name_en": null, "kind": "yes", "osm": "way/947082869"}, "geometry": {"type": "Polygon", "coordinates": [[[44.3916056, 33.3388508], [44.391593, 33.3389247], [44.3916803, 33.3390319], [44.3915046, 33.339161], [44.3914465, 33.3390956], [44.3913328, 33.3391252], [44.3912646, 33.339064], [44.3912672, 33.3389922], [44.3915526, 33.3388255], [44.3916056, 33.3388508]]]}}, {"type": "Feature", "properties": {"name": "سوق مناحيم دانيال", "name_en": null, "kind": "yes", "osm": "way/947082870"}, "geometry": {"type": "Polygon", "coordinates": [[[44.3909193, 33.3385867], [44.3914882, 33.3382229], [44.3914264, 33.3381555], [44.3913285, 33.3380486], [44.3912143, 33.337924], [44.3906455, 33.3382879], [44.3907357, 33.3383864], [44.3908445, 33.3385051], [44.3909193, 33.3385867]]]}}, {"type": "Feature", "properties": {"name": "قصر چوپانیان", "name_en": null, "kind": "yes", "osm": "way/947082871"}, "geometry": {"type": "Polygon", "coordinates": [[[44.3932372, 33.3359103], [44.3934026, 33.3357974], [44.3932185, 33.3356144], [44.3930555, 33.3357371], [44.3932372, 33.3359103]]]}}, {"type": "Feature", "properties": {"name": "رئاسة الطائفة اليهودية", "name_en": null, "kind": "yes", "osm": "way/947082872"}, "geometry": {"type": "Polygon", "coordinates": [[[44.3935472, 33.3357308], [44.3936365, 33.3356678], [44.3934341, 33.3354675], [44.3933457, 33.3355299], [44.3935472, 33.3357308]]]}}, {"type": "Feature", "properties": {"name": "سوق الارمن", "name_en": null, "kind": "yes", "osm": "way/947082874"}, "geometry": {"type": "Polygon", "coordinates": [[[44.3940574, 33.335027], [44.3942415, 33.3351858], [44.3939821, 33.3353919], [44.393798, 33.3352126], [44.3940574, 33.335027]]]}}, {"type": "Feature", "properties": {"name": "كنيس يهودي", "name_en": null, "kind": "place_of_worship", "osm": "way/947082875"}, "geometry": {"type": "Polygon", "coordinates": [[[44.3942415, 33.3351858], [44.3943582, 33.3350914], [44.3942129, 33.334966], [44.394127, 33.3350356], [44.3940882, 33.3350021], [44.3940574, 33.335027], [44.3942415, 33.3351858]]]}}, {"type": "Feature", "properties": {"name": "اورزدي بالك", "name_en": null, "kind": "yes", "osm": "way/947082876"}, "geometry": {"type": "Polygon", "coordinates": [[[44.394826, 33.3353689], [44.394908, 33.3353689], [44.3949847, 33.3353159], [44.3947322, 33.3350818], [44.3946144, 33.3351678], [44.394826, 33.3353689]]]}}, {"type": "Feature", "properties": {"name": "بدالة السنك", "name_en": null, "kind": "yes", "osm": "way/948322947"}, "geometry": {"type": "Polygon", "coordinates": [[[44.4020646, 33.331516], [44.4024007, 33.3312517], [44.4021273, 33.331009], [44.4016646, 33.331373], [44.4018413, 33.3315298], [44.4019678, 33.3314302], [44.4020646, 33.331516]]]}}, {"type": "Feature", "properties": {"name": "جامع الخلفاء", "name_en": "Al-Khalufa Mosque", "kind": "building", "osm": "way/949437742"}, "geometry": {"type": "Polygon", "coordinates": [[[44.3979484, 33.3389779], [44.3980144, 33.3389234], [44.3980185, 33.3388596], [44.3979621, 33.3388005], [44.3978625, 33.3387952], [44.3977966, 33.3388497], [44.3977925, 33.3389135], [44.3978489, 33.3389726], [44.3979484, 33.3389779]]]}}, {"type": "Feature", "properties": {"name": "ساعة القشلة", "name_en": null, "kind": "yes", "osm": "way/950212344"}, "geometry": {"type": "Polygon", "coordinates": [[[44.3866431, 33.3403041], [44.3867087, 33.3403474], [44.386651, 33.3404085], [44.3865853, 33.3403652], [44.3866431, 33.3403041]]]}}, {"type": "Feature", "properties": {"name": "مستشفى الجهاز الهضمي مدينة الطب", "name_en": "Digestive System Specilalised Hospital", "kind": "doctors", "osm": "way/955396471"}, "geometry": {"type": "Polygon", "coordinates": [[[44.3802848, 33.3460248], [44.3804436, 33.3462467], [44.3803026, 33.3463171], [44.3801439, 33.3460951], [44.3802848, 33.3460248]]]}}, {"type": "Feature", "properties": {"name": "الطب العدلي", "name_en": "Forensic Medicine Directorate", "kind": "hospital", "osm": "way/955396479"}, "geometry": {"type": "Polygon", "coordinates": [[[44.3799606, 33.3473664], [44.3802441, 33.3476718], [44.3801367, 33.3477501], [44.3800895, 33.3477771], [44.3800976, 33.34783], [44.3795829, 33.3478589], [44.3795702, 33.3478474], [44.3794689, 33.3478474], [44.3794382, 33.3477517], [44.379522, 33.3477133], [44.3798244, 33.3475542], [44.3797658, 33.3474765], [44.3799606, 33.3473664]]]}}, {"type": "Feature", "properties": {"name": "مدرسة منشي صالح اليهودية", "name_en": null, "kind": "school", "osm": "way/964291543"}, "geometry": {"type": "Polygon", "coordinates": [[[44.3983157, 33.3403495], [44.3983995, 33.3404162], [44.3984432, 33.3403778], [44.3984058, 33.340348], [44.3984502, 33.340309], [44.3985259, 33.3403692], [44.3983821, 33.3404955], [44.398261, 33.3403994], [44.3982761, 33.340386], [44.3982602, 33.3403733], [44.3982799, 33.3403561], [44.3982948, 33.3403679], [44.3983157, 33.3403495]]]}}, {"type": "Feature", "properties": {"name": "وزارة العدل", "name_en": null, "kind": "yes", "osm": "way/997070004"}, "geometry": {"type": "Polygon", "coordinates": [[[44.3912557, 33.3314603], [44.3914846, 33.3313034], [44.3915257, 33.3310165], [44.3915462, 33.330916], [44.3922388, 33.3303986], [44.3925529, 33.3304133], [44.3927671, 33.3306095], [44.3927524, 33.3308816], [44.3925353, 33.3310435], [44.3922594, 33.3310312], [44.3921801, 33.3309871], [44.3923005, 33.3308964], [44.3924883, 33.3308964], [44.3926145, 33.330813], [44.3926086, 33.3306512], [44.3925059, 33.3305482], [44.3923269, 33.3305384], [44.3917047, 33.3309797], [44.391693, 33.3310288], [44.3916431, 33.331377], [44.3913584, 33.3315633], [44.3912557, 33.3314603]]]}}, {"type": "Feature", "properties": {"name": "خان مرجان الاثري", "name_en": "Khan Marjan (Caravanserai)", "kind": "building", "osm": "way/1060090902"}, "geometry": {"type": "Polygon", "coordinates": [[[44.3927318, 33.3388708], [44.3929138, 33.3387583], [44.3926686, 33.3384817], [44.3924865, 33.3385938], [44.3927318, 33.3388708]]]}}, {"type": "Feature", "properties": {"name": "سور بغداد التاريخي", "name_en": "Baghdad Historic Wall", "kind": "citywalls", "osm": "way/1069456353"}, "geometry": {"type": "Polygon", "coordinates": [[[44.3832051, 33.3465845], [44.3828349, 33.3462898], [44.382855, 33.3462721], [44.3832252, 33.3465669], [44.3832051, 33.3465845]]]}}, {"type": "Feature", "properties": {"name": "معبد يهودي", "name_en": null, "kind": "place_of_worship", "osm": "way/1077246109"}, "geometry": {"type": "Polygon", "coordinates": [[[44.3987748, 33.3408929], [44.3987493, 33.3407344], [44.3985247, 33.3408285], [44.3985857, 33.3409232], [44.3986394, 33.3409002], [44.3987748, 33.3408929]]]}}, {"type": "Feature", "properties": {"name": "التوراة", "name_en": null, "kind": "place_of_worship", "osm": "way/1077246110"}, "geometry": {"type": "Polygon", "coordinates": [[[44.3978052, 33.3402078], [44.3977408, 33.3405103], [44.3976067, 33.3404599], [44.3975852, 33.340442], [44.3975209, 33.3403804], [44.3975115, 33.3403288], [44.3975222, 33.3402773], [44.3975477, 33.340191], [44.3978052, 33.3402078]]]}}, {"type": "Feature", "properties": {"name": "جسر الأحرار", "name_en": "Ahrar Bridge", "kind": "", "osm": "way/1077808830"}, "geometry": {"type": "Polygon", "coordinates": [[[44.3971199, 33.3334914], [44.3936343, 33.3308975], [44.3936885, 33.3308396], [44.3937403, 33.3307843], [44.3972258, 33.3333928], [44.3971732, 33.3334418], [44.3971199, 33.3334914]]]}}, {"type": "Feature", "properties": {"name": "متوسطة الرصافة للبنات", "name_en": null, "kind": "school", "osm": "way/1095114847"}, "geometry": {"type": "Polygon", "coordinates": [[[44.3897557, 33.3470113], [44.3897672, 33.3470416], [44.3897796, 33.3470438], [44.3897903, 33.3470815], [44.3898053, 33.3470801], [44.3898071, 33.3470934], [44.3897973, 33.3470956], [44.3898194, 33.3471407], [44.3898823, 33.3471421], [44.3898354, 33.3470409], [44.389815, 33.3469847], [44.3897557, 33.3470113]]]}}, {"type": "Feature", "properties": {"name": "جامع مرجان", "name_en": null, "kind": "yes", "osm": "way/1175800746"}, "geometry": {"type": "Polygon", "coordinates": [[[44.393397, 33.3389664], [44.3936008, 33.3388656], [44.3936357, 33.3389082], [44.3936411, 33.3389496], [44.3936317, 33.3389855], [44.3936062, 33.3390202], [44.3934184, 33.3391166], [44.3933567, 33.3391098], [44.3932991, 33.3390874], [44.3932588, 33.3390583], [44.3932347, 33.339028], [44.3932468, 33.3390023], [44.3933702, 33.3389351], [44.393397, 33.3389664]]]}}, {"type": "Feature", "properties": {"name": "مصرف الرشيد", "name_en": null, "kind": "bank", "osm": "way/1175999851"}, "geometry": {"type": "Polygon", "coordinates": [[[44.3931419, 33.337301], [44.392819, 33.3369082], [44.3927456, 33.3369466], [44.3927231, 33.3369693], [44.3926998, 33.337004], [44.3926848, 33.3370475], [44.3926836, 33.3370992], [44.3926923, 33.3371332], [44.3929322, 33.3374304], [44.3931419, 33.337301]]]}}, {"type": "Feature", "properties": {"name": "كبة السراي", "name_en": "Kubba Saray", "kind": "fast_food", "osm": "way/1193034274"}, "geometry": {"type": "Polygon", "coordinates": [[[44.3881118, 33.3401031], [44.3880794, 33.340132], [44.3881152, 33.3401572], [44.3881458, 33.3401282], [44.3881118, 33.3401031]]]}}, {"type": "Feature", "properties": {"name": "عمارة ريجينة مردخاي", "name_en": null, "kind": "yes", "osm": "way/1194471892"}, "geometry": {"type": "Polygon", "coordinates": [[[44.4008501, 33.3315695], [44.4006342, 33.3317065], [44.4005018, 33.3315609], [44.4007177, 33.3314238], [44.4008501, 33.3315695]]]}}, {"type": "Feature", "properties": {"name": "دار ريجينة مردخاي التراثي", "name_en": "Regina Khatun Heritage House", "kind": "yes", "osm": "way/1196010641"}, "geometry": {"type": "Polygon", "coordinates": [[[44.3861349, 33.3422034], [44.3860942, 33.342231], [44.3860985, 33.3422486], [44.3860823, 33.3422596], [44.3860603, 33.342254], [44.3860345, 33.3422715], [44.3860337, 33.3422926], [44.3860573, 33.3423169], [44.3860784, 33.3423167], [44.3861489, 33.3423891], [44.3861409, 33.3424029], [44.3861516, 33.3424138], [44.3861707, 33.3424115], [44.3862712, 33.3423611], [44.386147, 33.3422157], [44.3861349, 33.3422034]]]}}, {"type": "Feature", "properties": {"name": "مجمع القديس يوسف", "name_en": null, "kind": "retail", "osm": "way/1242085145"}, "geometry": {"type": "Polygon", "coordinates": [[[44.3958926, 33.3387518], [44.3958466, 33.3387859], [44.3963498, 33.3392597], [44.3963958, 33.3392256], [44.3958926, 33.3387518]]]}}, {"type": "Feature", "properties": {"name": "عمارة إدفيش عبود", "name_en": "The Abboud building", "kind": "yes", "osm": "way/1258026387"}, "geometry": {"type": "Polygon", "coordinates": [[[44.3929403, 33.3394688], [44.392952, 33.3394621], [44.3930968, 33.3393791], [44.3931089, 33.3393721], [44.3931004, 33.3393618], [44.3930009, 33.3392406], [44.392993, 33.339231], [44.3929809, 33.3392379], [44.3928362, 33.3393209], [44.3928244, 33.3393277], [44.3928322, 33.3393372], [44.3929318, 33.3394584], [44.3929403, 33.3394688]]]}}, {"type": "Feature", "properties": {"name": "دار المخطوطات", "name_en": "House of Manuscripts", "kind": "yes", "osm": "way/1259491403"}, "geometry": {"type": "Polygon", "coordinates": [[[44.3900662, 33.331744], [44.3901021, 33.3317096], [44.3901221, 33.3317235], [44.3901339, 33.3317224], [44.3901434, 33.3317164], [44.3901478, 33.3317075], [44.3901467, 33.331699], [44.3901325, 33.3316863], [44.3901865, 33.3316336], [44.3900707, 33.3315515], [44.3900321, 33.3315896], [44.3900201, 33.3315811], [44.3899899, 33.3316109], [44.3899768, 33.3316017], [44.3899427, 33.3316353], [44.3899839, 33.3316645], [44.3899657, 33.3316824], [44.3900186, 33.3317199], [44.3900243, 33.3317143], [44.3900662, 33.331744]]]}}, {"type": "Feature", "properties": {"name": "جامع سلطان باشا", "name_en": null, "kind": "place_of_worship", "osm": "way/1259770643"}, "geometry": {"type": "Polygon", "coordinates": [[[44.3981547, 33.3323062], [44.397936, 33.3324697], [44.3982486, 33.3327615], [44.398406, 33.3326438], [44.3984234, 33.3326599], [44.3984847, 33.3326141], [44.3981547, 33.3323062]]]}}, {"type": "Feature", "properties": {"name": "جامع الخفافين", "name_en": null, "kind": "place_of_worship", "osm": "way/1259770752"}, "geometry": {"type": "Polygon", "coordinates": [[[44.3905813, 33.3378819], [44.3905221, 33.3378218], [44.3907857, 33.3376406], [44.3908924, 33.3377489], [44.3907246, 33.3378642], [44.3906771, 33.337816], [44.3905813, 33.3378819]]]}}, {"type": "Feature", "properties": {"name": "جامع الحيدر خانة", "name_en": "Haydar Khana Mosque", "kind": "place_of_worship", "osm": "way/1265902732"}, "geometry": {"type": "Polygon", "coordinates": [[[44.3893865, 33.342709], [44.3896337, 33.3425534], [44.3894589, 33.3423655], [44.3892395, 33.3425505], [44.3892528, 33.3425654], [44.3893865, 33.342709]]]}}, {"type": "Feature", "properties": {"name": "وزارة الدفاع (رئاسة اركان الجيش)", "name_en": "Old Ministry of Defense", "kind": "yes", "osm": "way/1533225029"}, "geometry": {"type": "Polygon", "coordinates": [[[44.3798277, 33.3436305], [44.3799199, 33.3439544], [44.3800915, 33.344519], [44.3806494, 33.3453346], [44.3809391, 33.3457111], [44.3814112, 33.3461233], [44.3817223, 33.3463205], [44.3829982, 33.3467097], [44.3830276, 33.3466965], [44.3830815, 33.3466756], [44.3831319, 33.3466593], [44.3831923, 33.3466436], [44.3836749, 33.3461861], [44.3838225, 33.3459878], [44.383993, 33.3457586], [44.3840593, 33.3456718], [44.3849302, 33.3441695], [44.3844344, 33.343288], [44.3835778, 33.3435445], [44.3829444, 33.3426861], [44.382652, 33.3428328], [44.3818742, 33.3432631], [44.3813217, 33.3433661], [44.3812747, 33.3434222], [44.3811849, 33.3434367], [44.3811084, 33.3434064], [44.3806431, 33.3435039], [44.3799537, 33.3436429], [44.3798277, 33.3436305]]]}}, {"type": "Feature", "properties": {"name": "أسواق سعد", "name_en": null, "kind": "supermarket", "osm": "way/1552150829"}, "geometry": {"type": "Polygon", "coordinates": [[[44.3876046, 33.3335672], [44.3876985, 33.3336802], [44.3877593, 33.3336516], [44.3877587, 33.3336185], [44.3877781, 33.3335807], [44.3877463, 33.3335387], [44.3877126, 33.3335583], [44.387646, 33.3335363], [44.3876046, 33.3335672]]]}}, {"type": "Feature", "properties": {"name": "حيفا مول", "name_en": null, "kind": "supermarket", "osm": "way/1552150830"}, "geometry": {"type": "Polygon", "coordinates": [[[44.3886737, 33.3330046], [44.3887555, 33.3331204], [44.3889162, 33.3330565], [44.3888398, 33.3329325], [44.3886737, 33.3330046]]]}}, {"type": "Feature", "properties": {"name": "علوة الرحمة", "name_en": null, "kind": "greengrocer", "osm": "way/1552519443"}, "geometry": {"type": "Polygon", "coordinates": [[[44.3872825, 33.3331782], [44.3871785, 33.3330248], [44.3873407, 33.3329451], [44.3874481, 33.3330871], [44.3872825, 33.3331782]]]}}, {"type": "Feature", "properties": {"name": "مرطبات حيفا", "name_en": null, "kind": "restaurant", "osm": "way/1554610038"}, "geometry": {"type": "Polygon", "coordinates": [[[44.3895396, 33.3322326], [44.3895179, 33.3322126], [44.3895342, 33.3321994], [44.389562, 33.3321768], [44.3895839, 33.3321964], [44.3895396, 33.3322326]]]}}, {"type": "Feature", "properties": {"name": "المدرسة المستنصرية", "name_en": "Mustansiriya Madrasah", "kind": "archaeological_site", "osm": "relation/1244584"}, "geometry": {"type": "Polygon", "coordinates": [[[44.3892393, 33.3387196], [44.3893395, 33.338804], [44.3893348, 33.3388079], [44.3894078, 33.3388696], [44.389404, 33.3388727], [44.3895205, 33.3389709], [44.3895288, 33.3389645], [44.3895778, 33.3390058], [44.3898907, 33.338776], [44.3899002, 33.3387841], [44.3899853, 33.3387146], [44.3899758, 33.3387065], [44.3901582, 33.3385844], [44.3901636, 33.3385642], [44.3904528, 33.3384207], [44.3900638, 33.3380906], [44.3892393, 33.3387196]]]}}, {"type": "Feature", "properties": {"name": "القصر العباسي", "name_en": "Abbasid Palace", "kind": "castle", "osm": "relation/17330251"}, "geometry": {"type": "Polygon", "coordinates": [[[44.3832473, 33.3430397], [44.3834889, 33.3433301], [44.383722, 33.3431948], [44.3837076, 33.3431775], [44.383745, 33.3431557], [44.383715, 33.3431197], [44.3839031, 33.3430105], [44.3838365, 33.3429306], [44.3837681, 33.3429703], [44.3836373, 33.342813], [44.3835283, 33.3428763], [44.3835321, 33.3428809], [44.3835033, 33.3428975], [44.3834717, 33.3429159], [44.3834681, 33.3429116], [44.3832473, 33.3430397]]]}}]}